<kml xmlns="http://www.opengis.net/kml/2.2" xmlns:gx="http://www.google.com/kml/ext/2.2" xmlns:xsi="http://www.w3.org/2001/XMLSchema-instance" xsi:schemaLocation="http://www.opengis.net/kml/2.2 https://developers.google.com/kml/schema/kml22gx.xsd"><Document><name>Dessin</name><Placemark id="drawing_feature_1745310338917"><name></name><description>01 Alp Trupchun</description><Style><LineStyle><color>ff0000ff</color><width>3</width></LineStyle></Style><ExtendedData><Data name="type"><value>linepolygon</value></Data></ExtendedData><LineString><coordinates>10.010354254736598,46.61802024011723,0 10.010541108762544,46.617976302753426,0 10.01086552118694,46.61806650474003,0 10.01130126664485,46.61821239342327,0 10.01145764671925,46.6182385424304,0 10.011538175015033,46.61822315183675,0 10.011608057189386,46.618191039490256,0 10.011641787893495,46.61814956696899,0 10.011659952839127,46.61809148391313,0 10.011657128673027,46.618032179157616,0 10.011646582744094,46.617991707667315,0 10.011587050056987,46.61789677894953,0 10.011283984898744,46.61755674828505,0 10.011194448187108,46.61740831030966,0 10.011161622513633,46.617287770777,0 10.011147083068344,46.617111689883735,0 10.011179696950775,46.61684032382059,0 10.01120768037627,46.616755727046154,0 10.011264091411013,46.6166475883179,0 10.011373200731187,46.61651132496163,0 10.011422918863092,46.616469491039005,0 10.011547960639998,46.616406447279,0 10.011674917819862,46.616357778133604,0 10.011775382587368,46.61632158161043,0 10.011924497755976,46.61629870292656,0 10.012219161178239,46.616307305696985,0 10.01254730119597,46.616366286357355,0 10.012737386349304,46.61637640493662,0 10.012853940813308,46.61636783156931,0 10.01296591759621,46.61634070291232,0 10.013024889081377,46.616312228894216,0 10.013087892000103,46.61626500488309,0 10.013131599216395,46.616200406882456,0 10.013154700082511,46.61611676815069,0 10.013148383983696,46.61601004744355,0 10.013145396825674,46.615947353892366,0 10.013180735240676,46.615845020830655,0 10.01323480272794,46.61573947838325,0 10.01329822447447,46.615623546781215,0 10.013360459228975,46.61556022567276,0 10.013435517185329,46.615507639988884,0 10.0136687368938,46.61538956238371,0 10.013844597404232,46.61528211161435,0 10.013924089233626,46.615219247819354,0 10.014036826640519,46.61511769470884,0 10.014313670170848,46.61474429678792,0 10.01446726596886,46.6145435068094,0 10.0147177279059,46.614066830798244,0 10.014803777592034,46.613874529619835,0 10.014823566544514,46.6137479304669,0 10.014839863007403,46.61369580720275,0 10.01489066487744,46.61365341531889,0 10.01499223405126,46.6136171519755,0 10.015126464131383,46.61360117425185,0 10.015667847717205,46.61358163700684,0 10.01577679840478,46.6135524837481,0 10.015902104870802,46.6134970827938,0 10.016067619995455,46.613398720514034,0 10.016402480018883,46.61325770605458,0 10.016505484180271,46.61317774113933,0 10.01656164038829,46.613075386200315,0 10.0166150216153,46.61291487042531,0 10.01665603337847,46.6128395444005,0 10.016738824828012,46.612768213280035,0 10.01685436249322,46.61270494588477,0 10.01708528910692,46.61262450784396,0 10.017482794604815,46.61249867255879,0 10.018122160833755,46.612343473406746,0 10.018450945011887,46.61227213544118,0 10.018588761857607,46.6122066294936,0 10.018727558436646,46.61207175385235,0 10.018847965432371,46.61196752779673,0 10.019059464826299,46.61184539967357,0 10.019389047849003,46.61165796789231,0 10.01972850113907,46.61137097492417,0 10.01987948475474,46.61127655683666,0 10.020282155914865,46.61108818417416,0 10.020833018239152,46.61091804207614,0 10.021323926334055,46.61076149513993,0 10.02162622685605,46.610681210629856,0 10.022163416438444,46.61058812524526,0 10.022340836409391,46.61054018713201,0 10.022730382399034,46.61040537092803,0 10.02291584137179,46.6103507708925,0 10.023014580121846,46.61033989035873,0 10.023823789630296,46.61039421096655,0 10.024058944227173,46.610418385541664,0 10.024227271873563,46.61041065405431,0 10.024386402414637,46.610388481373974,0 10.024544646017123,46.61034777207179,0 10.02468570967772,46.610303546338756,0 10.024852557986192,46.6102352945058,0 10.025020059641601,46.61018070081402,0 10.025205347648594,46.610142305812204,0 10.025488438132498,46.610103640341315,0 10.025610889619957,46.610085229810025,0 10.025878978104096,46.61002932455475,0 10.026068139543739,46.609983026717764,0 10.026423211363499,46.60984896242685,0 10.026601212150858,46.60974724768218,0 10.026658070429313,46.60969126142753,0 10.02672882697822,46.60968867535966,0 10.026929609734678,46.60961867182325,0 10.027397027183458,46.60946251551249,0 10.027779338307173,46.60930536384019,0 10.027895765347694,46.609223188843536,0 10.027963620133809,46.609112950159286,0 10.028024596741124,46.60905541565556,0 10.028127595688971,46.60900268338823,0 10.028296562326773,46.60893117366181,0 10.028436581880879,46.60885216527356,0 10.028618416224694,46.608787560537415,0 10.028951495481904,46.60870507752459,0 10.029597837248607,46.60860974008114,0 10.029823459338026,46.60856501136772,0 10.030067703946168,46.6084946639344,0 10.030213213975271,46.608435202832744,0 10.030383787795682,46.60841908044366,0 10.030478769753168,46.608395321900765,0 10.030524320396854,46.608364771154704,0 10.03091685681532,46.60831479819179,0 10.031015555743803,46.60830319166547,0 10.031070619190384,46.60831849323172,0 10.031129176202041,46.6082977235711,0 10.031176510806116,46.60831104169561,0 10.031242442398442,46.60829154358587,0 10.031332869642057,46.60825996991071,0 10.031520960520167,46.608195217856746,0 10.031582191094412,46.60818662416337,0 10.031710397730954,46.60812588522053,0 10.031787205050774,46.60804999198835,0 10.0318328407716,46.60797768847261,0 10.031856068135683,46.60791741294435,0 10.03192990803833,46.60786678137042,0 10.03199673594153,46.60778227218519,0 10.032115883238014,46.6076960558029,0 10.032256998881396,46.60765396813672,0 10.032607058067972,46.60758984098559,0 10.03270729855276,46.60754508549731,0 10.032932534002875,46.60749244109011,0 10.03309583303544,46.60747720021679,0 10.033405790874204,46.60738303212817,0 10.033551846666365,46.60733507150401,0 10.034199207641533,46.6072396840866,0 10.034446322108264,46.60718581773631,0 10.034625170654952,46.607168060384495,0 10.034825796965364,46.607097951224475,0 10.035099262796018,46.60709243083372,0 10.035290420087465,46.607091667557796,0 10.035359188948295,46.607109533610206,0 10.03552925916922,46.60712652722204,0 10.035713145504387,46.60712664901511,0 10.03602477015479,46.607163412325065,0 10.036267901893318,46.60715714188043,0 10.036640471694922,46.6071702302898,0 10.036771824451737,46.60718594662548,0 10.036841574906072,46.607180754676136,0 10.03702698914323,46.60719091715294,0 10.037215685475504,46.60716069362234,0 10.037461897534975,46.60708812551461,0 10.037585058292445,46.60704212223514,0 10.03780615920173,46.6069470922372,0 10.037918732591761,46.606941641175375,0 10.038028215669732,46.60691538543993,0 10.038339631336552,46.60691690836222,0 10.038476594322342,46.606897222592224,0 10.03866915198682,46.6068604298787,0 10.038926679318482,46.606871100827455,0 10.039118850382287,46.60684799305683,0 10.039234894726777,46.606871254785844,0 10.039369418520609,46.60686602041415,0 10.039417720236973,46.60693617998638,0 10.039565281327015,46.60696303995807,0 10.039757596223051,46.60692121208886,0 10.039907319087229,46.606927866815305,0 10.04013233242124,46.60698534782465,0 10.04051043168044,46.60700477563389,0 10.040761495685826,46.60698967616116,0 10.04116608124481,46.606997059401586,0 10.04146580980768,46.60699452205225,0 10.04208824791499,46.60705442433803,0 10.042514434622957,46.60710429449957,0 10.042909519140997,46.60708589419652,0 10.043313433541284,46.607098963159835,0 10.04364809891853,46.60704091274055,0 10.043852934285505,46.6069987912207,0 10.04417758181427,46.60692801154545,0 10.044719485379002,46.60679106872978,0 10.045027696460949,46.60678525302641,0 10.045681850208945,46.60667956642073,0 10.045982330449537,46.606683570091704,0 10.046335044112908,46.60663157658949,0 10.046538381191167,46.60658012661086,0 10.046658354991994,46.6065610388178,0 10.046893597448056,46.6064563087104,0 10.047232503768832,46.60629296685764,0 10.047277730797404,46.606255938027,0 10.047509594724936,46.60616784030965,0 10.047665270193868,46.606124679496624,0 10.047900894863373,46.605984666385716,0 10.04815250758989,46.605981055290165,0 10.04825669231833,46.60599666164282,0 10.048334505388027,46.60605030435012,0 10.048367758015482,46.606089852563684,0 10.048452985631267,46.60609149682443,0 10.048503605152783,46.60603634783807,0 10.048531402386441,46.606006196825774,0 10.048723706865644,46.60596435383148,0 10.04897887203234,46.60590451201165,0 10.049073631306037,46.605898018865965,0 10.049363895332812,46.60585231115553,0 10.04965874926237,46.60581387203899,0 10.05012447270545,46.60580894189772,0 10.050413696145275,46.60580734739093,0 10.050848531300824,46.60574697595161,0 10.051149087508845,46.60574007493432,0 10.051299953460537,46.605713454837854,0 10.051407131812468,46.6056829198702,0 10.051604372158128,46.605656795015676,0 10.051747971678632,46.605623263774575,0 10.051831765598502,46.60551021243831,0 10.051948440299075,46.60546002319548,0 10.052036520246125,46.605423447754326,0 10.05212835710261,46.60537814786731,0 10.052329666759336,46.605306578379896,0 10.052387864800163,46.60525701216305,0 10.052549104415052,46.605160899110466,0 10.05265117156044,46.60506319890507,0 10.052707266192671,46.60505139846841,0 10.052813759314784,46.60497762283584,0 10.053000111996674,46.60493279613016,0 10.053119411506213,46.60485884021216,0 10.05320533088225,46.604810314373175,0 10.053339870019524,46.60477568768167,0 10.053422596337446,46.60477378644946,0 10.053528217265761,46.604727060072456,0 10.053686195258482,46.60470390750394,0 10.053833614144342,46.60464270518749,0 10.053922366246471,46.60458271541102,0 10.054181318763579,46.60448441058676,0 10.054271845078064,46.60446355867975,0 10.054418065798643,46.60442265548664,0 10.054529636469589,46.60440882781997,0 10.05474261727434,46.60435137261634,0 10.05487076928644,46.604342419142625,0 10.05489834326163,46.604304243593326,0 10.05493480671658,46.60426961776052,0 10.054989157998026,46.604244341277074,0 10.05505595465423,46.60422853945027,0 10.055148875101175,46.604212136763266,0 10.05522332747372,46.60419690955929,0 10.055262693838644,46.60417723344178,0 10.0553127636867,46.60415355695997,0 10.055291177062431,46.60420285738562,0 10.055276047987089,46.604227982709915,0 10.055311533507236,46.60424068143783,0 10.05536472433294,46.60423645479591,0 10.055453872799747,46.60425467676157,0 10.055590697064993,46.60426729707141,0 10.055648462929769,46.60433504463768,0 10.0556422597163,46.60436446969255,0 10.055767259440513,46.60444793975831,0 10.055820647596644,46.604503998592506,0 10.055859544072183,46.604519622064714,0 10.055846223445936,46.60442457311822,0 10.055879164321249,46.604339722409286,0 10.055942040442423,46.604287970399184,0 10.055988662890934,46.604260618802925,0 10.05617239896913,46.60422936185178,0 10.056245360424626,46.60416085933992,0 10.0562873669143,46.60413269845812,0 10.056414137604678,46.60409524346588,0 10.05655052439029,46.60407633780683,0 10.056660387612732,46.604049783195705,0 10.056969911562495,46.60396081973585,0 10.057223092821676,46.6039459827591,0 10.057360274885657,46.60389852625374,0 10.057538746402587,46.60384861749854,0 10.057562146092119,46.60381429143555,0 10.057681404849207,46.60377926046984,0 10.057700850278737,46.60375328458352,0 10.05783099361666,46.60371800277047,0 10.058165631346045,46.60355823026304,0 10.05830962899971,46.60347157242015,0 10.058435706292636,46.60339629160629,0 10.05862360556564,46.60331613076514,0 10.058997739423248,46.603211407913136,0 10.059032752425097,46.6032143556328,0 10.058832860949698,46.60345171696964,0 10.058736587212739,46.6036011981549,0 10.058717334268371,46.60392489747794,0 10.058766747801108,46.603887719661614,0 10.058853923771705,46.6037753398398,0 10.05903768306922,46.60365472880837,0 10.059375488398965,46.60345248259349,0 10.059659057595807,46.6033228137369,0 10.059993901180103,46.603261790165554,0 10.060077419566552,46.603231334210314,0 10.060124433435243,46.603167181077765,0 10.060183784033354,46.60311025197725,0 10.060311456254881,46.603069017607325,0 10.060467173693935,46.6030218809301,0 10.060519526245749,46.603000402017734,0 10.060635661318532,46.60296844304922,0 10.0608172926085,46.60298377854839,0 10.060885247167562,46.602969448175386,0 10.060924061568356,46.60291599533838,0 10.060927720784072,46.602879120245525,0 10.061039458676985,46.60280146149846,0 10.061167300287558,46.602705157465415,0 10.061329943681521,46.602643594142386,0 10.061492550223827,46.6025812805788,0 10.061628302008906,46.6024820443641,0 10.061740693371247,46.602417884782405,0 10.061835963936977,46.60238265156367,0 10.061894878771012,46.60233924651904,0 10.06203579118135,46.60230145900374,0 10.06212714082269,46.60225280093556,0 10.062218494001382,46.60222666765001,0 10.062275267821134,46.60218406261994,0 10.062276745395582,46.60212471284313,0 10.062347640080187,46.602126081187876,0 10.06236951439936,46.602105304276996,0 10.062360904569582,46.602040180457706,0 10.062450243890027,46.60198321053449,0 10.062550008820986,46.601928351356335,0 10.062634134807851,46.601865593641556,0 10.062698049607137,46.60179053784783,0 10.062818413387136,46.60168865175809,0 10.063034840933476,46.60144581650264,0 10.063086171129646,46.60140333660789,0 10.063255645691473,46.601235745446175,0 10.063305741416405,46.60119029058249,0 10.063637180120923,46.60105950694224,0 10.063793908867133,46.601033365500584,0 10.064334302874562,46.601025856917445,0 10.064451497571842,46.601060693617704,0 10.064550362071522,46.6010546575028,0 10.06469565461178,46.60099499130638,0 10.064862798094616,46.600981372131834,0 10.064942680391294,46.60094348805862,0 10.065027926918043,46.6008814534368,0 10.065148945332258,46.600815589528686,0 10.065371322029106,46.60070533859362,0 10.065692701674552,46.600569525197635,0 10.066085810781074,46.600473445108754,0 10.06625990936219,46.600423623211135,0 10.066617828072,46.60032225232019,0 10.06670753218629,46.600311534566806,0 10.066808395114487,46.60032422112224,0 10.066860249024955,46.60035981402118,0 10.066907797213103,46.60044130720424,0 10.066948001195536,46.600461401694645,0 10.06701421190358,46.60045611781593,0 10.067025662297514,46.60040029158831,0 10.067079907849573,46.600283409918596,0 10.067219139366138,46.60023364125266,0 10.067403080165722,46.60022939099046,0 10.067473905431093,46.60025178105719,0 10.067531007351855,46.60023844819791,0 10.067606964861636,46.600187137857084,0 10.067789707551691,46.60018066215761,0 10.068290014046386,46.600049715933885,0 10.068358255009201,46.60004138098069,0 10.06849990775987,46.59996650238838,0 10.068587046356136,46.599943464602006,0 10.068687597716401,46.59988257495501,0 10.0687438960313,46.599852741693205,0 10.068889034804632,46.599790070161916,0 10.069067701203194,46.59974464318007,0 10.069163790805883,46.599683311440955,0 10.069578837116692,46.59951822693904,0 10.069693850539961,46.59947741525213,0 10.069771102154236,46.59947634838659,0 10.069861925651097,46.59949656293571,0 10.069921136714246,46.59953262531853,0 10.069954457698126,46.59953041493298,0 10.069970026277757,46.59948542443155,0 10.069995602777155,46.59940996892839,0 10.070073295930843,46.59937505894754,0 10.070497706983838,46.59925222522715,0 10.070604925523401,46.59918496967128,0 10.070724391369774,46.59914981259684,0 10.070868382121793,46.59912488560675,0 10.070956418010004,46.59913076684569,0 10.071045609579096,46.599160376193055,0 10.071058607210789,46.599126962524295,0 10.071040714014721,46.59908130646018,0 10.071079755856404,46.5990249749543,0 10.071300031858598,46.5988775807906,0 10.071461850691705,46.5988112092692,0 10.071597807778327,46.598792945849574,0 10.071743911570048,46.59874709330762,0 10.071908009036552,46.59870807460823,0 10.072022942337268,46.59869169373878,0 10.072341588068353,46.59861657259401,0 10.072658229158662,46.59850033592556,0 10.072762842096632,46.59847647552957,0 10.073131530560024,46.59838132788193,0 10.073247005760951,46.598376080938806,0 10.073393556320307,46.5983701142768,0 10.073563255924384,46.59840209208628,0 10.073646245713576,46.598394167132675,0 10.073831111069055,46.598357299000924,0 10.074040021043336,46.59835417449475,0 10.074127763845413,46.598316125664965,0 10.07416188989192,46.5982758890131,0 10.074145010760574,46.59823597642297,0 10.074146536119146,46.59821621803509,0 10.074196497231943,46.59819447991488,0 10.074180652163518,46.59815025578428,0 10.07434110561707,46.598097659427964,0 10.074578217449027,46.59796408554194,0 10.074644598963912,46.59787079224496,0 10.07462930786385,46.597761383462334,0 10.07463788389721,46.59768115801907,0 10.074722659161521,46.597582293304086,0 10.074926615219846,46.59752868793893,0 10.07510649429356,46.59746620746352,0 10.07525857817259,46.59742066381161,0 10.075389102359315,46.59734131884498,0 10.075594049086488,46.59728254413163,0 10.075716894843563,46.59717336332793,0 10.07593331850649,46.59701827907857,0 10.076049593635684,46.59695298405698,0 10.076118144886392,46.59690423080428,0 10.076285914004941,46.59682316360006,0 10.076539868039989,46.59650849434848,0 10.076661773890395,46.59653310814554,0 10.076777598565,46.59648411568992,0 10.076826990976087,46.59639979023462,0 10.076821327717676,46.59633474960529,0 10.076904321732913,46.5962505023434,0 10.076993811616775,46.59614638125944,0 10.077048665684702,46.596046493564764,0 10.077047586186362,46.595947903185774,0 10.077125075277493,46.5958783613428,0 10.077166588814245,46.595853402584034,0</coordinates></LineString></Placemark></Document></kml>