<kml xmlns="http://www.opengis.net/kml/2.2" xmlns:gx="http://www.google.com/kml/ext/2.2" xmlns:xsi="http://www.w3.org/2001/XMLSchema-instance" xsi:schemaLocation="http://www.opengis.net/kml/2.2 https://developers.google.com/kml/schema/kml22gx.xsd"><Document><name>Dessin</name><Placemark id="drawing_feature_1745314751384"><name></name><description>02 Fuorcla Trupchun</description><Style><LineStyle><color>ff0000ff</color><width>3</width></LineStyle></Style><ExtendedData><Data name="type"><value>linepolygon</value></Data></ExtendedData><LineString><coordinates>10.07716791960019,46.59585029652724,0 10.077297913141837,46.595817047642456,0 10.077346030419408,46.59577562000614,0 10.077348324276516,46.595694224006735,0 10.077418272706387,46.59562925484614,0 10.0775001994989,46.59559568102278,0 10.077652520664104,46.59548489002073,0 10.077796287740433,46.59545564007008,0 10.077899177123026,46.59540214368562,0 10.077985056165916,46.595342563277185,0 10.078029017622747,46.595245636171256,0 10.078085059590808,46.595195386166594,0 10.078123975968962,46.59511529988971,0 10.07826549454829,46.59504003121939,0 10.078471396110803,46.59497838503102,0 10.078565741048145,46.59487829619943,0 10.078645544033991,46.59484405094505,0 10.078689992268272,46.59477031471591,0 10.078704909931542,46.59469078521158,0 10.078789648488044,46.59465066648969,0 10.078889039373735,46.59463252291342,0 10.078903380147501,46.594583960252535,0 10.078949854667203,46.59453033258755,0 10.078987630815769,46.594469708381396,0 10.079063623503917,46.594412702943,0 10.079157298987079,46.59429895199246,0 10.07915636503512,46.59423706674381,0 10.079178906083536,46.59420213322123,0 10.07927355024835,46.59415098646968,0 10.079492297883268,46.594053047721836,0 10.079510987057008,46.59400798322492,0 10.079496053486155,46.59398025583917,0 10.079769219618825,46.59386305686863,0 10.079871836995904,46.593745488932235,0 10.079987557568273,46.5936981712617,0 10.080037568246068,46.59369557022121,0 10.080121331114938,46.59365691283192,0 10.080228319257706,46.593600115984096,0 10.080267358326504,46.593565376479496,0 10.080382315958609,46.593523834890924,0 10.080479793362489,46.59350933354548,0 10.080530590235174,46.593480079647385,0 10.08057504573815,46.593427937878005,0 10.080627296633832,46.59338569283689,0 10.080715045259149,46.59332174773595,0 10.080843316971974,46.59323206694552,0 10.080901500013628,46.59316160992861,0 10.080957712892026,46.593114953662024,0 10.081047477112975,46.593049521703975,0 10.081073843543836,46.592990601394845,0 10.081058864681715,46.59287649347792,0 10.081056870413475,46.592777757821224,0 10.081085850578177,46.592729574545146,0 10.081125450866788,46.592706339276425,0 10.081202659108955,46.59264047902907,0 10.081333944540559,46.59256976309771,0 10.081379336452592,46.59251543965023,0 10.081707807599765,46.59218484318582,0 10.081755010828434,46.59210759274408,0 10.081895859160305,46.59210431972539,0 10.081991094821644,46.59206539426873,0 10.082027412136673,46.59201776007648,0 10.082087854354885,46.59201491569687,0 10.082138332488354,46.59197918980594,0 10.082155143036493,46.59193848757163,0 10.08209310765812,46.591823313737656,0 10.082118006513177,46.591819855668525,0 10.082262827998795,46.5918337662317,0 10.08228872341777,46.5918079696474,0 10.082437401611136,46.59181531169599,0 10.082455935142411,46.591809841906624,0 10.082542846831423,46.59181430044515,0 10.082788318973787,46.59183594861535,0 10.082873413630013,46.59182461233994,0 10.082969457591242,46.591866290403374,0 10.083017696325077,46.591870207887744,0 10.083042161761385,46.59190059262282,0 10.083141417527358,46.591901164421984,0 10.083276803351326,46.59195704434865,0 10.08331335456013,46.59195691433913,0 10.083352003651289,46.59191426443089,0 10.083361404468958,46.59187157471225,0 10.083305262629766,46.59172747046344,0 10.083225226740987,46.59143214144539,0 10.083283651146552,46.591366716437435,0 10.083399139392506,46.59122941927164,0 10.083438176909649,46.591174092101426,0 10.083542340942184,46.59106153298586,0 10.08359659127163,46.59099620483132,0 10.08368107279201,46.59088698267698,0 10.083744333986514,46.59080297834577,0 10.083814444325029,46.59074160035787,0 10.084002984998694,46.59064579456644,0 10.084104908928007,46.5905728786683,0 10.084242174166103,46.5904537901999,0 10.084353429174657,46.590400812870115,0 10.084623331309173,46.590281517924815,0 10.084696031854952,46.5902517524825,0 10.084777641769742,46.59023329733662,0 10.084811270511993,46.59017348725431,0 10.084802735588033,46.59014849109232,0 10.084737066644333,46.59012986303256,0 10.084708808828397,46.5900776796804,0 10.084732004756008,46.59001811233061,0 10.084781388179527,46.58996009530221,0 10.08479169000014,46.589911106904566,0 10.084592977298785,46.589670980766414,0 10.084614436084555,46.589554585681086,0 10.084685549342941,46.589428397219926,0 10.084721196449806,46.58943116716281,0 10.084802167015717,46.58957037403822,0 10.08485140916486,46.589509480841315,0 10.084848266737215,46.58948795844674,0 10.084878489127377,46.589462341085564,0 10.084882777646904,46.58942192968247,0 10.085106751203853,46.58915397315609,0 10.085193164601927,46.589034572100516,0 10.085206314176494,46.588983156735914,0 10.085307692535416,46.58887785912418,0 10.08534877508501,46.588763157168444,0 10.085374540769475,46.58866425228813,0 10.085511653951839,46.58847821947765,0 10.085516047537643,46.58843996516298,0 10.0855705874582,46.58840198353697,0 10.085595273251313,46.58832315295237,0 10.085879099796127,46.588019248881274,0 10.085980011368449,46.58790139735212,0 10.086040796685374,46.587841674603794,0 10.086099904814912,46.587769033512735,0 10.08620275382341,46.58762986777899,0 10.086276144514313,46.587999050425765,0 10.086365493155826,46.58790410973085,0 10.086426767271986,46.58778806070491,0 10.086534400476115,46.587682616212966,0 10.086640879461685,46.58751097228148,0 10.086644017638879,46.58746842806216,0 10.086675384958777,46.587469137434,0 10.086702993510613,46.58752104376667,0 10.086685193084502,46.587584085210736,0 10.086740387102617,46.58753816940447,0 10.08684201670283,46.5873775527138,0 10.086827089433047,46.58730735489777,0 10.08687436303344,46.58716372366541,0 10.086937713186954,46.587066622186946,0 10.087031887751328,46.586963650149265,0 10.087142851037736,46.586904917836414,0 10.087166403228707,46.586810068873596,0 10.087120602030591,46.586749228268516,0 10.08713827988922,46.58670931634909,0 10.087265221338294,46.58667828600526,0 10.087309150059948,46.58663695130211,0 10.087378730389393,46.58652231422727,0 10.087431949869524,46.586436132361634,0 10.087706767210541,46.586268484932205,0 10.087918566782896,46.586200204551815,0 10.08792345186573,46.586172016573784,0 10.087872694782442,46.586137926152716,0 10.087790267874041,46.58611825061224,0 10.087787850554108,46.586090232763326,0 10.087841969208316,46.586029422500346,0 10.087882506804343,46.58596153205915,0 10.087794309202772,46.585877622861226,0 10.087737539863653,46.58584871142342,0 10.08772325986377,46.58581305147824,0 10.087621817033087,46.58574630853009,0 10.087619188424435,46.585713976449185,0 10.087655743184074,46.58567137371059,0 10.087728641124398,46.58558185386055,0 10.087821540430406,46.585496157791596,0 10.087910078238997,46.58544874475667,0 10.08790030939221,46.585398582734975,0 10.087953350753367,46.585308805424084,0 10.088005248686889,46.58538749998113,0 10.088000814408206,46.585467506783246,0 10.088031997038843,46.585507092042036,0 10.08800867958357,46.58558537918424,0 10.088032037013726,46.58570085887981,0 10.088066518991775,46.58567989976007,0 10.088138105080793,46.58560624695637,0 10.08821329270397,46.585563463803894,0 10.088250095354047,46.58549319100156,0 10.088410323916468,46.58537428174251,0 10.088515492091126,46.58527993440937,0 10.088659028511586,46.585161413705485,0 10.088702193576337,46.58512585503475,0 10.088835748775255,46.58505939596124,0 10.088822230137717,46.58512449762833,0 10.089009099867265,46.58501648431501,0 10.0890424672861,46.584994111158124,0 10.089188403397158,46.58495659538347,0 10.089315810720935,46.58484996731246,0 10.08937419970539,46.5848054153181,0 10.089454827156539,46.58478841918803,0 10.089437437501092,46.58473195620093,0 10.089368091412723,46.58470325791792,0 10.089239553424301,46.58457380101354,0 10.089264595969718,46.58453074609126,0 10.089280834869768,46.58447853830693,0 10.089372491109913,46.5843669845684,0 10.089493465370493,46.58446998310967,0 10.089511400470402,46.58430327926002,0 10.089548969009874,46.584323999129296,0 10.089565547664925,46.58436392438861,0 10.089672114926318,46.584449982134615,0 10.089664134434875,46.5843724241299,0 10.089734121008242,46.58421057596881,0 10.089760484749501,46.584322258300816,0 10.089884327684132,46.58439855503997,0 10.08996450833399,46.58444519243324,0 10.089929736961258,46.58439633326043,0 10.08991808296359,46.584286467562386,0 10.090045590302038,46.58433100522867,0 10.090163421594646,46.584412480783044,0 10.090135126430338,46.584325318523135,0 10.090092650267277,46.58424712509204,0 10.090195888335593,46.58424399827853,0 10.090509159403542,46.58434971074535,0 10.090462278028042,46.584288176753724,0 10.090526404851202,46.5842967594689,0 10.090666662600452,46.584324442542346,0 10.090802032644492,46.58427377548923,0 10.09068771828338,46.58420013694539,0 10.090816027463102,46.58419714479116,0 10.090928296131889,46.58422907943299,0 10.091060349743803,46.584259832801585,0 10.091079222488064,46.58434649476751,0 10.091088439699389,46.58444921868296,0 10.09118619483703,46.58431304615768,0 10.091219036759277,46.584237415509,0 10.091163864296776,46.58400690986339,0 10.091187942306156,46.58388037409777,0 10.091270574856157,46.58382473858086,0 10.091339181005319,46.58377562808811,0 10.091434254077726,46.583733818551075,0 10.09160623809063,46.58368445599982,0 10.09181776016888,46.58358953991429,0 10.091861164634281,46.58360148464315,0 10.09203538930693,46.58376802496611,0 10.092086243344959,46.58385403207626,0 10.092079870103435,46.583936963838404,0 10.092178636064647,46.58409806597197,0 10.092203659400411,46.5841973979379,0 10.092240589581374,46.58424764578768,0 10.09222553385923,46.58434517721592,0 10.09229442222447,46.58430181836906,0 10.092374040072073,46.5842855635297,0 10.092512365306726,46.584188754824375,0 10.092573919637774,46.58410237583669,0 10.092614971541622,46.5841302119592,0 10.092614544213708,46.58416405502225,0 10.092642815473488,46.58416555482577,0 10.09268150635989,46.58410274454223,0 10.092732946407825,46.584023080127594,0 10.09279924246477,46.584097117490366,0 10.09289043189314,46.58397621354046,0 10.092962630469232,46.584085385834356,0 10.093011152389934,46.58401010851878,0 10.093088743662344,46.584122754167275,0 10.09317043812042,46.583999912015045,0 10.093231217209956,46.58408919484324,0 10.093331935252145,46.58397094752446,0 10.09338859645485,46.58404017048703,0 10.093573492202736,46.58391347924577,0 10.093594436068766,46.58402096829193,0 10.093677275212219,46.58394272992688,0 10.093744464051673,46.58390732825393,0 10.093744865746176,46.58397930417261,0 10.093886204681837,46.58388227204997,0 10.093857308503226,46.58397436807436,0 10.093976022184364,46.58388233454613,0 10.09398309059109,46.58394119748762,0 10.094091388781411,46.5838710026453,0 10.094082685032378,46.58394895002862,0 10.094243336516781,46.583860256092755,0 10.094236031806101,46.58390289802447,0 10.094386093592618,46.58378997615317,0 10.094413422750707,46.58387859979803,0 10.094524357424799,46.58375579363227,0 10.094547726167454,46.58384882884843,0 10.094662159795657,46.583754735009414,0 10.094794891793962,46.58367173130839,0 10.09484358943598,46.58355757691,0 10.094874530675284,46.583549655701,0 10.094932203238715,46.583575663038346,0 10.09503048430144,46.583684224981084,0 10.095095940692667,46.583613590078336,0 10.09510213639843,46.58344212015685,0 10.095139425620934,46.58341461456573,0 10.095216652071855,46.58345600184382,0 10.09523620249685,46.583556324676614,0 10.095271193468312,46.58352455356267,0 10.09531373209576,46.58354011651326,0 10.09542757994691,46.58345539359209,0 10.095522491106621,46.58338910929853,0 10.095571635312583,46.583426833289046,0 10.095636188903127,46.58335909856844,0 10.09573574446945,46.583451073462314,0 10.095880727423312,46.58334114757436,0 10.0959564152932,46.5834149637392,0 10.095998141172707,46.583413988763866,0 10.096070950530443,46.58336549693915,0 10.096146197394441,46.58340908944258,0 10.096238844447358,46.58333925811034,0 10.096264269569295,46.58330411102503,0 10.096297756361206,46.58330548797661,0 10.096340648574543,46.5833282408517,0 10.096376292178869,46.58333100714566,0 10.096420158505682,46.58326735467883,0 10.096465030951473,46.58328790161741,0 10.096588348065104,46.58323606949768,0 10.096644642466805,46.58323403394709,0 10.096708821851198,46.58326492735784,0 10.09674582732176,46.58323166899412,0 10.096814586136746,46.58324949794044,0 10.09686605463651,46.58317055064076,0 10.09695318281908,46.58324337891857,0 10.096984954979186,46.58318864717216,0 10.096969378897608,46.58314797956449,0 10.097172968056489,46.58318929116531,0 10.097139534739387,46.583125285833965,0 10.09737457742509,46.58310539401389,0 10.097316256502255,46.583057805029306,0 10.097437331383654,46.58305641415987,0 10.097442034416849,46.58302463059999,0 10.097607539943667,46.58305603396377,0 10.097567122599648,46.58299867074019,0 10.097583140908796,46.58298461897863,0 10.097744297081817,46.58301252455995,0 10.097657238734572,46.58289866352454,0 10.097652111364338,46.582879347330994,0 10.097852694548356,46.58294448318348,0 10.097851880780217,46.58288547413065,0 10.097980080503046,46.58288031681493,0 10.098055927965571,46.582808717261585,0 10.098179671971247,46.58279790505254,0 10.098275020852205,46.5827618420478,0 10.0983036973343,46.58270790213458,0 10.098389792840068,46.582717979721906,0 10.098465022649389,46.58273997547191,0 10.098547838237298,46.58281002398554,0 10.09859555660743,46.58278227326633,0 10.09866516260285,46.58273241491429,0 10.098708353584737,46.58265510005814,0 10.09869511030829,46.58261941708213,0 10.098717562912212,46.58256634247561,0 10.09887695053219,46.58260076651065,0 10.0989334015959,46.582538258291976,0 10.099051294722187,46.58259956750803,0 10.099136301955545,46.58262925248131,0 10.099213298299414,46.58260225625047,0 10.099238478171307,46.582560665763,0 10.099245247833885,46.582507238100916,0 10.099295881279925,46.58243262830832,0 10.099310677440213,46.58237253414645,0 10.099480422878097,46.58249117063096,0</coordinates></LineString></Placemark></Document></kml>