<kml xmlns="http://www.opengis.net/kml/2.2" xmlns:gx="http://www.google.com/kml/ext/2.2" xmlns:xsi="http://www.w3.org/2001/XMLSchema-instance" xsi:schemaLocation="http://www.opengis.net/kml/2.2 https://developers.google.com/kml/schema/kml22gx.xsd"><Document><name>Dessin</name><Placemark id="drawing_feature_1745324201423"><name></name><description>04 Piz Quattervals</description><Style><LineStyle><color>ff0000ff</color><width>3</width></LineStyle></Style><ExtendedData><Data name="type"><value>linepolygon</value></Data></ExtendedData><LineString><coordinates>10.117527700432912,46.662833507401125,0 10.11767262067233,46.66275221446315,0 10.117801798563807,46.66265619171574,0 10.117993334816811,46.66256029127272,0 10.118206765746743,46.66241698587443,0 10.118287717170972,46.662372960291734,0 10.118271088636563,46.66233081429157,0 10.118315783460357,46.662260682636294,0 10.118433869600047,46.662159349971176,0 10.118515603878805,46.66202663515975,0 10.118542851626472,46.66200941473349,0 10.118562195109371,46.661940800644,0 10.118588940324575,46.66191346033228,0 10.118709765639096,46.661867326987796,0 10.119013449418867,46.66178465277251,0 10.119035302553621,46.661766343275474,0 10.119009856974722,46.661717272049586,0 10.119074048003585,46.66147722839356,0 10.119134845486965,46.6613325460002,0 10.119061396214299,46.661243477205616,0 10.119046406339011,46.6611060557549,0 10.119079317877473,46.661052731673394,0 10.119070160164311,46.66091041557151,0 10.119119161785799,46.66080200371819,0 10.119086377916025,46.66073150950378,0 10.119125622325734,46.66053190544395,0 10.119128447601403,46.660481337003205,0 10.119161974963015,46.66041936009198,0 10.119373197724459,46.6601869137787,0 10.119413768580923,46.660161483666066,0 10.119563453027977,46.660121967361825,0 10.119578229659695,46.660103623101605,0 10.119602958269153,46.66001369459431,0 10.119592271307798,46.65998803131112,0 10.11961122726316,46.65988536544862,0 10.119594344362836,46.65981058094887,0 10.119523909562721,46.65976112917576,0 10.119424959506627,46.65960077077226,0 10.11928596089601,46.65941704911919,0 10.119246498719159,46.65938054541699,0 10.11922005596761,46.65922711847951,0 10.11914391889957,46.65899817397194,0 10.119091766199903,46.65884706856688,0 10.119093259515699,46.65872969678685,0 10.1191471344558,46.65859309570145,0 10.119250090455632,46.65824442128514,0 10.119284008991947,46.658190353507806,0 10.119281047276935,46.65804645187392,0 10.119363837305988,46.65800779041249,0 10.119300931270994,46.657962480461826,0 10.119273096579265,46.657839640038034,0 10.119181318395093,46.65776045651177,0 10.119038356565047,46.65768247759656,0 10.119002100878436,46.657647338086896,0 10.118903313876475,46.65761654971449,0 10.11881895780774,46.6574551275667,0 10.118631390241166,46.6574897756985,0 10.118501249096715,46.65758017294563,0 10.118461179394714,46.657615668957185,0 10.118241410843824,46.6575704502571,0 10.118181390200181,46.65752003282833,0 10.11816458944631,46.65747651690061,0 10.118049680578347,46.65741587313268,0 10.117936064568077,46.657394251970295,0 10.117825233549421,46.657394699862195,0 10.117720287300653,46.65736621495528,0 10.117698151112934,46.65725731754464,0 10.117514416930659,46.65716565290086,0 10.117495099543676,46.65711355777989,0 10.117583677191977,46.65702293180433,0 10.117547444194754,46.65693715078967,0 10.117451945647248,46.65688828744413,0 10.117396166019322,46.656860085404986,0 10.117304687736365,46.65676577644004,0 10.117207711852824,46.656712545254216,0 10.11707627602198,46.6565716653688,0 10.116951648371478,46.656504770511496,0 10.116792495453119,46.65643162883496,0 10.116727764250347,46.656370523690235,0 10.116652388870579,46.65634782113112,0 10.116490600114075,46.656247170347605,0 10.116444971527137,46.6562338461612,0 10.116323468615905,46.656187752926215,0 10.116207319541711,46.65611856660071,0 10.116158161137319,46.65603405955267,0 10.116074771932299,46.65597627212581,0 10.115938617639733,46.65588597246729,0 10.115899741327775,46.65584009581391,0 10.115797693792988,46.6557856262812,0 10.115550203086007,46.655666189315426,0 10.115361805685007,46.655641823530715,0 10.11524252586585,46.655619432197746,0 10.11504476014827,46.65567189740952,0 10.115017330901383,46.65570925470519,0 10.115014175454238,46.65575108048136,0 10.115005879512106,46.65577359094923,0 10.114825172130255,46.65571449049945,0 10.114394662854222,46.65553454287309,0 10.114360168885066,46.65551375769738,0 10.114245375320323,46.65545526715932,0 10.1141622517448,46.65544498254249,0 10.114103996194627,46.655472266051966,0 10.113812381610202,46.65541001077289,0 10.113684567209779,46.655375633129566,0 10.11364460160938,46.65534993728499,0 10.113561940220182,46.65528565229981,0 10.11336918882308,46.65525778626869,0 10.113277306137517,46.65526066418833,0 10.11322021251892,46.6552058564387,0 10.11270654285217,46.65511713985267,0 10.112639040481069,46.655126643311434,0 10.112494665354964,46.65504972055024,0 10.112382189208175,46.65503796435053,0 10.112270816941097,46.65504849762371,0 10.112199730119544,46.655027851088505,0 10.112150151146189,46.65499806129463,0 10.112149095063465,46.654955614690664,0 10.112070939805337,46.65487126221173,0 10.112031889501479,46.65482178914696,0 10.11190622683387,46.65481826046233,0 10.11187051097608,46.65481190034132,0 10.11177035710058,46.654732187945704,0 10.11158672242802,46.654595506551104,0 10.111418580237332,46.65455770153117,0 10.111308004049672,46.6545631762248,0 10.111191379913866,46.65453418494692,0 10.111115950658611,46.6544891646246,0 10.110939132798933,46.65444508384185,0 10.110732821807613,46.65433330868946,0 10.110566870260904,46.65424526660232,0 10.110318023350255,46.654076900474635,0 10.110177228972503,46.65393133770253,0 10.110125159024518,46.65391456290982,0 10.11003101444653,46.653850544897196,0 10.109968716046948,46.65377498194228,0 10.109922379622631,46.65374727475045,0 10.109926977798022,46.65364998658266,0 10.10990509916372,46.653561413236815,0 10.109817804544038,46.65348787628232,0 10.109770702125223,46.653360127277146,0 10.109657674169911,46.65318716501021,0 10.109606804840112,46.653152365487486,0 10.109393332437651,46.653043635478824,0 10.109348681630625,46.65299846302191,0 10.109192869219818,46.65259668779079,0 10.109137720330997,46.65246632539436,0 10.109117866181995,46.652424319613985,0 10.109059615437342,46.652388253261904,0 10.109044628139118,46.65233893482579,0 10.109056321533249,46.65230050835147,0 10.108932004653894,46.65222749423743,0 10.108933040059005,46.65218499858051,0 10.108890670152983,46.65215287888203,0 10.10888705217535,46.65212200998374,0 10.108861487120322,46.65211253153554,0 10.10884293564749,46.65211800553858,0 10.108837513255507,46.65209293780449,0 10.108842619942834,46.65204818711092,0 10.108819834198083,46.65199340791874,0 10.108733600095167,46.65194974326182,0 10.108662825418337,46.65195644177556,0 10.10858561071292,46.651896344833744,0 10.108474568977018,46.65184999832533,0 10.108432008320696,46.65183515944139,0 10.10843793300893,46.651806946224546,0 10.108396403379782,46.65181295889704,0 10.108322500341451,46.65175638339897,0 10.108326172963771,46.651709817346386,0 10.10818563801912,46.65165912307903,0 10.108187269936996,46.651586379581296,0 10.108107322386035,46.651576736177134,0 10.108076086357718,46.65153953875207,0 10.108019579016403,46.65153870388714,0 10.107987014826438,46.65149339663241,0 10.107976228433797,46.65146557519791,0 10.107972794243572,46.65137495415442,0 10.107863839731479,46.65120130184344,0 10.107799901907352,46.6509443731688,0 10.107762589316808,46.650781840997965,0 10.107770034497111,46.65074207453067,0 10.107742146361568,46.65070673557131,0 10.107691160165352,46.65069065421855,0 10.107652507839402,46.65064908884202,0 10.107636975368298,46.65060986096665,0 10.107530022041251,46.65054038247792,0 10.10745124102277,46.65035763636062,0 10.107470686480754,46.6503067908781,0 10.107435274541253,46.65026730904351,0 10.107201515045357,46.65006378314612,0 10.107138849302086,46.65006525174881,0 10.106855365731159,46.6497344432121,0 10.106818533464711,46.64966620034973,0 10.10661544408959,46.6496284699873,0 10.106569041892206,46.64959932340139,0 10.106534448083295,46.64947056034664,0 10.10640096481582,46.64937198997525,0 10.106328971137259,46.649375116407064,0 10.10626534709597,46.649357170955916,0 10.106249851603623,46.64931866189506,0 10.106134989676832,46.64926414440837,0 10.105976380831198,46.64927073938314,0 10.105868762074213,46.649247978144516,0 10.105796200372067,46.649239599909805,0 10.10575848192243,46.64915338117126,0 10.105783507145548,46.6490037854118,0 10.105733745180617,46.64899127379393,0 10.105667493827816,46.64892012045225,0 10.10552925599415,46.6488945641621,0 10.105475253783442,46.648817364975514,0 10.10535758479116,46.64878484807675,0 10.105344453619102,46.64874884520048,0 10.105363098410303,46.64866058646556,0 10.105181205081314,46.64842429774283,0 10.105293185807291,46.648299300257754,0 10.105222588501194,46.64821751607761,0 10.10515366640915,46.64790167497497,0 10.105208225195446,46.647632411412445,0 10.105081260098514,46.64755980021337,0 10.105079910937013,46.64753247740017,0 10.104949960924095,46.64750528669587,0 10.104953564501107,46.64745121333874,0 10.104897963918647,46.64744747632917,0 10.104919428452318,46.64739514430873,0 10.10481820961489,46.64737807848626,0 10.10481872407951,46.64724812160912,0 10.104765830794381,46.647235682877955,0 10.104713094420807,46.64720524426344,0 10.104713215799817,46.647186525201995,0 10.10459211879495,46.64716920479606,0 10.104557882417385,46.64715344976735,0 10.104437900844163,46.64713754276744,0 10.104394584609205,46.64712847896164,0 10.104395984535087,46.647097977576024,0 10.104352632845163,46.64708819474342,0 10.104356434936287,46.64705931161681,0 10.10431042663277,46.64703807330481,0 10.104309924304404,46.646985535762326,0 10.104192685949796,46.646961645949034,0 10.10404484996815,46.646947110449084,0 10.104033319072979,46.64691957565346,0 10.10391942697223,46.64689992630913,0 10.103881809408529,46.646879211286645,0 10.103740500217016,46.64687604027799,0 10.103720053933436,46.64686428135725,0 10.103627495426256,46.64687436619181,0 10.1035746335114,46.646820174799345,0 10.103562867364461,46.64670887304098,0 10.103678207745585,46.64645330445368,0 10.103783049814202,46.6462896034239,0 10.103828620148514,46.646062380038,0 10.103870723956632,46.645856236389676,0 10.103851102904379,46.64579763764002,0 10.103886022672446,46.64576370697007,0 10.103857424853233,46.64567151542685,0 10.103899421786032,46.64561150441135,0 10.103989280956279,46.64554677369231,0 10.103836435495579,46.64535163732564,0 10.103558631538963,46.64527319728365,0 10.103527174848796,46.645250178390214,0 10.103561759755182,46.64523065269168,0 10.103531894984064,46.64519751867382,0 10.103485447455299,46.64518852785073,0 10.103468434122307,46.645161571683126,0 10.103482730742806,46.64511228706611,0 10.103439419488307,46.64508654577551,0 10.103494566937458,46.64501758888145,0 10.103767786909874,46.6449608040382,0 10.10382015572646,46.644899110569746,0 10.103938991388938,46.64484953833263,0 10.104015278125365,46.644827596580555,0 10.104017478000387,46.644723886302124,0 10.104012798739491,46.64467144659176,0 10.10397721558203,46.644628368552,0 10.103954569881207,46.644572030296374,0 10.103968597857893,46.644441545442476,0 10.103958595661565,46.64442954208772,0 10.10398841450015,46.64437701462146,0 10.103883755603011,46.64421378746502,0 10.10386147185358,46.64412113458348,0 10.103811588084199,46.64408486999134,0 10.10381399110318,46.64404882109872,0 10.103858521477896,46.64401898458128,0 10.10387285292656,46.643970418948584,0 10.103760442654083,46.64385355476841,0 10.103776498086944,46.64367975641575,0 10.103815020990126,46.64359175240798,0 10.103789344477057,46.643495173354786,0 10.103837021356666,46.643312527101465,0 10.103716724806274,46.64309938719519,0 10.103741488133004,46.64301379760335,0 10.10350244127146,46.64286783462992,0 10.103514136554463,46.642829408663765,0 10.103480537118447,46.64278412455563,0 10.103356916017304,46.642736628301236,0 10.103298404392254,46.64265622421605,0 10.103222583479695,46.64253922305536,0 10.10324533450925,46.64244494828924,0 10.10318781897741,46.642359912072436,0 10.103186770179514,46.64231746530925,0 10.103148446584912,46.64228236958669,0 10.103108468206013,46.64214395615616,0 10.10304373854192,46.64212459529709,0 10.10294583605237,46.642068578367514,0 10.102920693893024,46.64198278441655,0 10.102884443464244,46.641942338438085,0 10.102875473528073,46.64180289695772,0 10.102877088127071,46.641666087163635,0 10.102770560492049,46.64161224924115,0 10.10264557512841,46.641515834252544,0 10.102581811665383,46.64141006824317,0 10.10252720627841,46.64134344901526,0 10.10241928862225,46.64129630425097,0 10.102389797186769,46.641249484017074,0 10.102339459932486,46.641246342631774,0 10.102284358496508,46.64121019948372,0 10.102213664194723,46.6410695590555,0 10.102182860987444,46.64099613490189,0 10.102121278017043,46.64091335290945,0 10.102087237014493,46.64088211378234,0 10.102042245398831,46.64078811922149,0 10.101990096610466,46.64070583632764,0 10.101889416064534,46.64061461079175,0 10.101823353943493,46.640504579023464,0 10.10183037485307,46.64045383670984,0 10.101699105626832,46.640293500882805,0 10.101665435045568,46.64020430699391,0 10.101683335085768,46.64005847809157,0 10.10170272778278,46.639968599252136,0 10.101561352950997,46.63979410263706,0 10.101453814787599,46.63963607355806,0 10.101403582311383,46.639592617623215,0 10.101318903554768,46.63948662032522,0 10.101114572221817,46.6392437700137,0 10.101124010000387,46.63919004710776,0 10.101093105895329,46.63915693681166,0 10.101010571414305,46.63907320458588,0 10.100942249955882,46.63900209724783,0 10.100844426188392,46.63894751656299,0 10.10079040781784,46.63891206727717,0 10.100766375661143,46.63887317136823,0 10.100726251207492,46.63884387582394,0 10.100595416927387,46.63873463816522,0 10.10049931038272,46.63866541082834,0 10.100408527899468,46.638541559333895,0 10.10039415474669,46.63850446307757,0 10.10033735881069,46.638476277056114,0 10.100282755452515,46.638407728066625,0 10.100277227693091,46.63829556039056,0 10.100345415740884,46.6381577548295,0 10.10032189603475,46.63806861641539,0 10.100253222494716,46.63799031841952,0 10.100169275874096,46.63792029585037,0 10.100109200139336,46.63776189319607,0 10.100052824245276,46.63754127909324,0 10.100039120747818,46.63743290180643,0 10.099980698368018,46.63741411175752,0 10.100021511587913,46.637186161463305,0 10.099944044247858,46.6371203064135,0 10.100014476891165,46.63693039399174,0 10.09999222430974,46.63679702173877,0 10.09991846361373,46.636725643413286,0 10.099808003120097,46.6365417839938,0 10.099721735441825,46.636320818333175,0 10.099569973717822,46.63623222474084,0 10.099426219304918,46.63601817683565,0 10.099345717278359,46.63594534866779,0 10.099098812921655,46.63579275186847,0 10.09881593888053,46.635479642216275,0 10.098613120236042,46.635183397927314,0 10.098251161386587,46.63484704555242,0 10.098132192901621,46.63474340590822,0 10.097998913157566,46.63456295743566,0 10.09772960530049,46.63436588229767,0 10.09765103755714,46.63429299461942,0 10.09763346422063,46.63425453315649,0 10.097487233181415,46.6341506909295,0 10.09739510255653,46.63397791886305,0 10.097120663863214,46.633850851889385,0 10.096933396172417,46.633699017430104,0 10.096678774201495,46.63348994168853,0 10.096450465495927,46.633307868604426,0 10.096232179609133,46.63314164046612,0 10.095537614529217,46.632951508715976,0 10.095426223535204,46.63290335370399,0 10.095311215664692,46.632839091775125,0 10.095263719167429,46.632808526825926,0 10.095182707216075,46.63273411330478,0 10.094931865377326,46.63258833616493,0 10.094811640336426,46.63248172429926,0 10.094729756218726,46.63230099735399,0 10.094519054611945,46.632118752485525,0 10.094387939172286,46.6319486981603,0 10.09420411447111,46.63165210755487,0 10.09408979769274,46.63153533469264,0 10.093925304148067,46.63137864529953,0 10.093679303351177,46.63122241722082,0 10.09360891883273,46.63115839423858,0 10.093554598012515,46.63107399904695,0 10.093355487669644,46.630239155859385,0 10.09324683312952,46.630000971056354,0 10.093190273539534,46.62978214576843,0 10.093084757915582,46.62974069563564,0 10.092822265219715,46.62971944117782,0 10.092610289259952,46.62972366405081,0 10.092475380169924,46.62970089495391,0 10.09242604721348,46.629675410689245,0 10.092368500891435,46.62963498436175,0 10.092254756270101,46.62942600022801,0 10.092252001173806,46.629369916097325,0 10.092325681478648,46.629296808972526,0 10.092506966539881,46.62915725049417,0 10.092707557361244,46.62894351807453,0 10.092879325711001,46.62873795461396,0 10.093013711877092,46.62860180407769,0 10.093117622654885,46.62854683170725,0 10.093152364859192,46.62846683791245,0 10.093208231155499,46.62843386156801,0 10.093343268267834,46.62822549145337,0 10.09348338115694,46.62818407134111,0 10.093522703340442,46.628133484477885,0 10.093596480824187,46.628039622680554,0 10.093658890287603,46.62805472350041,0 10.093730840069512,46.628030009897344,0 10.09384988234264,46.62793348689229,0 10.093912351654653,46.62784348792048,0 10.09395959833896,46.62782654901359,0 10.094021081646602,46.62781457278147,0 10.09406448150193,46.62791074013066,0 10.094237666633497,46.627840473337194,0 10.094300181929121,46.62785773085518,0 10.094411857589034,46.62781193412121,0 10.094485310248881,46.627796543070154,0 10.094514509334312,46.62775267068556,0 10.094518616940695,46.6277086639133,0 10.09455825596963,46.627664547908616,0 10.094833334768538,46.627371173992806,0 10.094895736302156,46.627235221766874,0 10.094917150516082,46.62716057734901,0</coordinates></LineString></Placemark></Document></kml>