<kml xmlns="http://www.opengis.net/kml/2.2" xmlns:gx="http://www.google.com/kml/ext/2.2" xmlns:xsi="http://www.w3.org/2001/XMLSchema-instance" xsi:schemaLocation="http://www.opengis.net/kml/2.2 https://developers.google.com/kml/schema/kml22gx.xsd"><Document><name>Dessin</name><Placemark id="drawing_feature_1745476995636"><name></name><description>06 Murtaröl</description><Style><LineStyle><color>ff0000ff</color><width>3</width></LineStyle></Style><ExtendedData><Data name="type"><value>linepolygon</value></Data></ExtendedData><LineString><coordinates>10.090289049421076,46.69785426271836,0 10.09033663607185,46.697932875850775,0 10.090449513599692,46.697984460585424,0 10.09095290177011,46.69799551548319,0 10.091015357517405,46.69814368459431,0 10.091467527919075,46.698096203401676,0 10.091616521641706,46.69810861137215,0 10.092342261256054,46.69845006303723,0 10.092848304069168,46.69861800884397,0 10.093060442131147,46.69857337786488,0 10.093328035049058,46.6986170417176,0 10.09372375877461,46.69888565653823,0 10.094609875829773,46.699492810963285,0 10.094955532469049,46.699246612784044,0 10.095231091107864,46.69915060310728,0 10.095444740487567,46.699002737313556,0 10.095793557796512,46.69922254207446,0 10.09644290702701,46.69867070493431,0 10.09710693625876,46.69824679146751,0 10.09766947032735,46.69793113022566,0 10.098049834885888,46.697601929091526,0 10.098313008620917,46.69720464891559,0 10.098831178959582,46.69648256593349,0 10.099070305163373,46.69631352432992,0 10.099421247681182,46.69614187146311,0 10.099823493771634,46.696014950475714,0 10.100242598527172,46.69595112695613,0 10.10086103792621,46.695986665495724,0 10.10142904263024,46.696074713611694,0 10.101546969312874,46.6959571310601,0 10.101744556141812,46.69578229959565,0 10.101934797788315,46.69565762308392,0 10.102024103144439,46.695636623283754,0 10.102188851352725,46.69561844710781,0 10.10229476893582,46.695577680082785,0 10.102735144026706,46.695361509694884,0 10.102990119390755,46.69526916705774,0 10.103119965879618,46.6952495747572,0 10.103226180806448,46.69526004869251,0 10.10364365289086,46.69537482090508,0 10.103984641336591,46.69541363668896,0 10.104138372624986,46.69541148087533,0 10.104323158457127,46.695381244177184,0 10.104487656989509,46.695342843568376,0 10.1049156109071,46.69519318120661,0 10.10540015096022,46.69504507248842,0 10.105673793420115,46.694949407476905,0 10.10577796779973,46.69493977097064,0 10.10605233350515,46.694943427402066,0 10.106342577838767,46.69497190622865,0 10.106876960768352,46.695091128414006,0 10.1070909405415,46.69519470819221,0 10.107406761562462,46.69546517500302,0 10.1075229777397,46.69561450743681,0 10.107579503635717,46.69565709454926,0 10.107735840273326,46.69574989310826,0 10.107783585138277,46.69582651871292,0 10.107812763509301,46.695908618120285,0 10.107859227998238,46.695959359117154,0 10.1079233700421,46.6959866508162,0 10.107999130906993,46.69599495423085,0 10.108062183822561,46.695979080338184,0 10.108150956190912,46.695933090088154,0 10.108226068121132,46.695885980051095,0 10.108541305262072,46.69555117299307,0 10.108676965886074,46.69545297582503,0 10.10884295997149,46.69531802610841,0 10.108962250502461,46.69522594604181,0 10.109337151416677,46.69493292333213,0 10.109557801812622,46.694819627193375,0 10.109668075200785,46.6947138324043,0 10.109876884791715,46.694577877576236,0 10.110017782014724,46.69448119927819,0 10.110403223628891,46.694305061162886,0 10.110567560360295,46.69418489190818,0 10.110692013415099,46.693956713354936,0 10.110795586905292,46.6935080287521,0 10.110734524572315,46.69331668765006,0 10.110765468598625,46.693148040593776,0 10.1108277949926,46.69303599664522,0 10.110913458319187,46.69284580045118,0 10.110936087793524,46.6927256769333,0 10.110988788630623,46.69265972985643,0 10.111089105980625,46.69259348524196,0 10.111167904499958,46.69257361643364,0 10.111201884499222,46.69253841608484,0 10.111247570020076,46.69247509087643,0 10.111438999713462,46.692301041317926,0 10.111633221673547,46.69208357554241,0 10.11177562890752,46.6917853483938,0 10.11183942475019,46.691679003234526,0 10.111871332052337,46.69163698254614,0 10.11201627543265,46.69155822233456,0 10.112513031755077,46.69132212575662,0 10.112596342043606,46.69129723529949,0 10.112671427664406,46.69127053996574,0 10.112892221176656,46.69111318076618,0 10.112981378955894,46.69097793272889,0 10.113174947705515,46.69079204442756,0 10.113316499637026,46.69074687309045,0 10.113448990568973,46.69066767427284,0 10.113977677087142,46.69047391794487,0 10.114123452382309,46.690365238965285,0 10.114314549142206,46.69027832230824,0 10.114474622193299,46.69016388829985,0 10.114581684802747,46.69001807320535,0 10.1145844447343,46.689962209811334,0 10.114562154275161,46.689884839076576,0 10.114492433652146,46.68985048365587,0 10.114281315317259,46.68983456527482,0 10.113755795794908,46.689851222666725,0 10.113470759326797,46.68983747814794,0 10.113070614568437,46.68974465111703,0 10.1127489845366,46.68968696790739,0 10.112468884739311,46.6896093179203,0 10.112163546177271,46.689613602824544,0 10.112031139480905,46.68960231223267,0 10.111848636052805,46.689563712926734,0 10.11152776468208,46.68944454591168,0 10.111357281099004,46.68940391390588,0 10.111248622602178,46.68934529893166,0 10.111035646600222,46.689186167668346,0 10.110829630015754,46.68908302121498,0 10.110710873088388,46.689030377527544,0 10.110714959589414,46.68900724646512,0 10.110744677100307,46.68897343637093,0 10.110804656571828,46.688959072545906,0 10.111030691554198,46.68884906465922,0 10.11179189511147,46.68854427238631,0 10.111863850138054,46.68848284339706,0 10.111888671986637,46.68842614072812,0 10.111882488533714,46.68828702983547,0 10.111797319463658,46.688161399422334,0 10.111653898823851,46.68803192138409,0 10.111342969385008,46.68789076760071,0 10.111240117756477,46.6878596888473,0 10.111151288288932,46.6878726342439,0 10.1110470733646,46.687999991372116,0 10.110955427587799,46.68813994582961,0 10.110852230688511,46.688155038246514,0 10.110788028532829,46.6881339147137,0 10.11073846469735,46.68803641394988,0 10.110697934673691,46.6879884854119,0 10.110377552563364,46.68789552449857,0 10.110052507335599,46.68771581704738,0 10.109786946522425,46.687720232290346,0 10.10951466383666,46.68774833875757,0 10.109329924647872,46.687790685765044,0 10.109129956523878,46.68776459676313,0 10.108968179015056,46.68768601808067,0 10.10865921790259,46.68749899366278,0 10.10847294696798,46.687457194842075,0 10.1083406483956,46.68741594151528,0 10.10825804927487,46.6873952476112,0 10.10810548410136,46.68736985662935,0 10.107979382105189,46.68734746618924,0 10.107898259025204,46.68735660788247,0 10.10784419766782,46.68735425361383,0 10.1077614229797,46.68746300199911,0 10.107696338594518,46.68747719887341,0 10.107612559545776,46.68745924763065,0 10.107514359015438,46.687389134569706,0 10.107428756634643,46.687387518892876,0 10.107250146147049,46.687427913502994,0 10.107085994593442,46.68738106859016,0 10.106985086500444,46.68736261287747,0 10.106890830509782,46.687425466100414,0 10.106745149872216,46.68740624825498,0 10.106647835904127,46.68743387145164,0 10.106616339558345,46.68743551406996,0 10.10664171155853,46.68731000726848,0 10.106720197122172,46.68724752359146,0 10.106695191209866,46.6871675494708,0 10.106845626934918,46.68712329451184,0 10.106885119395054,46.68706019702476,0 10.106923650226719,46.68690813228452,0 10.107060558292275,46.68682979755469,0 10.107184458270087,46.686754482781524,0 10.107244720392073,46.68669244247195,0 10.107316683780956,46.68656041015594,0 10.10735446594375,46.686492966216136,0 10.107358604222368,46.686310542740145,0 10.107380418337401,46.6861403062698,0 10.107389702899807,46.68608351359342,0 10.107355369663782,46.68597615927457,0 10.10736305135555,46.68588695662299,0 10.107360635691286,46.68579058198359,0 10.107339484392073,46.68577859755524,0 10.107304618977562,46.68578274210953,0 10.107258562257687,46.685829580141124,0 10.107183268558975,46.6858721109359,0 10.107098557834943,46.68591985414857,0 10.106747338368216,46.686056205065604,0 10.106690360040185,46.686053379317194,0 10.10665546956598,46.686032564570944,0 10.106681279799123,46.6859920248204,0 10.106714501871892,46.685954639441704,0 10.106805268251557,46.68576032482687,0 10.106868828320618,46.68544264253187,0 10.106885630862266,46.68530639368043,0 10.106776054266797,46.68504688343143,0 10.106751485154772,46.685039138813174,0 10.106728271985386,46.68505881816227,0 10.106655920911459,46.68518531053862,0 10.106510272768642,46.68529687929011,0 10.10606542367457,46.68544493138049,0 10.105717369056968,46.68552296586742,0 10.105410146104944,46.6855218368066,0 10.104974496748877,46.685540352000636,0 10.10478191984294,46.68552287819481,0 10.10472254354031,46.68549597994681,0 10.104943162263584,46.68533523598582,0 10.104986387280928,46.685231058051386,0 10.105171721235289,46.685017060103036,0 10.105146447259052,46.68494610064218,0 10.105014788222762,46.68496851084781,0 10.10494687118071,46.68494922450281,0 10.104941624938013,46.684927751759204,0 10.104773955548067,46.684858970287976,0 10.104670180373867,46.68476940363236,0 10.10453154090469,46.684674027998355,0 10.104459092887355,46.68454183093095,0 10.104345090412359,46.684317341712074,0 10.104198411564383,46.68422863243062,0 10.104025347462388,46.68419884810255,0 10.103837195536544,46.68420252950269,0 10.10358406561982,46.68416166000356,0 10.103418901572166,46.68409386120182,0 10.103310471710172,46.68403808925455,0 10.103195676004248,46.683916959714395,0 10.103175302310307,46.68388576279085,0 10.103203672606673,46.68382463187883,0 10.103255318742557,46.683768715526675,0 10.103509086165564,46.68368690629408,0 10.103575007831173,46.683623457372626,0 10.103630158976392,46.683553781640654,0 10.103742840008689,46.68346260448489,0 10.103824173439863,46.68341463160383,0 10.103851548439568,46.68333336804414,0 10.103837932246194,46.683227148743676,0 10.103931653861784,46.68309106425889,0 10.10389393163697,46.683007874680264,0 10.103848425752703,46.682849132427755,0 10.103754758758908,46.682786022700405,0 10.103628017126917,46.68274075730424,0 10.103564527374283,46.682683934473886,0 10.103515876950663,46.68258861245941,0 10.10353792498897,46.68254778518126,0 10.103572107665196,46.682519631341265,0 10.103582178247061,46.68244813065374,0 10.10354672791616,46.68238705273038,0 10.103475022063108,46.6823790046323,0 10.103360305188685,46.68230178433443,0 10.103256753808255,46.68228117093255,0 10.103201396870242,46.68224071426003,0 10.10313552305371,46.68224153493488,0 10.10303697973114,46.68217401397539,0 10.102837102166848,46.68210958238598,0 10.102720697189934,46.68203776408337,0 10.102676213282257,46.68196321998499,0 10.102661893893135,46.6818850912012,0 10.102596051932847,46.68184415954677,0 10.102557716399687,46.68178818776164,0 10.102452162061075,46.68172391500363,0 10.102218155390156,46.68166747881877,0 10.102160999218055,46.68163296999424,0 10.102130847209036,46.681573207510965,0 10.10209127031537,46.68149206983736,0 10.102008653636988,46.681429214678815,0 10.10178857294032,46.681400526227705,0 10.101739062398526,46.68129914500942,0 10.101661629539956,46.6811505063393,0 10.101561570860289,46.681137008320576,0 10.101446025864044,46.68102194467974,0 10.10140792427276,46.6809918816479,0 10.101357030977375,46.68091460747653,0 10.101274083477788,46.68090862767225,0 10.101252844471228,46.68088104989042,0 10.101194232756784,46.68085938444465,0 10.101137853006417,46.680840546219606,0 10.101117800920761,46.68081582008609,0 10.101059137550987,46.68081431158582,0 10.10104106919368,46.680787379513184,0 10.100999938167812,46.68078904878572,0 10.100983092216087,46.680765687400324,0 10.100844188471964,46.680707026144326,0 10.10082302062334,46.68068088633034,0 10.100783628888058,46.68068828539105,0 10.100707552382183,46.680651910960414,0 10.100689502815795,46.68061482404419,0 10.10065873606221,46.6806061848893,0 10.100566050666686,46.68065730016805,0 10.100511744922159,46.6806592888383,0 10.100509723413703,46.6806183046561,0 10.10043796907185,46.68058470843713,0 10.10042489452103,46.68053174508528,0 10.100438848734944,46.68047527083973,0 10.100412392447515,46.68041383974401,0 10.100270764068346,46.680384755283534,0 10.10008882588193,46.68030528622638,0 10.099958073618103,46.68028458548772,0 10.099818781611658,46.68019011251627,0 10.099665089979535,46.68010732040404,0 10.09961969347363,46.68009902266273,0 10.099590308210301,46.68007595397043,0 10.099551374365275,46.68000775777491,0 10.099496613167796,46.67993382821038,0 10.099404703145487,46.67987334786847,0 10.099383908758382,46.67982099561442,0 10.099431569162018,46.67974789765811,0 10.099335692182652,46.67969182899751,0 10.099318918191438,46.679669905425015,0 10.099272122638109,46.67965444173833,0 10.099272492746213,46.679598284857235,0 10.099170170254556,46.679581238468664,0 10.099014322899045,46.67958199829294,0 10.098906882338813,46.679510329379724,0 10.09886538301803,46.679496181581385,0 10.098849246120558,46.67944472925196,0 10.098753140440369,46.67940522201023,0 10.098736936434923,46.67937937927494,0 10.098723403118672,46.679317068429675,0 10.09867093956508,46.67927150319249,0 10.098675685628109,46.67924043887609,0 10.098793571748951,46.679085078459956,0 10.098767726805528,46.67905503302709,0 10.098703566520758,46.679029176810445,0 10.09873397466463,46.6789032131625,0 10.09877888148167,46.67870216898298,0 10.098770490079747,46.678568666509065,0 10.098650316883719,46.678571472395895,0 10.09850384103299,46.678528821912,0 10.098621656154116,46.67841449466906,0 10.098620344933469,46.678387890899444,0 10.098561701543721,46.67836550505688,0 10.098620343139508,46.67830294875947,0 10.098509291782245,46.67829978274948,0 10.098533715275089,46.67826465977348,0 10.098478047146646,46.67821772959912,0 10.098513715670524,46.6780923630117,0 10.098526289132131,46.67800784714052,0 10.098556539779734,46.677984825535134,0 10.098634558372874,46.67797580547331,0 10.098711159447351,46.67793802452779,0 10.098694454218778,46.67789729429922,0 10.098712907401628,46.677804722772606,0 10.098633967675768,46.67779504834188,0 10.098631115296818,46.6777584026595,0 10.098668661404897,46.67767114414871,0 10.098583681159006,46.677602583114606,0 10.098599361900556,46.67752361029399,0 10.098595287424514,46.67748339389998,0 10.098616575652922,46.67744834411652,0 10.098588342604238,46.67738493669295,0 10.098606245127165,46.67721751380912,0 10.098638816884295,46.67717212892562,0 10.098635502106056,46.67704119382822,0 10.098571172923915,46.67692464052785,0 10.098596657114216,46.6768261461017,0 10.098581910047034,46.67666003106021,0 10.098566145089386,46.67655242180721,0 10.098611977308739,46.67637858791833,0 10.09859322173351,46.676278545706964,0 10.098649787459154,46.67615269109122,0 10.09865623152151,46.67602872662313,0 10.098615622877785,46.6758936270619,0 10.098599096652972,46.67579179437004,0 10.098656883951117,46.67566951042743,0 10.098644007718065,46.67564173701244,0 10.098669194413675,46.67560179872475,0 10.098640270857514,46.67550313491563,0 10.09867893214648,46.67545976109992,0 10.098652360620198,46.675302692051,0 10.098673895031832,46.675230204323455,0 10.09862762419357,46.67511802401617,0 10.098570319420261,46.67498409626319,0 10.098560347911372,46.6748783852005,0 10.0986246843254,46.6747220763667,0 10.098618910050245,46.67468981798522,0 10.09864281849073,46.674665504716174,0 10.098645049145022,46.674625860930874,0 10.098580866376212,46.674597125931,0 10.09855138426777,46.67456085989048,0 10.098518051872661,46.67447885552331,0 10.098512257997264,46.67434005988402,0 10.098518048606838,46.6743089712303,0 10.09848669754783,46.674262408306,0 10.098282161078354,46.67416640491637,0 10.09826170507517,46.67411217395693,0 10.098268150360678,46.67403068049252,0 10.09823726286629,46.673955817493564,0 10.098203598472232,46.67390758348282,0 10.098149569367408,46.6738746415506,0 10.098110942689905,46.673791321020126,0 10.09807063169082,46.67352519810501,0 10.098073451511032,46.67333427316567,0 10.097987086866912,46.67317614240755,0 10.097931831262736,46.67307377408303,0 10.097907745406555,46.673009549938946,0 10.097698212868746,46.672783167096405,0 10.097634085844712,46.672734274528544,0 10.097594362855073,46.67267113516379,0 10.097557792156925,46.67254457551108,0 10.097581578904345,46.672485857020824,0 10.097433296412973,46.67229999778769,0 10.097357212973698,46.67216602810252,0 10.09722219632887,46.67201585144781,0 10.097203900830353,46.67193437428728,0 10.097210931721778,46.67188598031984,0 10.097136127579452,46.671811422143094,0 10.097086311806832,46.67171324559287,0 10.097065592108834,46.67167485723358,0 10.097038567941276,46.67163589621599,0 10.097021410276906,46.67145818887194,0 10.096984522336454,46.671410100005225,0 10.09694976028555,46.671277739202154,0 10.096961921463729,46.671136282241214,0 10.096686580870827,46.671025372076386,0 10.096632622824762,46.67096596995726,0 10.096619696594532,46.67087341106369,0 10.096556989821133,46.67081080772134,0 10.096516047660606,46.67074409723485,0 10.096443213017551,46.67060326658768,0 10.096325275783688,46.670458182090286,0 10.096286300781964,46.670259400072574,0 10.096197393129861,46.670055841210385,0 10.096190989025501,46.669844742768916,0 10.096152635334162,46.669703107538545,0 10.096217948738852,46.66954249720176,0 10.096244870295996,46.66939971034213,0 10.09623230687514,46.668974572843744,0 10.096239242374207,46.668776543368054,0 10.096258846627375,46.668728575966796,0 10.096170520485297,46.66859170587935,0 10.096154132451773,46.668508116762005,0 10.09618429281278,46.668377120427124,0 10.096142449787536,46.668313310378274,0 10.096185235459084,46.66820505464773,0 10.096268038458017,46.66787379311872,0 10.096258743556515,46.66779122739768,0 10.096151834763779,46.667619482985444,0 10.09611128704918,46.66747573935615,0 10.096100539997472,46.667294280274454,0 10.096108497997005,46.66700975431871,0 10.096082192596889,46.666827126737225,0 10.096088928900729,46.66653903000176,0 10.09610670921958,46.66620577310238,0 10.096098947294283,46.6659775773453,0 10.0961210509245,46.66578918105097,0 10.096189492869666,46.66567096863842,0 10.09620042726174,46.66559775586686,0 10.096249984943414,46.66550039055783,0 10.096233429939517,46.6654403095182,0 10.096309926770305,46.66537949699253,0 10.096381874110122,46.6652475255293,0 10.096467830771052,46.665141483360316,0 10.096498183564247,46.66499320601197,0 10.09650765760934,46.66495195352803,0 10.096563205584529,46.66491178542236,0</coordinates></LineString></Placemark></Document></kml>