<kml xmlns="http://www.opengis.net/kml/2.2" xmlns:gx="http://www.google.com/kml/ext/2.2" xmlns:xsi="http://www.w3.org/2001/XMLSchema-instance" xsi:schemaLocation="http://www.opengis.net/kml/2.2 https://developers.google.com/kml/schema/kml22gx.xsd"><Document><name>Dessin</name><Placemark id="drawing_feature_1745497926098"><name></name><description>07 Chamanna Cluozza</description><Style><LineStyle><color>ff0000ff</color><width>3</width></LineStyle></Style><ExtendedData><Data name="type"><value>linepolygon</value></Data></ExtendedData><LineString><coordinates>10.090280269979024,46.69787569391037,0 10.09040398967119,46.69796035568049,0 10.090688010047113,46.69801078097073,0 10.090939360713353,46.6979850362632,0 10.09098383896269,46.69814449205125,0 10.091335699254039,46.69811508094481,0 10.091475267298843,46.698090610440985,0 10.091586581764199,46.698102792289134,0 10.092219348159784,46.69838251571537,0 10.092820295348687,46.69860329006259,0 10.092953204277768,46.69860029194427,0 10.09312048781835,46.698574421285755,0 10.093333890309045,46.698612642319745,0 10.093855368542416,46.69897861013221,0 10.094175889782388,46.69921136662259,0 10.094602609006214,46.6994815231115,0 10.095013824026102,46.69922197600253,0 10.095233793681512,46.69915476644861,0 10.095442425899792,46.69900204886528,0 10.095788252123297,46.699223528599525,0 10.096005188221334,46.69902242077185,0 10.09625799268852,46.698826194143095,0 10.09660125539331,46.698561690528194,0 10.097115083849978,46.69826403094975,0 10.097495193482205,46.69804849433748,0 10.097926956369909,46.697766785745934,0 10.098435021574277,46.69705012221526,0 10.098746548214802,46.696584568169676,0 10.09903244309314,46.696321601031215,0 10.099461189096504,46.696122041160535,0 10.100124514114006,46.69595704739522,0 10.101431719768547,46.69607634880028,0 10.101596177238733,46.69590982038376,0 10.101798404889957,46.695732645690356,0 10.10197732416166,46.69564712157157,0 10.10219334475827,46.6956190942811,0 10.102384247117326,46.69552695313827,0 10.10278288274099,46.69534027658843,0 10.103031433339085,46.69526014728321,0 10.103115943133218,46.69525065612053,0 10.103246265568517,46.69525929964678,0 10.1036517018283,46.69537057305641,0 10.103982824373642,46.69541376687938,0 10.10415379828554,46.695409768075365,0 10.104354897881837,46.69537667293917,0 10.104571283663143,46.69530898317779,0 10.104962949795505,46.69517706922544,0 10.105471411756946,46.695017224136535,0 10.105646856030564,46.694956335591804,0 10.1057406942986,46.694939108763634,0 10.105996834852029,46.6949389592451,0 10.1063945654662,46.69497891690953,0 10.10687106477681,46.69508967770377,0 10.10716126722834,46.69523820061956,0 10.107413480206366,46.6954759981322,0 10.107527490298196,46.69562113071053,0 10.107730659146476,46.69573917519157,0 10.107781782507743,46.6958192323975,0 10.107814332074712,46.69591277324343,0 10.107889052355665,46.69597532146134,0 10.107976301874771,46.69599665906214,0 10.108106906035825,46.69596186834213,0 10.10822654585383,46.69587723170601,0 10.10838121623925,46.695740001679596,0 10.108548884057358,46.69554651905919,0 10.108719398873218,46.69541058738734,0 10.109026435183246,46.69517188541715,0 10.10924118790868,46.694998994625536,0 10.109392162286081,46.69490661294548,0 10.109597490388868,46.69479002962629,0 10.109678391479873,46.69470601650457,0 10.110037302613645,46.69447548361628,0 10.110406767565319,46.694302876452824,0 10.1105753414904,46.69418786407222,0 10.110686337134762,46.693971074234675,0 10.110734457984153,46.69372667137697,0 10.110796104385674,46.69349540768504,0 10.110733366849198,46.693315304267664,0 10.11075959855563,46.69315579249692,0 10.110886852640444,46.69290512680867,0 10.110939260338698,46.692721441835246,0 10.111004073138483,46.69264059328116,0 10.111083978796238,46.692598173598576,0 10.111169745074308,46.692570600829114,0 10.111255119129071,46.69246064727799,0 10.111512986969105,46.692234241691416,0 10.11163995104849,46.69207138567579,0 10.111846949159824,46.69167771830001,0 10.111873011970207,46.69163479822915,0 10.112491847976582,46.69133183974482,0 10.112609083942544,46.691292950169625,0 10.112684806580289,46.69126954854333,0 10.112917700305644,46.691091318690155,0 10.11297172106814,46.69098966167655,0 10.113169158308942,46.69079282733364,0 10.113304156700323,46.69075078677822,0 10.113448620495873,46.690667492250704,0 10.113786423535798,46.69055806331056,0 10.113984554906692,46.69046396373242,0 10.114102637327516,46.69037624875371,0 10.114333102103918,46.69027581689465,0 10.114419056246058,46.690215490560604,0 10.114549784397958,46.69006629064505,0 10.11457997232764,46.68995760377515,0 10.114552540032893,46.68988642639721,0 10.114503438065716,46.689845827963985,0 10.114278839179727,46.68983238571518,0 10.1137866946467,46.68984681985933,0 10.11362094670062,46.68984907127294,0 10.113278371036508,46.68979880457813,0 10.113066516566656,46.68974690861436,0 10.112753046522434,46.68969118748856,0 10.112480998738937,46.689608695611525,0 10.112118970452793,46.68960927156997,0 10.111957150472492,46.68958726548319,0 10.111544350047335,46.68945009927036,0 10.11138497976461,46.68941648434145,0 10.111219355335576,46.68932606838669,0 10.111044314147925,46.6891934017831,0 10.110840805811641,46.689084820068885,0 10.1107244596576,46.68903859848331,0 10.110710350827935,46.689007255838945,0 10.11073512729633,46.688979320476356,0 10.110815511868077,46.68895440018504,0 10.111033221003538,46.68884995503597,0 10.111405378152746,46.68871597211683,0 10.111821027671157,46.688530578121814,0 10.111875401309055,46.68847700632609,0 10.111890236889332,46.68837515911668,0 10.111875684873295,46.68828462640025,0 10.111787785828367,46.688157834956506,0 10.111647809065717,46.68803436992944,0 10.111346568390564,46.68788882745611,0 10.111229962713717,46.687858449241695,0 10.11115730017807,46.68787023137317,0 10.11112134820454,46.68790490768856,0 10.111047412514983,46.687996623222936,0 10.111002148231508,46.688054553069456,0 10.110980887036668,46.68811120017069,0 10.110939708964349,46.68814599890295,0 10.11086623841121,46.68816014795351,0 10.110803065648772,46.68815227134789,0 10.110744706187491,46.688051420930755,0 10.110690799779457,46.68797710058952,0 10.110517339920607,46.68793008629134,0 10.110394712890693,46.687904887403796,0 10.11016637525222,46.68777346923352,0 10.110047479462457,46.68771794871372,0 10.109754190310262,46.687719791890856,0 10.10941753848148,46.68777562039609,0 10.109317155185051,46.68779111734317,0 10.10913252950288,46.68776219755585,0 10.10896241144555,46.687685773320744,0 10.10868549348038,46.68751828277423,0 10.108657366791036,46.687494973151786,0 10.108513614023282,46.687474372864195,0 10.108404675911215,46.68743053437635,0 10.108263450526996,46.68739286452672,0 10.108166717408281,46.687391264908335,0 10.1080162824609,46.687349171406716,0 10.10790421525357,46.68735566261605,0 10.10785354625713,46.68735375684467,0 10.107786338125457,46.68742646392511,0 10.107756354580417,46.68746195947751,0 10.107700989372525,46.68747871999953,0 10.10761580235249,46.68746061265503,0 10.107529446091263,46.687396141683195,0 10.107480411134427,46.68738182653857,0 10.107302783958493,46.68742619219632,0 10.107235938444216,46.687431416298345,0 10.107079471092534,46.687380957860455,0 10.106992344820625,46.687369080849535,0 10.106896230715728,46.687425454372935,0 10.106763704640048,46.68740458899084,0 10.106630483820338,46.6874378624327,0 10.106650117211027,46.68731214724031,0 10.106710423391824,46.68725893197818,0 10.10669676016917,46.68716924673959,0 10.106851859023633,46.68712386313831,0 10.106902786257104,46.68697190008294,0 10.10692756638168,46.68690482615488,0 10.10715808936928,46.68677107945069,0 10.107215951092952,46.686723191980136,0 10.10729116162937,46.68660777282051,0 10.10735398537091,46.686491870464344,0 10.107350340751665,46.6863294631251,0 10.107369727996625,46.68622153670508,0 10.107388633607805,46.6860811479028,0 10.10735600130425,46.68596670805055,0 10.107355744814571,46.68586997194307,0 10.10735649200973,46.68579418257879,0 10.107328710537015,46.68577782324113,0 10.107245138616266,46.68583776924159,0 10.107182719116715,46.685870931580965,0 10.10707260664526,46.685933099130615,0 10.106929309757277,46.685989804481956,0 10.106748174291004,46.68605635680413,0 10.106681905315037,46.686057135370056,0 10.10665041264057,46.68603390414744,0 10.106705616114702,46.68596843739641,0 10.10679945518432,46.68576664153123,0 10.106850518195834,46.68552653245996,0 10.106881425064678,46.6853040335609,0 10.106781609367491,46.6850581794479,0 10.106763854906614,46.685040038872444,0 10.10671990814127,46.68506039744369,0 10.106653897506824,46.685180027994306,0 10.106509166619833,46.68529862100488,0 10.106157599217173,46.68541677666597,0 10.10593479301786,46.68547920806073,0 10.105693033171683,46.68552197991177,0 10.105411945473486,46.685524937962796,0 10.105167764863088,46.685541477139836,0 10.10498235403572,46.685541950132404,0 10.104851795288209,46.685538046626746,0 10.104740259561549,46.685509729202614,0 10.104720069756498,46.685487779339645,0 10.104935006988853,46.68533429907129,0 10.104983352024837,46.68524853943112,0 10.105169355818498,46.68500991258941,0 10.105150740006003,46.684951586421825,0 10.105095865891558,46.68489310766325,0 10.10513811979968,46.6848165345124,0 10.105109087563967,46.68469483937048,0 10.104987521299378,46.684399930024284,0 10.10495284376824,46.68431219998492,0 10.104784793508456,46.684168489781165,0 10.104797356208746,46.68393568416914,0 10.104724672439234,46.68362928900051,0 10.104762901221726,46.68333055492406,0 10.104791289239053,46.68310140650748,0 10.104709694906722,46.682911115733425,0 10.10446258297123,46.6826790505565,0 10.104343842737485,46.68241747630434,0 10.104257269550502,46.682178629143465,0 10.103984224799236,46.681833053499936,0 10.103927432121713,46.6817847123943,0 10.103890388311513,46.681721936159555,0 10.103760519370002,46.68157092613649,0 10.103605255462538,46.6814565025172,0 10.103416492027849,46.68130313013387,0 10.103355114384787,46.68126785329855,0 10.103299773935172,46.681206520671076,0 10.103193069490876,46.68116438550127,0 10.103147457140924,46.68104003628792,0 10.103042490679572,46.680842372764594,0 10.102930699514364,46.68051341221519,0 10.102856408563142,46.68039428833757,0 10.102749469118123,46.680283772543945,0 10.102691043821356,46.68016008393302,0 10.102638197436404,46.68004326422458,0 10.1025881038009,46.68000340410641,0 10.102564123820905,46.67984657123808,0 10.10250944031359,46.67977730454708,0 10.10244784029487,46.6796102999432,0 10.102273230692944,46.67950486140717,0 10.102235141785668,46.679411451582546,0 10.102056410617323,46.67930644518672,0 10.102041667013077,46.67921968802782,0 10.102113177067757,46.679099960881125,0 10.10204952790634,46.67896806238393,0 10.102083059543956,46.678799553470384,0 10.102194268662604,46.678630588584646,0 10.10232136252776,46.6785772276691,0 10.102499719397757,46.67858745445918,0 10.10258452068145,46.678567475369235,0 10.102589863805228,46.67850616317889,0 10.102631055601861,46.67845049134358,0 10.102886543381532,46.6784337191866,0 10.102981794076333,46.67841349546832,0 10.103106355152706,46.67837243031022,0 10.103254671058984,46.67836752178493,0 10.103375599914852,46.67831646340382,0 10.103724232814391,46.67800381169756,0 10.103805809868506,46.6778723572783,0 10.103949782055698,46.67769478529127,0 10.103990923895159,46.6775741338835,0 10.10404906080706,46.67735321924498,0 10.104081180405984,46.67728336217501,0 10.104075654195977,46.6771972364261,0 10.104086575285294,46.67714299211543,0 10.104024009772333,46.67706239297723,0 10.103930326947076,46.6770021847318,0 10.103865611106297,46.67685684925127,0 10.103817076864216,46.676806155441106,0 10.10377853030149,46.67670882870495,0 10.103671961779416,46.67654215686347,0 10.10361902814142,46.67640696076998,0 10.103538810086887,46.67634116131626,0 10.10346626313315,46.67631262459183,0 10.103342241213099,46.676216186221936,0 10.103238920827108,46.676094068764215,0 10.103237956120081,46.6760122431369,0 10.103280556176838,46.67590038975173,0 10.103310925551174,46.675858647926084,0 10.103249178699102,46.67573232733138,0 10.103263048543019,46.67558947253164,0 10.103290355642596,46.67540095281639,0 10.103299807975601,46.67518981553196,0 10.103283292392922,46.675040891157586,0 10.10317312601552,46.67497076305287,0 10.103146864452075,46.67493515154506,0 10.10316486294577,46.674812356002995,0 10.103242674168389,46.67473567154839,0 10.103299769068919,46.674705542052294,0 10.1033140227376,46.67467641457129,0 10.10346255693235,46.67465494387054,0 10.103537019673926,46.674574018488876,0 10.10386732132502,46.6743143435569,0 10.10400516715656,46.67423895599727,0 10.104103189667379,46.67421146773369,0 10.104136210167056,46.67413871003184,0 10.104130528726841,46.67402366685946,0 10.104159564590427,46.67393139613285,0 10.104310976005113,46.673714057529914,0 10.104391525096158,46.67339307849066,0 10.104491666241003,46.67331964194991,0 10.10458834659291,46.673201483408754,0 10.104610456038513,46.67312924063368,0 10.104525469811703,46.67301821290665,0 10.104591138663032,46.67284372890079,0 10.104518960456167,46.67275903592658,0 10.10457437793458,46.672652640743685,0 10.104544906193235,46.67258032400114,0 10.104549764264057,46.67248806937543,0 10.104396152919751,46.67236425054245,0 10.104440741881023,46.6723351329164,0 10.104685188860211,46.67234956796377,0 10.104738456212997,46.672326725752626,0 10.104656170027829,46.672270343648265,0 10.10455435522616,46.67218233518852,0 10.104522400184802,46.672128374348766,0 10.104526091909518,46.67205486313358,0 10.10448437594561,46.67193159215483,0 10.104516319684453,46.67190061086751,0 10.104612490965227,46.67183573312504,0 10.104709286391877,46.67180467365825,0 10.104756349380535,46.67174094513651,0 10.104793718683709,46.671629213402504,0 10.104847973918048,46.6715840326213,0 10.104860358362503,46.671495920895154,0 10.104918513482655,46.67136766617551,0 10.104787124478506,46.67120661535957,0 10.104818144231846,46.67115693944779,0 10.10495949046461,46.67109604296236,0 10.104998356552,46.67105698107983,0 10.105051252543474,46.67104782456579,0 10.105230138715424,46.671090427455454,0 10.105437776923392,46.671079807752456,0 10.105489613372445,46.67109155157031,0 10.105569973814006,46.67106663495552,0 10.105643404619652,46.67100732760171,0 10.105670542900233,46.67094262541312,0 10.105899163880968,46.670806259383056,0 10.105978158117603,46.67073822739526,0 10.105947610423234,46.67062808554147,0 10.105982963392341,46.670527216504716,0 10.10588787098764,46.67044450068166,0 10.105829688563787,46.67038899476211,0 10.105817641528652,46.6703568834891,0 10.105764328012008,46.6702940649641,0 10.105730141160242,46.67023727731692,0 10.105738150942265,46.67015757329171,0 10.105710652985623,46.67006679598678,0 10.105752356505995,46.66983114788088,0 10.105809338234709,46.669798860058144,0 10.105858379906037,46.669838743239374,0 10.106094862808574,46.66984040419168,0 10.10620380056395,46.669801140726214,0 10.106300605706588,46.66974920386601,0 10.106453510539378,46.66968947440776,0 10.106521394702169,46.66962381766815,0 10.106949445873392,46.669607312727535,0 10.107072299013781,46.669553325312016,0 10.107138768051755,46.669501378561606,0 10.107182556199222,46.669510469684134,0 10.107270242589234,46.66957032271614,0 10.107339782443207,46.66955933545433,0 10.107395433749774,46.66952131913865,0 10.107482633138753,46.66954097709254,0 10.10772981172114,46.66954742299684,0 10.107817020132911,46.66951298604199,0 10.107894937443307,46.66941757942623,0 10.107937798993676,46.66926900527479,0 10.108007893623508,46.66929039792301,0 10.108094043159854,46.66927686139702,0 10.108110007956004,46.669324717376824,0 10.108064315923505,46.66939489400995,0 10.10808434807464,46.669503842123824,0 10.108069755148415,46.66962016682427,0 10.108035395732834,46.66966568845419,0 10.108037586728143,46.66973114366573,0 10.108019335446452,46.66976396474469,0 10.107783282059955,46.669876754241216,0 10.107921530943974,46.669859117634786,0 10.108143249522318,46.66979489388992,0 10.108257934719026,46.66972382015563,0 10.108334117591731,46.66963565237681,0 10.108382872801515,46.669563964143464,0 10.108657630192884,46.66943011022693,0 10.108793841331146,46.66932901736879,0 10.108872716932312,46.66925302360013,0 10.109175237673986,46.66910099610972,0 10.109244415429966,46.668976999253466,0 10.109361439888781,46.66884756141164,0 10.109483844072958,46.668765781710725,0 10.109562643250095,46.66875169652421,0 10.109598593045433,46.66875949179678,0 10.109658880277577,46.668794070775455,0 10.109765639601308,46.66877429082656,0 10.109838108594655,46.66880138551906,0 10.109968827058802,46.66877960383243,0 10.110076615405854,46.668844022273696,0 10.110114979407935,46.66879682029908,0 10.110093568097021,46.668666180970725,0 10.110188942406708,46.66832837620883,0 10.110257971063858,46.66827067374592,0 10.110402441456076,46.66824542822506,0 10.110590825177843,46.66827700899997,0 10.11060700640226,46.66822648706308,0 10.110544859291412,46.668103231884075,0 10.110585235406855,46.66805085671908,0 10.110651077554973,46.66802231244581,0 10.110640285319008,46.667992994494526,0 10.110588186254637,46.667959502688205,0 10.110746566795449,46.66791335920567,0 10.110827250858165,46.66792046622259,0 10.110875872335386,46.667959182381274,0 10.110908974616054,46.66791083487966,0 10.110939997813054,46.66789596431054,0 10.1110211682617,46.66795063083892,0 10.111059636439759,46.66785972921169,0 10.111127153501203,46.667827288260085,0 10.111388969012333,46.66783271645198,0 10.11140544360015,46.6677969084436,0 10.111226650236764,46.66760818293676,0 10.111185911496904,46.66758336962853,0 10.111165445026183,46.66752914093553,0 10.111187481050969,46.66748831213016,0 10.111287413105606,46.667372950348515,0 10.111319858979861,46.66733012386871,0 10.111441527710685,46.66725240416003,0 10.11160252857886,46.66718743851801,0 10.111770711261919,46.66716189604914,0 10.111944634404912,46.667086500475364,0 10.111969806059731,46.66685555644484,0 10.11207876920906,46.666817006300725,0 10.11221142898737,46.66679229691097,0 10.112297985365593,46.66673619154073,0 10.112288677836796,46.666696098195004,0 10.112213124650795,46.66652222727591,0 10.112269219027638,46.666406182683346,0 10.112247862019078,46.66627063161704,0 10.112322062452524,46.666227138332616,0 10.112360972308617,46.666163207625814,0 10.112488525394635,46.66611990155149,0 10.112507128899578,46.66603092278637,0 10.112602662819627,46.66603803814766,0 10.112664979039181,46.666050252392324,0 10.11275625076389,46.666013556624925,0 10.112869592508519,46.66600009776508,0 10.112960222984393,46.665950459459424,0 10.113080782513014,46.66591379554682,0 10.113130894100404,46.66591189903444,0 10.11326593362242,46.66587750919155,0 10.113324224849027,46.66587182125973,0 10.113414877742734,46.66578043044842,0 10.113690561528104,46.665607164905055,0 10.113760189018855,46.6655558595891,0 10.113798818247759,46.66547000954273,0 10.113897223162562,46.66542954595293,0 10.113931961420423,46.66535062503197,0 10.113896081391532,46.6652175748361,0 10.113918138788812,46.66519834054347,0 10.11403279710646,46.66521148415231,0 10.114078789040638,46.66523199949687,0 10.114142126796928,46.66528594048764,0 10.114265686956683,46.6652254496089,0 10.114304981013609,46.66517413671022,0 10.11439586932844,46.665108654301136,0 10.11459707681751,46.66498661469654,0 10.114626386610807,46.66494489440826,0 10.114695373326786,46.66494399345095,0 10.11494948268578,46.66481636732593,0 10.115099395682572,46.664666192236425,0 10.115196443533707,46.66459840486866,0 10.11524744189844,46.66455113568131,0 10.115328815501272,46.66442036929774,0 10.11539921350945,46.66440575750147,0 10.11553305668074,46.66444724290053,0 10.115604278358502,46.66451251552799,0 10.115596434153538,46.664565249311295,0 10.11552181094426,46.66469305608382,0 10.115508896419335,46.66472791261774,0 10.11554339679502,46.664748697426006,0 10.115599465237732,46.664719305336675,0 10.115708945699662,46.664712412988344,0 10.115797970553482,46.66469376386785,0 10.115894807338455,46.66468500898028,0 10.1160711806586,46.66461391650782,0 10.116166729273122,46.664515929644885,0 10.116189931020338,46.66458305058046,0 10.116257782118106,46.66447491691924,0 10.116367640869816,46.66428589163771,0 10.116426810066809,46.664466623988964,0 10.116383938994524,46.6648760884792,0 10.116697236332966,46.66459229795692,0 10.116841826890525,46.664443261320834,0 10.117034179477931,46.664399146087874,0 10.117106482770643,46.66431754179864,0 10.117209357395797,46.66426185319297,0 10.11709043178228,46.664126025218586,0 10.117112058900325,46.66395059170652,0 10.117160662164755,46.66377306588666,0 10.117200818705742,46.66371813233039,0 10.117283797304497,46.66368306745879,0 10.117512837869498,46.66359849642396,0 10.117646847053315,46.66351688011871,0 10.117755584220877,46.66338933664868,0 10.117817999352479,46.66334035799548,0 10.117839457725442,46.66328802359107,0 10.117870914982653,46.66326856736014,0 10.117879454468058,46.663187742553276,0 10.117856724075418,46.66315090006134,0 10.117649209852395,46.663121228289945,0 10.117534616518197,46.66313040239321,0 10.117500269155252,46.66309161819618,0 10.117529417184471,46.66300454991323,0 10.117509740938829,46.66294526468408,0 10.117535657757285,46.66283523697603,0</coordinates></LineString></Placemark></Document></kml>