<kml xmlns="http://www.opengis.net/kml/2.2" xmlns:gx="http://www.google.com/kml/ext/2.2" xmlns:xsi="http://www.w3.org/2001/XMLSchema-instance" xsi:schemaLocation="http://www.opengis.net/kml/2.2 https://developers.google.com/kml/schema/kml22gx.xsd"><Document><name>Dessin</name><Placemark id="drawing_feature_1745503904632"><name></name><description>08 Murter</description><Style><LineStyle><color>ff0000ff</color><width>3</width></LineStyle></Style><ExtendedData><Data name="type"><value>linepolygon</value></Data></ExtendedData><LineString><coordinates>10.170787599951113,46.66261790931422,0 10.170337681447123,46.662582613155344,0 10.17025894317598,46.66255348064909,0 10.17025203865031,46.66249337684238,0 10.170098126779779,46.66237830201084,0 10.169812936081813,46.66223263939348,0 10.169676340840374,46.66215437403976,0 10.169451831609281,46.66214557637161,0 10.169195468315595,46.66219426611903,0 10.168744039749976,46.66233271754329,0 10.168607698109469,46.662432692464996,0 10.168497863572751,46.662578021680794,0 10.168287954082166,46.662781587215186,0 10.168236599117794,46.662886516781576,0 10.168180030780999,46.66293927871107,0 10.168133906974735,46.663076768895834,0 10.168094718383156,46.66311670585876,0 10.168090692574088,46.66313896018788,0 10.168108499031796,46.66318550812298,0 10.167712254721074,46.66337137996207,0 10.167548537449347,46.66354137099858,0 10.167397092953006,46.66359695474905,0 10.16721685718917,46.663623430674754,0 10.167066371561154,46.663627035786455,0 10.166979435501668,46.663614051078056,0 10.167173362163366,46.66353312892841,0 10.167214110961925,46.663484576856725,0 10.167173736730293,46.663437968297835,0 10.167023377578035,46.66340350972903,0 10.166926990371786,46.66334278072654,0 10.166884695285852,46.66325815750514,0 10.16686522849515,46.66311232819566,0 10.166818303488622,46.66286667111944,0 10.16683930057358,46.662700842256726,0 10.166825072176662,46.66255607688007,0 10.16686888220517,46.662431330373494,0 10.166861764952191,46.66230703594868,0 10.16693293470533,46.662005603509584,0 10.166941953297972,46.66188283541513,0 10.166905317449798,46.66180759173024,0 10.166855953995334,46.66134372068303,0 10.166811440475731,46.66126827419924,0 10.166675780748207,46.66121681159874,0 10.16649959945854,46.66104737996031,0 10.166515897802306,46.661164739665885,0 10.166476230736185,46.661234674718145,0 10.166536983837155,46.66134264391443,0 10.166481227036721,46.6615045477279,0 10.166416932496356,46.66132648904622,0 10.166122394421743,46.66134543714729,0 10.166064748475074,46.661264749411174,0 10.165864386741838,46.66133496422879,0 10.165824065122283,46.66132930663679,0 10.165888782340284,46.66124212051823,0 10.16589804336775,46.6611859971863,0 10.165870593763835,46.66115573021989,0 10.165712466480118,46.66117260006611,0 10.165413997700215,46.66125525716236,0 10.165038192027978,46.66120478447093,0 10.164836301889235,46.66117631433576,0 10.16468497617805,46.661108437149544,0 10.164517623108011,46.661025338457,0 10.164187895795541,46.66106130485065,0 10.16377775642195,46.66116182314132,0 10.16370877049615,46.66132551780311,0 10.163586589118756,46.66143282245403,0 10.163477883488817,46.6614548597905,0 10.163422184065958,46.661428837327115,0 10.163359410834701,46.66136627070189,0 10.163202310645222,46.661341234285594,0 10.163125675073786,46.66129411642169,0 10.162991803248017,46.66125268689024,0 10.162907775431616,46.661183429718854,0 10.162804504756046,46.661292440755226,0 10.162737584023139,46.66131347794701,0 10.162699244541107,46.661279121348024,0 10.162656899316366,46.66112392231353,0 10.162612546326297,46.66109474859173,0 10.162571277093097,46.66112669001758,0 10.162533366593843,46.661183746665294,0 10.162474476340183,46.66119811279416,0 10.16240643098793,46.661196860722356,0 10.162359198076125,46.66117279487717,0 10.162357986189896,46.66110731565396,0 10.162272711887487,46.66107552113184,0 10.162082881806409,46.66108581969147,0 10.161865080789653,46.660997442445066,0 10.161592850004144,46.660949961269864,0 10.161444716474952,46.66088493841078,0 10.16086161353872,46.66081177331925,0 10.160472467259456,46.66078939999693,0 10.160376066265757,46.66076506865261,0 10.160288480616583,46.66071169015927,0 10.1601478604933,46.660619307926055,0 10.15994154574458,46.66055153111334,0 10.15984632308662,46.660476951761815,0 10.15967279071848,46.66041630973407,0 10.159569108473157,46.660371995387045,0 10.159483227227655,46.66034885175319,0 10.159361870888315,46.660223614241794,0 10.15915381319875,46.66017047325782,0 10.158904719069417,46.660340141731524,0 10.158820112085728,46.6603630387641,0 10.15877116060705,46.66036708745362,0 10.1587014136618,46.66033203997075,0 10.15855833321631,46.6603153008471,0 10.158471594915255,46.660316652489875,0 10.158431616023655,46.660332724475815,0 10.158391038830706,46.6603992016202,0 10.15835968904646,46.66035819787256,0 10.158349008136241,46.660291505116504,0 10.158404070644334,46.660242678825576,0 10.158641556438633,46.66014558373919,0 10.158712206283179,46.66003366334344,0 10.158556283152022,46.66007338076656,0 10.158424162336123,46.66008733412233,0 10.158261591696997,46.66005738258877,0 10.158092547683712,46.66006501859261,0 10.158030632290654,46.66008161426423,0 10.158086661317222,46.66001044912313,0 10.158187360054448,46.659954054364945,0 10.158283348548286,46.65992872635614,0 10.158325476039757,46.65988562480997,0 10.158275390489909,46.659825632026724,0 10.158204376960546,46.659765419053095,0 10.158125632112629,46.65974034469317,0 10.157959681134017,46.65972631059752,0 10.157897487543393,46.65977890627886,0 10.157766581848577,46.6597546768566,0 10.157674047564116,46.65976552457271,0 10.157568930852994,46.65973420036632,0 10.157298207365455,46.65990335364359,0 10.157168522466197,46.660019102806565,0 10.156640794875564,46.660390507055936,0 10.156644109708765,46.660248613869534,0 10.156660092864723,46.65996917838111,0 10.156600338886944,46.65984174799134,0 10.156524688139788,46.659959452249886,0 10.15637288987472,46.660081133204756,0 10.15629682928682,46.66023438307152,0 10.155976095709955,46.66043740378683,0 10.155887851803016,46.66047118343485,0 10.155993779163671,46.66004760737276,0 10.155953924903216,46.65998305029529,0 10.155696726528555,46.66025481803508,0 10.155606543054224,46.66031239942535,0 10.15559185379223,46.660186772927055,0 10.155620355129013,46.660067314737724,0 10.155519516611191,46.65999629388677,0 10.155312185008308,46.66017832735636,0 10.155209024438419,46.66023413573288,0 10.155243803447584,46.66015628026916,0 10.155238683543773,46.65997139631155,0 10.155107859176,46.659657774947085,0 10.154880990965536,46.65932836554607,0 10.154772950571457,46.65942596490375,0 10.154697237295938,46.659604858132894,0 10.154480356516073,46.65985541191672,0 10.154447635576298,46.65978708491068,0 10.154467348418525,46.659659198218364,0 10.15430496849907,46.659840877685944,0 10.154097235956183,46.66007808425793,0 10.154045733354318,46.660114585758585,0 10.153924310475798,46.66013331784554,0 10.153814051580303,46.66021517693068,0 10.15378589162419,46.660258320537395,0 10.153735601769775,46.66023576381947,0 10.153682057755734,46.66014849661042,0 10.153650048672116,46.660219086793965,0 10.153604295081108,46.66018274446712,0 10.153570787487801,46.66014035120458,0 10.153649831792617,46.66002760724694,0 10.153488179719076,46.660078252232374,0 10.153356820756134,46.660128174889685,0 10.1533057992189,46.660236651328,0 10.153238567565399,46.66014755059495,0 10.153141012347758,46.660287370519406,0 10.153036236140832,46.66013797582065,0 10.153061379433593,46.660091049699226,0 10.15343248749283,46.65981729275223,0 10.153399382765736,46.659616519044576,0 10.153257174899247,46.65942986383324,0 10.153250928120814,46.65934722797958,0 10.15309843693723,46.659204063981825,0 10.152898870202215,46.6591245960148,0 10.152796887592288,46.659072316654544,0 10.152701338816655,46.65893997856658,0 10.152613080765937,46.65909829309929,0 10.152781508638798,46.65928648374976,0 10.152764910999409,46.65933079121458,0 10.152720984324306,46.65943477909385,0 10.15270583455976,46.65949524020407,0 10.152563336268324,46.6596980392822,0 10.152400561027516,46.65949747584804,0 10.152264580526708,46.65978362374392,0 10.152096350596793,46.65993324156533,0 10.152073720566428,46.65987835099329,0 10.151993621830364,46.65994936660033,0 10.151792987653923,46.660051952776655,0 10.151665956586777,46.660146402068094,0 10.151452331319016,46.6602450735359,0 10.15135843005112,46.66004142831396,0 10.151293388130501,46.66012072321545,0 10.151165133876292,46.66023247788355,0 10.151110642578692,46.660043011065184,0 10.151054065523658,46.66012426375107,0 10.150953016508948,46.659799131034404,0 10.150803590134402,46.65996825899116,0 10.15073248367481,46.65969784277326,0 10.150404219254122,46.65990866194224,0 10.150239541751334,46.659982410051946,0 10.150151908832866,46.66002840836386,0 10.149983660803432,46.660072726559534,0 10.149912349211872,46.66015216983206,0 10.149834478289403,46.66020513414783,0 10.149645260223545,46.660206759046304,0 10.149478765970647,46.66016105144039,0 10.149539904335946,46.66025389862937,0 10.14939138721369,46.660232958291765,0 10.149447803187615,46.66029424380181,0 10.149461334847974,46.66035715611026,0 10.149308420144822,46.66031112503266,0 10.149156807566163,46.66031185397668,0 10.149234981876884,46.66038989858304,0 10.149244424129197,46.66043214596085,0 10.149101887835227,46.66042618007872,0 10.149078475438225,46.66043897500581,0 10.149124226201696,46.66047531917624,0 10.149131044464156,46.660569459371075,0 10.149039247000601,46.660779250800886,0 10.148927207095399,46.660651621397434,0 10.148888053220418,46.66066335115562,0 10.148887734836785,46.660719508297966,0 10.148793245925967,46.660670646354085,0 10.148831516767745,46.66082882600309,0 10.148692716433715,46.66073062784072,0 10.148666467074785,46.6608327535495,0 10.148511051575603,46.661007779677085,0 10.148414884148496,46.66111300865486,0 10.148194842627714,46.66127157530805,0 10.14817001088409,46.66113107238956,0 10.148116091088413,46.66118202592042,0 10.148021077298905,46.66131026278451,0 10.147858820140767,46.66139928498044,0 10.147693772043798,46.66144496323058,0 10.147726762087222,46.66137291180692,0 10.147383591992076,46.66149553286053,0 10.147208206665804,46.66156449183543,0 10.146959947486435,46.661619346621016,0 10.14681795620147,46.66172854328778,0 10.14672509307817,46.66175378711269,0 10.146720476383713,46.66166175415014,0 10.14650228928674,46.66162806925533,0 10.146273262967187,46.661649351401785,0 10.146418243589725,46.661516328819026,0 10.146513222726488,46.66132830970407,0 10.146445538223725,46.66133423817655,0 10.146345866902108,46.661348845598305,0 10.14618409242171,46.661334695012734,0 10.146059925749096,46.661340526250186,0 10.14596879264902,46.66137940578588,0 10.145915045323976,46.66136651291817,0 10.14571403996288,46.66127914811179,0 10.14487902984532,46.6610325620018,0 10.144515500134242,46.661020323548776,0 10.144378723498734,46.66104347675827,0 10.144269614802555,46.66107846277199,0 10.143998877560218,46.661143923120974,0 10.143931517015796,46.66113544511708,0 10.143873198343961,46.66116130575523,0 10.143696332288194,46.6611799040292,0 10.143602388012381,46.6612044511238,0 10.14334321224247,46.66127107501958,0 10.143142615311705,46.66128826178323,0 10.142757074813778,46.66129597670131,0 10.142500960635015,46.6612775820222,0 10.142351902291402,46.661287599537815,0 10.1422189097497,46.661305153942365,0 10.142121003019525,46.66129236090897,0 10.142022447231728,46.661308377775285,0 10.141715326341204,46.66129479137904,0 10.141633089126032,46.66128162605365,0 10.141558127762334,46.66128844414109,0 10.141476899252133,46.66127453491218,0 10.14143471664246,46.661309369575434,0 10.141376324554447,46.6613337909119,0 10.141376621977923,46.66138948844004,0 10.141310737360719,46.66141048825584,0 10.141285664650033,46.66145283534503,0 10.14116880799094,46.661500239865234,0 10.1410468342354,46.661591677335466,0 10.14088819613045,46.66153569274433,0 10.140837187272089,46.661503789319404,0 10.140509390885986,46.661453257311756,0 10.140373840318821,46.66146151200773,0 10.14011520397012,46.66145540947639,0 10.139973808248612,46.66144004686646,0 10.139704662096953,46.66130749681302,0 10.139568930414564,46.66133303154663,0 10.139369117888156,46.661332011023305,0 10.139264764089209,46.66131576917365,0 10.139114623184145,46.66134596423266,0 10.138862291274695,46.661340429239125,0 10.138738841776792,46.66129963698443,0 10.138694289348958,46.66122438776479,0 10.138600675308926,46.661151021542516,0 10.13854210235752,46.66117184637492,0 10.138507446105736,46.6612108206814,0 10.13843406849938,46.6612283971006,0 10.138393475449112,46.66119048677513,0 10.138233578962446,46.66115108525552,0 10.138155244972022,46.661100940965326,0 10.137988250242342,46.66108690253958,0 10.137901776848453,46.661124945174514,0 10.137757377026315,46.66101894838581,0 10.137617583300111,46.66096323260654,0 10.13757821103073,46.660970644426314,0 10.137547090114206,46.66095482509524,0 10.137451069931116,46.660833284132906,0 10.137383669123484,46.66074282347567,0 10.137249322189074,46.66062866943782,0 10.137239097223365,46.66050370870619,0 10.137125748090611,46.660339003224365,0 10.137082643377807,46.66022988562124,0 10.136959065459259,46.66014283082285,0 10.136919868460536,46.66019558958672,0 10.136822570862641,46.66023676733298,0 10.13679533660097,46.66025684883611,0 10.136689574056003,46.66029606740105,0 10.136616584529788,46.66038417997752,0 10.13656000086642,46.660340169111656,0 10.136446040649696,46.660257205096045,0 10.136316585910569,46.66021995932362,0 10.136260536109482,46.660228485590416,0 10.13616754338968,46.66012558840862,0 10.135937231854928,46.66007921325106,0 10.135763909907737,46.66001370530404,0 10.135648859289937,46.66001355046267,0 10.135359379521706,46.66012262575635,0 10.134804890161785,46.6602444531149,0 10.13464165277281,46.66023022939773,0 10.134426491468243,46.66027779440662,0 10.134203012221281,46.660305399762805,0 10.134128704500839,46.660283403050755,0 10.133982533918557,46.660267426277926,0 10.133835638091307,46.660278821188854,0 10.133552793604311,46.660538785075055,0 10.133390144375781,46.66061174029143,0 10.13312378617435,46.66070226611046,0 10.133168074631035,46.660604756914104,0 10.133223430850851,46.66045659557278,0 10.133181450303503,46.66034888982372,0 10.133015081423077,46.66047304269569,0 10.132840546237578,46.66053835989561,0 10.132739195030783,46.66024161060261,0 10.132738246605571,46.660117816911914,0 10.132633975507794,46.659906838024185,0 10.132537688612102,46.65985494183376,0 10.132469577549195,46.659841934582836,0 10.132361231116914,46.65984879681559,0 10.132218689480968,46.65979627452359,0 10.132194214596002,46.659756438062004,0 10.131950567489664,46.65965557251591,0 10.131827536960763,46.659718675150025,0 10.13177582466678,46.65968378217065,0 10.131698523992359,46.65958672143207,0 10.131604797896593,46.65951866651934,0 10.131516122668337,46.65949410635558,0 10.131434362062667,46.65933265828201,0 10.131175494642893,46.6591374114255,0 10.131124323358028,46.659188495536256,0 10.131037636102885,46.659128632075166,0 10.130984334390583,46.65908689711534,0 10.130992848565118,46.658731556545156,0 10.130806683708467,46.658856343738655,0 10.130619367406615,46.65893300330307,0 10.130686221109542,46.65879555856129,0 10.130665115787501,46.65865466102351,0 10.130562907296554,46.65873446809494,0 10.130363321281765,46.65884065393021,0 10.130307168394642,46.6584911414652,0 10.130005695821271,46.65872871025378,0 10.129832184060753,46.65883169925521,0 10.129803717345329,46.65876186006093,0 10.129831781351765,46.6585479414453,0 10.12981460024453,46.6584288212371,0 10.129740399100617,46.65834362363483,0 10.12955047022204,46.658543308986005,0 10.12943247343632,46.65860714999869,0 10.129373510174295,46.658501915421674,0 10.12936338876445,46.65837402937836,0 10.129173770988151,46.658529851808694,0 10.129152719514314,46.65840824324485,0 10.129089315727684,46.65833922931269,0 10.129008745990818,46.65842712276827,0 10.128889294752346,46.658498158883155,0 10.128794656195792,46.65857950538184,0 10.12869205759654,46.65850109823642,0 10.128554491816654,46.65837278278499,0 10.128435260114323,46.65838677768019,0 10.128324427424952,46.65836875772978,0 10.128257859629525,46.65838666801225,0 10.12808478683818,46.658297886108976,0 10.127933390841028,46.65839347069353,0 10.127860904885761,46.65849321098073,0 10.127667485613342,46.658582908207144,0 10.127564167945811,46.65861544420469,0 10.127504437453858,46.65864523114626,0 10.127450389810647,46.65866370522216,0 10.127391243425777,46.65875539118383,0 10.127262647133968,46.65879702065606,0 10.127226687831797,46.6589027773772,0 10.127217671723866,46.659165852277724,0 10.127157942107281,46.65926538348112,0 10.127010567685941,46.659435149936506,0 10.126984463259625,46.65951998967896,0 10.126941377555982,46.65953684362016,0 10.126859150783798,46.659628766945886,0 10.12683269262355,46.65945446572541,0 10.126735333744108,46.65955754401828,0 10.126591051689594,46.65962141757531,0 10.126630391424394,46.6594873151795,0 10.126448640414415,46.65957582828662,0 10.126360166643718,46.65964703652433,0 10.126306585706303,46.659705169878066,0 10.126026340572725,46.65983199957581,0 10.125933551915402,46.65990428189929,0 10.125833398911231,46.659951276315866,0 10.125785934870674,46.66002726152596,0 10.125625498991392,46.65991370988932,0 10.125557798761335,46.65985627873419,0 10.125515130455414,46.65992654152729,0 10.125505827375946,46.66003381150873,0 10.125396407215693,46.659999680135726,0 10.125451837769917,46.6601257874124,0 10.125556893903829,46.66017729830075,0 10.125607816312394,46.66034583318048,0 10.125544039681698,46.660514345021866,0 10.125514393347435,46.66068805985814,0 10.125673328274809,46.66077141303883,0 10.125686407272589,46.660828270417674,0 10.125664478632286,46.66091301130089,0 10.125536241047765,46.66102617511822,0 10.125519956032292,46.66111209549069,0 10.125555290270047,46.661168183765334,0 10.125562904270634,46.66123711055363,0 10.125638634488702,46.66130874945964,0 10.125662397024968,46.66134490161888,0 10.125759199539967,46.661382358650805,0 10.125720406621777,46.66148549383803,0 10.12564308273448,46.66154994584845,0 10.125611900216942,46.661511809142986,0 10.125573456304442,46.66153791120015,0 10.125557353762906,46.66163057146144,0 10.125577145764476,46.6616920123726,0 10.12556268590175,46.66173770458912,0 10.125619593447093,46.661898236404376,0 10.125611551490453,46.6619257807499,0 10.125408429854089,46.66179523930789,0 10.125396238086317,46.66184447728507,0 10.125244219363069,46.66175304204216,0 10.12518102484133,46.66168110720251,0 10.125162002138197,46.66183551453405,0 10.12507355077722,46.66169225599949,0 10.12502433147143,46.661838108467,0 10.12502243568481,46.661905099998854,0 10.1249248899617,46.66200458163571,0 10.12487832422107,46.661972566484344,0 10.12491533759049,46.661917704116604,0 10.124874968257087,46.661884103079686,0 10.124823658848069,46.661924905448565,0 10.124609369294568,46.662011303321755,0 10.124594579361819,46.662071400346505,0 10.124693777449922,46.6621474055948,0 10.124598785422867,46.6621510855861,0 10.124611192294735,46.66221126105706,0 10.124506955833281,46.66217628663543,0 10.124361505483133,46.66215380175007,0 10.124276851086627,46.66212496810895,0 10.124160822906662,46.66212626436147,0 10.12409314011567,46.662110714703225,0 10.124047848841395,46.6620412365244,0 10.124070130738383,46.661984562230394,0 10.124181709783688,46.66183076103895,0 10.12384567360509,46.66199273386162,0 10.1239588926103,46.66178778437606,0 10.123583144010768,46.661992444447904,0 10.12366705746936,46.66174499465232,0 10.123485794584154,46.66184356917613,0 10.12341210025604,46.66187606380363,0 10.123272757823644,46.66199740517703,0 10.123053865710636,46.66205439436833,0 10.122949249405139,46.66207485654748,0 10.122812860669239,46.6621925283613,0 10.122692494794224,46.6622327976336,0 10.122707763322076,46.66229678612713,0 10.122628957170736,46.66226840927721,0 10.12270026416386,46.66193559436641,0 10.122382259440096,46.66214925246246,0 10.122162046349091,46.66226385960529,0 10.122046295549769,46.66229178188702,0 10.12194404727469,46.6623758562588,0 10.121934986234793,46.6624250200527,0 10.121856152827878,46.66237504759827,0 10.12184739154306,46.66230398812709,0 10.12190218402109,46.66220695621233,0 10.122091975177533,46.661934729043246,0 10.121973654657285,46.66199510536606,0 10.121348240539014,46.66219044335742,0 10.121304820903289,46.6622217001056,0 10.121243616557637,46.66231600329185,0 10.121211329117806,46.66225557592895,0 10.121194199744142,46.662037142826904,0 10.121071832235014,46.66203714550252,0 10.121160367700979,46.661966673851445,0 10.121250160485996,46.66184208810324,0 10.121184791693967,46.66172629108534,0 10.121154888367126,46.66165069054325,0 10.121074414866996,46.66165186608548,0 10.120960309369469,46.661797085138176,0 10.120770299474795,46.66187706241743,0 10.120540155234295,46.66196022657772,0 10.120415145579493,46.662075467888435,0 10.12028980491084,46.66212089071531,0 10.120169982821736,46.662173988182055,0 10.119945622368446,46.66220518525359,0 10.11960147299627,46.66235149926861,0 10.119474619330415,46.66243186747095,0 10.119305061214861,46.66251360291329,0 10.119185351756098,46.66260928191946,0 10.118935194304521,46.662650029115596,0 10.118756646542199,46.66261391887819,0 10.118708522742562,46.662547333525474,0 10.118677239656618,46.662490202641706,0 10.118676064342774,46.662395265714615,0 10.11869223551319,46.662293427238936,0 10.118678564976676,46.66225560077287,0 10.118611516468844,46.6622352635436,0 10.11852020442496,46.662248775441334,0 10.118289162711417,46.66236946780296,0 10.117975996258576,46.66257001129513,0 10.117762178320291,46.66268254631828,0 10.117646699437607,46.66277941556135,0 10.117536477174639,46.66283963622176,0</coordinates></LineString></Placemark></Document></kml>