<kml xmlns="http://www.opengis.net/kml/2.2" xmlns:gx="http://www.google.com/kml/ext/2.2" xmlns:xsi="http://www.w3.org/2001/XMLSchema-instance" xsi:schemaLocation="http://www.opengis.net/kml/2.2 https://developers.google.com/kml/schema/kml22gx.xsd"><Document><name>Dessin</name><Placemark id="drawing_feature_1745681766643"><name></name><description>09 Margun Grimmels</description><Style><LineStyle><color>ff0000ff</color><width>3</width></LineStyle></Style><ExtendedData><Data name="type"><value>linepolygon</value></Data></ExtendedData><LineString><coordinates>10.170497794462626,46.662595247393085,0 10.170339983778675,46.66257961730074,0 10.170262303710595,46.66254326327405,0 10.17024102665902,46.66248729365386,0 10.170113870771294,46.6623831488232,0 10.169908591549701,46.66228740227032,0 10.169679692619384,46.66215307245202,0 10.169459810866018,46.66214343088777,0 10.169395072313042,46.66214871165948,0 10.169085860660518,46.662220441826605,0 10.168914382920898,46.66228420880707,0 10.168730212899906,46.66233802629248,0 10.168575603439095,46.66246756936662,0 10.168521676514027,46.66255275326409,0 10.168298482982967,46.66277466013166,0 10.168242744395517,46.662877597694084,0 10.168184651915066,46.662933985349056,0 10.16813942133345,46.66307876787509,0 10.1680930317475,46.66312555377247,0 10.16810957107181,46.66318481344076,0 10.167702911923433,46.663377319739155,0 10.167536373894729,46.66354450632212,0 10.167390026255953,46.66359648315687,0 10.167236855857205,46.66362065964628,0 10.167069123283973,46.663624677951596,0 10.166989914878995,46.663611661412446,0 10.166875397228047,46.6635985874291,0 10.166744423667483,46.66361468234492,0 10.16666037820216,46.66360733718953,0 10.16639025514483,46.6636433216501,0 10.166165151506357,46.6637422959019,0 10.16597893688713,46.66389611068703,0 10.165929472883237,46.66397288167746,0 10.165812395514969,46.66405703056293,0 10.165687842520894,46.66409672628574,0 10.165527979693394,46.6641207102511,0 10.165271738589492,46.66420499518043,0 10.165121095708717,46.66422515847005,0 10.165007533285303,46.66427538833679,0 10.164960212785894,46.6643117947967,0 10.164785432996771,46.664330375761494,0 10.164656889709995,46.66439464147568,0 10.164427407766171,46.66455202643797,0 10.164141864645273,46.66472958897925,0 10.16390359093877,46.664825992051725,0 10.163552650995527,46.664939489720766,0 10.163467756255345,46.66497751425943,0 10.163250434074582,46.66510653083062,0 10.163090691392581,46.665174420457596,0 10.163024846969929,46.66519615186576,0 10.162783742605518,46.66541356054825,0 10.162697080667671,46.66554516651915,0 10.16226108098764,46.6659734384215,0 10.16201616427385,46.666279203634026,0 10.161998541867352,46.66636528949915,0 10.161891577446378,46.66661021159483,0 10.161873098191704,46.66682445471152,0 10.161844783122175,46.66697659802732,0 10.161773580995169,46.667140990887994,0 10.161764602805427,46.66734444435867,0 10.161689127416112,46.66765212489477,0 10.161664662290091,46.66774773254494,0 10.161601432542296,46.66792034607457,0 10.161428821851356,46.668106599321185,0 10.161317700358616,46.66822926371043,0 10.16125456983623,46.6684085804286,0 10.161202352716089,46.66847245719504,0 10.161165036641677,46.668603645451206,0 10.161247613484162,46.66893587866727,0 10.161246030095581,46.66904965585856,0 10.161226062179416,46.669130758501765,0 10.161252143019952,46.66934434771103,0 10.161320587871664,46.66953995587785,0 10.161297275911771,46.669738056106475,0 10.16141472460363,46.66995120953951,0 10.161614533408258,46.6702607399221,0 10.1618143857027,46.670489919831255,0 10.162114041481331,46.67075022076997,0 10.162365998405535,46.67090566162699,0 10.16247885983137,46.670965591578614,0 10.162675118587257,46.671102712724156,0 10.162969421550173,46.671223525959554,0 10.163066938725319,46.671290301121225,0 10.163333049967525,46.67140199482391,0 10.16362905508788,46.6715633811979,0 10.16394454554324,46.67172068381525,0 10.16405577568788,46.67181921264983,0 10.164091497293647,46.671863709783665,0 10.164125774858022,46.67190032289897,0 10.164266342282616,46.671949510060585,0 10.164573981619904,46.672013415752005,0 10.164759944914044,46.67210197743869,0 10.164953308099342,46.672181574572456,0 10.165101872576244,46.67222337063753,0 10.165523271116713,46.672406209060924,0 10.165773195361666,46.67250485103682,0 10.165853310585922,46.67255836304459,0 10.166060969036618,46.67261026103671,0 10.16618739444669,46.67260723396298,0 10.16632972821004,46.67264989754555,0 10.166458961324938,46.672640324127876,0 10.166526339760061,46.672648788832745,0 10.166686636131823,46.6726535885187,0 10.16672961995423,46.672655438607755,0 10.166825935867072,46.672594822385065,0 10.166899610503968,46.672582979615925,0 10.1670354849024,46.6726013214184,0 10.167174239508851,46.67261455502499,0 10.167413672272875,46.67273623686837,0 10.167507244765051,46.67274551322897,0 10.167549310393564,46.67270851197293,0 10.167563646147553,46.672619624408824,0 10.167603013332863,46.672591326190975,0 10.167672762993924,46.67258461613223,0 10.167769515494019,46.672615412236155,0 10.167832406471007,46.672659257367116,0 10.16789602477136,46.6727174824218,0 10.167926288776576,46.67271603747384,0 10.16796146699162,46.67266696326012,0 10.167996834650767,46.67255957491029,0 10.167974944545708,46.67238832932272,0 10.16801517445049,46.6723564109257,0 10.168123609256714,46.67232861726494,0 10.168176105375498,46.67233239849859,0 10.168247199929406,46.67235229106879,0 10.168282823644367,46.67233272077929,0 10.168301065832669,46.67227973304542,0 10.168271745212637,46.672217086948294,0 10.16809362287798,46.67211876823623,0 10.168065003008184,46.67209065914498,0 10.168061127104156,46.67205178769624,0 10.16817181561773,46.67206857195788,0 10.168408484731417,46.67213560772224,0 10.168519130042883,46.67221358177164,0 10.168593511629188,46.672339153024076,0 10.168606769969722,46.67241514164183,0 10.168610436053116,46.67254966974219,0 10.168610329750818,46.67263029787893,0 10.168576068089395,46.67272590405193,0 10.168487887319984,46.6728439165641,0 10.16858060683098,46.672877688144716,0 10.168697298888159,46.67278562750506,0 10.168805721220116,46.67265417199279,0 10.168880263730317,46.67244442571588,0 10.168874299045827,46.67232650976601,0 10.16888080026939,46.67218841827242,0 10.16887800969971,46.67215393130165,0 10.168825484104136,46.67208752231518,0 10.168805814510945,46.67203828803245,0 10.16868123248201,46.671974325840296,0 10.168486892464147,46.671896198073654,0 10.168482521571788,46.67187182720876,0 10.16852257874183,46.67185718962436,0 10.168638153998463,46.671846501288655,0 10.16866232057964,46.6718279253233,0 10.168651244299411,46.67179507667481,0 10.16850019377857,46.67164644618796,0 10.168433914329201,46.67159764354703,0 10.168415706366252,46.67156856516963,0 10.168457188712292,46.671520059555434,0 10.168410351232145,46.67144199612813,0 10.168217138503293,46.67130337173215,0 10.168188269999744,46.671258151640295,0 10.168167987653767,46.67110530505467,0 10.168171056827479,46.67104188283511,0 10.167967464906344,46.670531368387785,0 10.167893540439715,46.67032922274875,0 10.167847111438777,46.670084093728384,0 10.167869549766522,46.66998997283208,0 10.167945102593059,46.66987517369873,0 10.168011549731421,46.66982391042962,0 10.168118144425383,46.66980119980067,0 10.168411182959474,46.66978337946347,0 10.168542425609987,46.66977231559251,0 10.168598225587523,46.669758740449744,0 10.168501804919753,46.66972806747758,0 10.168417218651918,46.669586120293395,0 10.16827660293956,46.66934977283048,0 10.168278727543406,46.66929844222563,0 10.168221769559736,46.66914431489878,0 10.168225734066588,46.668894557732244,0 10.168182358683872,46.66874010491623,0 10.168225521879663,46.6686459676148,0 10.168255437092782,46.668596299467104,0 10.168268616690503,46.66850527979307,0 10.16831740773039,46.66837381376473,0 10.168304095337986,46.66794508932724,0 10.168310192513104,46.667801363474034,0 10.168324181514475,46.667747037853395,0 10.168356158862158,46.66771747661543,0 10.168553096342285,46.66768180231613,0 10.168606695695969,46.66766612024716,0 10.168981129388545,46.66739655174538,0 10.169077023525933,46.6672801421017,0 10.16926249953768,46.66716267581722,0 10.169247433049273,46.667071613291256,0 10.169283287379365,46.667015323581644,0 10.169341117227042,46.66695922687301,0 10.169461594239296,46.666900908308705,0 10.169472203085341,46.66686250072737,0 10.169480583014549,46.666759358095156,0 10.169505851516826,46.66670239244328,0 10.169588178044295,46.66657228130943,0 10.169649775760032,46.66648729922189,0 10.169637868655874,46.66632584170674,0 10.169746546245742,46.66615838511523,0 10.169768200148056,46.665791204606506,0 10.169841834078488,46.66571673178302,0 10.169876419189128,46.66557336772518,0 10.169946243139705,46.665444275938,0 10.169954332605524,46.66528535138011,0 10.170070803336591,46.66514794215054,0 10.170147159433949,46.66504460900358,0 10.170180641454808,46.66485879879615,0 10.170174529235736,46.66473800681458,0 10.17025621517366,46.66455890599613,0 10.170264972562714,46.664421920185085,0 10.170363198577611,46.66426877486462,0 10.170317741871585,46.66413524894052,0 10.170289956435855,46.66404089219347,0 10.170233344107624,46.663992535600755,0 10.170011978346846,46.66391721884789,0 10.169963525798734,46.66386801592079,0 10.169922207128746,46.663795579775325,0 10.169904853522217,46.6637420054948,0 10.169817232227372,46.663643324544935,0 10.169832380401795,46.66346828460438,0 10.169803333256283,46.663369638766206,0 10.169838899136337,46.66324568770982,0 10.169785314666788,46.6631825227451,0 10.169787082219967,46.66311409247581,0 10.169812902885456,46.66302492895744,0 10.169832086214598,46.662990634949956,0 10.169932762469719,46.66297526291682,0 10.17035574995436,46.662978323588106,0 10.170482090340434,46.66299472980549,0 10.170627941183179,46.662983312694585,0 10.170719517069111,46.66299479358016,0 10.170871496371788,46.66306313504403,0 10.170967884751551,46.663045705343634,0 10.17106830232423,46.66302270334407,0 10.171077402286071,46.66299584972176,0 10.170963974250462,46.66280060592607,0 10.170912257689997,46.66271048710311,0 10.170512729386328,46.66256601834867,0</coordinates></LineString></Placemark></Document></kml>