<kml xmlns="http://www.opengis.net/kml/2.2" xmlns:gx="http://www.google.com/kml/ext/2.2" xmlns:xsi="http://www.w3.org/2001/XMLSchema-instance" xsi:schemaLocation="http://www.opengis.net/kml/2.2 https://developers.google.com/kml/schema/kml22gx.xsd"><Document><name>Dessin</name><Placemark id="drawing_feature_1745682764510"><name></name><description>10 Vallée du Spöl</description><Style><LineStyle><color>ff0000ff</color><width>3</width></LineStyle></Style><ExtendedData><Data name="type"><value>linepolygon</value></Data></ExtendedData><LineString><coordinates>10.170845539221377,46.66259382826826,0 10.170330024002894,46.66257516502458,0 10.170270939464196,46.662548082111314,0 10.170243892998268,46.66248898137969,0 10.170099207776262,46.662378711565474,0 10.169914459022515,46.662294497327906,0 10.169666590380556,46.66214998795429,0 10.169425851658392,46.66214640209811,0 10.16917548668201,46.66220063636581,0 10.168891066132616,46.66228908361659,0 10.168746099413818,46.662338630513034,0 10.16859827261285,46.66243503757239,0 10.168509245865074,46.662556670252094,0 10.168293181783769,46.6627753563686,0 10.168224433328405,46.662897392049146,0 10.168182702995708,46.6629408645948,0 10.16814130186351,46.66307359336516,0 10.168095210851659,46.663113571046864,0 10.168093203893125,46.663135935169144,0 10.168111482145632,46.66317350505854,0 10.167856716150741,46.66330630776081,0 10.167709593154582,46.663375341486585,0 10.167548683073225,46.663536524596346,0 10.167360671789657,46.66360365805553,0 10.167200629454138,46.66362404935081,0 10.166976326411698,46.6636119520974,0 10.167115893151935,46.66355893753114,0 10.167179281308954,46.663530063878795,0 10.167205851770523,46.663497033107824,0 10.167169250364374,46.66343531428059,0 10.167065928783844,46.66341907284312,0 10.166982228681075,46.66337716574695,0 10.166925689733638,46.66333460798425,0 10.166890143975358,46.663272830668454,0 10.16687498760196,46.66311409665984,0 10.166816355674266,46.662895325706714,0 10.166811886325274,46.66280688857339,0 10.166841063666938,46.66272196468028,0 10.166827560845654,46.6625578512935,0 10.166874587800631,46.66243290692844,0 10.166858661991336,46.66230952002521,0 10.166921257839808,46.66203734880739,0 10.166935124723443,46.661894331045424,0 10.166897281543935,46.6617663805041,0 10.16685677309699,46.661352868884876,0 10.166769228755957,46.66124606266026,0 10.166674695395168,46.6612173726295,0 10.166497901548182,46.66105099776093,0 10.16652183624492,46.66117280263822,0 10.166479703014966,46.66124030040985,0 10.16653208786778,46.66134558667086,0 10.166482811377618,46.66150732740103,0 10.166416056620502,46.66132463915,0 10.166135453432023,46.661339278153676,0 10.166065955388445,46.661262439156346,0 10.165861454287196,46.66133428441828,0 10.165821431789015,46.66132876397642,0 10.165866369309862,46.66128665522483,0 10.16589402183878,46.6611715335169,0 10.165858568737082,46.66115294590802,0 10.165614899732761,46.66119477419322,0 10.16541056968775,46.661250888100646,0 10.164800241256893,46.66116776543661,0 10.16452249678628,46.66102273499312,0 10.164386696850677,46.661025985238474,0 10.163773591516618,46.66116663468622,0 10.163840251831065,46.66101261446289,0 10.163824486137791,46.66094892325209,0 10.163728249132907,46.660886437664715,0 10.163639932276563,46.66079431155131,0 10.163383686412601,46.66062839332779,0 10.163256620278636,46.66057658535185,0 10.163225810920991,46.66054636799533,0 10.163420936998474,46.660350934021096,0 10.163411185651448,46.660301639927354,0 10.163356132860796,46.660267683380496,0 10.163284144539851,46.66018857183589,0 10.163269242965958,46.66012126048363,0 10.163223692974043,46.66006835993639,0 10.163111951147606,46.65987495232618,0 10.16307816162225,46.65984735277366,0 10.162706157594409,46.659721258561376,0 10.162412673895926,46.65957274505864,0 10.162387598228527,46.65954880171408,0 10.162217888880607,46.659501749659434,0 10.162209125902146,46.65947316441527,0 10.162271322141097,46.659441442414746,0 10.162305104282725,46.659426956942696,0 10.16234609695365,46.65943101565669,0 10.162385464742966,46.6594235953032,0 10.162510815001465,46.65942059728141,0 10.162566459929378,46.659407455378414,0 10.162719210429083,46.659351349992654,0 10.162796282412172,46.65928467024843,0 10.162899576820422,46.65925524498596,0 10.163039840333148,46.65924533314598,0 10.163205752545469,46.659198382704055,0 10.163352114636579,46.65912057438145,0 10.163469016693005,46.65902525824054,0 10.163563966143263,46.65887201832618,0 10.163531321562052,46.658623653388176,0 10.163535206073762,46.658359462119854,0 10.163582561205049,46.65808150015685,0 10.163539513624576,46.65792034249223,0 10.163572956822472,46.657870004470176,0 10.16375655333176,46.6577541512202,0 10.163823132507472,46.65771030514451,0 10.163880300147275,46.65764774337696,0 10.163931350073476,46.657505921761796,0 10.163912267615274,46.65734244367534,0 10.16392694018485,46.657297654227555,0 10.163954811533417,46.6572627478573,0 10.163913972571475,46.657181680230515,0 10.163875319221745,46.65704491925649,0 10.163824842231627,46.65696744950681,0 10.163823879263514,46.65692740514956,0 10.163856109569906,46.65685305568264,0 10.16387605871837,46.65674200976445,0 10.163908664130087,46.656696062648344,0 10.163946591531568,46.656650716658035,0 10.163944424536682,46.656607787182125,0 10.163917055895688,46.656526850455265,0 10.1638552824171,46.65645620755181,0 10.163861029032834,46.65642328765435,0 10.163929822702904,46.656360447528456,0 10.163954698318186,46.656201253627515,0 10.164097402647329,46.656114061111474,0 10.164226793646435,46.656098579900664,0 10.164548882538229,46.655959012389296,0 10.16459614686435,46.655930926591694,0 10.164851748115856,46.655878912481604,0 10.164934436901795,46.65583977945563,0 10.165071963700335,46.655754895137314,0 10.165215657169956,46.655687346963134,0 10.165304521814539,46.65561411537179,0 10.165385013611584,46.65555245125346,0 10.165378204602376,46.65548049301343,0 10.165358838767524,46.655453273809464,0 10.165312939506677,46.655340727164,0 10.165246615367534,46.655284763912995,0 10.165255026117508,46.65526270759566,0 10.165310056026774,46.65524172048971,0 10.165561812178769,46.65515555734984,0 10.165621962348533,46.65508928067593,0 10.165732103712116,46.65506988759376,0 10.165819891853001,46.655026989337124,0 10.165902956325702,46.654932480763456,0 10.16581192599494,46.65479355149848,0 10.165789592074717,46.6547285215617,0 10.16581164373427,46.65464130219353,0 10.165898559261361,46.65451828994258,0 10.165987364150215,46.65443217169622,0 10.166158895508373,46.65418255944206,0 10.166136294925908,46.65405850090791,0 10.166028602858106,46.65391683767208,0 10.165964505203306,46.65377922970731,0 10.165883422059593,46.65370133987842,0 10.165864957797147,46.65365005874122,0 10.165895942600171,46.65357209584283,0 10.165897744865585,46.653523971814515,0 10.165862590359529,46.65342298331105,0 10.165898812958186,46.65340681734418,0 10.165989079734796,46.65337114448593,0 10.166007527402622,46.653296395840954,0 10.16612108428275,46.65326089354426,0 10.166284024932706,46.65321838023992,0 10.166333243893181,46.6531662063768,0 10.166430752754806,46.65310631922058,0 10.166555705982978,46.65304504601734,0 10.166614005402545,46.652921261597776,0 10.166683369583557,46.65281721659981,0 10.166646283841947,46.652774395179044,0 10.166645245333804,46.65273289564402,0 10.166603812361915,46.65266686638981,0 10.16661065079465,46.65255087130628,0 10.166666431098685,46.65250291109169,0 10.166714335893435,46.65247290741056,0 10.16672074217626,46.65236930718632,0 10.16660009256907,46.652264379840645,0 10.166552961726081,46.65216934714158,0 10.166524010409791,46.65214090077313,0 10.166521115368267,46.652104545207145,0 10.166612692438067,46.652003396739396,0 10.16673799221818,46.65182336972613,0 10.16673531578955,46.65164024606975,0 10.16673392806333,46.651549945490686,0 10.166679564498226,46.651416475715834,0 10.16655801353182,46.65115102953801,0 10.166446855138211,46.65100848032712,0 10.166422519010828,46.65086190664943,0 10.166361656497466,46.65078078788025,0 10.166298940492657,46.65062857709304,0 10.166157157068858,46.650524155660364,0 10.166075966118324,46.65041165926068,0 10.1660461439901,46.65030309883228,0 10.165971143155716,46.65025864781983,0 10.165901249521804,46.65019475705569,0 10.165884147595486,46.65008662041028,0 10.165804604535696,46.649972772147265,0 10.1657725678894,46.649883205646624,0 10.165786384302347,46.649716777134614,0 10.165817156713969,46.649571797438085,0 10.16587570114824,46.64951575783708,0 10.166005298743814,46.64933708556978,0 10.166058631722015,46.64928262766702,0 10.16608815257904,46.64919668625345,0 10.166042519989347,46.64900633904088,0 10.166036951563386,46.64893799354275,0 10.165969647034636,46.6488269724177,0 10.16598019941042,46.64870068942955,0 10.165994426823055,46.648647168228806,0 10.166042704121343,46.64861832888841,0 10.166281230893084,46.64852228123337,0 10.166310107438992,46.648465495032795,0 10.16636658214953,46.64843135967316,0 10.166412359623449,46.64835304217977,0 10.166473282161416,46.648323171186775,0 10.166507709138644,46.648292477977044,0 10.166693674474118,46.64826616754,0 10.166818542684236,46.648203438791654,0 10.166911005732043,46.64812764491701,0 10.166982423077936,46.64809606519164,0 10.167178441552279,46.64805931405044,0 10.1672691672076,46.648011972970004,0 10.167469458947965,46.647996973808695,0 10.167512735172002,46.64795295522791,0 10.167560982573866,46.64786073654435,0 10.167638040398174,46.64773140231643,0 10.167685598261242,46.64764648500274,0 10.167744589464583,46.64762030212002,0 10.167755028644951,46.64757561344017,0 10.167781330496503,46.647551671055595,0 10.167789131484303,46.647475720094256,0 10.167858249803027,46.64744055245087,0 10.167921420047518,46.64730863688676,0 10.168020681883878,46.647283673990735,0 10.168087860281451,46.64723106865212,0 10.168136723576318,46.64721387029259,0 10.168212410781619,46.647120264947,0 10.16827889240338,46.6470225105244,0 10.168312949714778,46.64698454057585,0 10.168504421854378,46.64689981501993,0 10.168582360651595,46.64680769002205,0 10.168547996723243,46.64673493549191,0 10.168501759960147,46.64667849263829,0 10.16840127580563,46.646658318310834,0 10.168287832503033,46.646591102096465,0 10.168286549689983,46.64653807113612,0 10.168347091913327,46.6464739906979,0 10.168414663233815,46.6464248589964,0 10.16855383046085,46.64638552865876,0 10.16881177101751,46.64625883027356,0 10.16885296247529,46.646246324547405,0 10.168908493606981,46.6462485923003,0 10.168965194578524,46.64621195882842,0 10.169016482186107,46.646150979423815,0 10.169020566859658,46.64610768906715,0 10.16909504106837,46.64611238195725,0 10.169242971598774,46.64610163552537,0 10.16928477085053,46.646080476573836,0 10.169357661501545,46.64601250005886,0 10.16945234730711,46.64596199755388,0 10.16946951485076,46.64586728234353,0 10.169496636767281,46.6458040028184,0 10.169625447117733,46.64572532647532,0 10.16991498834454,46.64559960190331,0 10.170008945221346,46.64553569226767,0 10.170023435806176,46.645491432352856,0 10.16996045036677,46.645341769843995,0 10.169852597426996,46.64519627151555,0 10.169815698873824,46.64514892505612,0 10.169817559071658,46.645123684853544,0 10.169842139384336,46.645092860563835,0 10.169839692875323,46.64503436920578,0 10.16989005886712,46.644934538293484,0 10.169958733627675,46.64486594257599,0 10.170005649443773,46.644780591818844,0 10.170013515707488,46.64466738291515,0 10.170066489184508,46.64459844393341,0 10.17018293065111,46.644564695757566,0 10.170310864157782,46.644468762614885,0 10.170604808916243,46.64445091152034,0 10.17075668272327,46.644414872790946,0 10.17081923550951,46.64434930289721,0 10.170875547171393,46.64418338190235,0 10.170930960690209,46.644100706301785,0 10.171025132439924,46.64404013647904,0 10.171062730819706,46.64397732496499,0 10.171153276874483,46.64358871100752,0 10.171731915369762,46.64333809296055,0 10.171782978793216,46.643272798340234,0 10.171786769998064,46.643223755869094,0 10.171667894573188,46.643016488325436,0 10.171686269087392,46.64296637591368,0 10.171611070198379,46.642888943308236,0 10.171572803570195,46.64277324224846,0 10.171590053621056,46.642638931502105,0 10.171536586719965,46.642503705133855,0 10.171531689210147,46.64236560680032,0 10.171584905826016,46.64221891466908,0 10.171645437242857,46.64202870448342,0 10.17170808434438,46.64194441500387,0 10.171758975482321,46.6418964014359,0 10.171790983153882,46.64188843428273,0 10.171879063269165,46.64189351844389,0 10.171986936583378,46.64187653108877,0 10.172120431580002,46.64182869372779,0 10.172437130139533,46.641764939084624,0 10.172653289889746,46.641697838984626,0 10.172927673539535,46.64156239184527,0 10.173000113265996,46.64148727905435,0 10.173004728952167,46.641433897463806,0 10.173075157974628,46.64129686935615,0 10.173130574981103,46.64129697808223,0 10.173274774624945,46.64133670691169,0 10.173339068401441,46.641305647635136,0 10.173489864023965,46.64122787815391,0 10.173564599820564,46.641196567900955,0 10.173651247204894,46.6411527335795,0 10.173682647036348,46.64109835758547,0 10.17373941219179,46.641063159697644,0 10.174021414630927,46.64097503843844,0 10.174144415013608,46.640905854470766,0 10.174245267411436,46.64089479260835,0 10.174706509498543,46.64073325444247,0 10.17472683528292,46.64070109140933,0 10.174719694703366,46.640656258090964,0 10.174622109130471,46.64058733567488,0 10.174573006917003,46.64048485363022,0 10.174612813435791,46.64042280205107,0 10.174609353069641,46.64035449702117,0 10.174635470565558,46.64031283643426,0 10.174673596334927,46.6403018419157,0 10.174745865364331,46.640304424280735,0 10.17484421534943,46.64032653629558,0 10.174860449366667,46.640378697031245,0 10.175062844520118,46.640432142247185,0 10.17539735739373,46.640493209287904,0 10.175586033562183,46.64060286516431,0 10.17561856358833,46.640687748341925,0 10.175606689928385,46.64076290088571,0 10.175694331821887,46.64099717359352,0 10.175696348555606,46.6410575947047,0 10.175713906791762,46.64109460612169,0 10.175799011667802,46.6411235146589,0 10.175925242431369,46.641159352943596,0 10.175972682553214,46.64118772719572,0 10.176112160393117,46.64121676789607,0 10.17623510032786,46.641228929100826,0 10.176489769348366,46.64119976887845,0 10.176679642861387,46.64109504946426,0 10.176804775566858,46.640985498194055,0 10.177003162012698,46.640897940734575,0 10.177183785842745,46.64085184317999,0 10.177351252739916,46.6406700051608,0 10.177368070950763,46.64054664954422,0 10.177367014458587,46.64029903744649,0 10.177324439417477,46.640236701069625,0 10.177113113276741,46.64006901432637,0 10.177001065733938,46.640024197689115,0 10.176986275041637,46.63997992114848,0 10.177064402465243,46.63985062374735,0 10.177242499651044,46.63960701173605,0 10.17722227933693,46.63951751359931,0 10.17722471208009,46.639359313919776,0 10.177207700253652,46.63933308772105,0 10.17725760988289,46.639224625510266,0 10.177318633516844,46.639211639445676,0 10.177459091531569,46.639260091433336,0 10.177557450742102,46.63924116795059,0 10.177764488155665,46.63918003627408,0 10.177879408120127,46.639157834467156,0 10.17790530370938,46.63911185914124,0 10.177915595945207,46.63904682258414,0 10.177943070052311,46.63897207382006,0 10.178017650414118,46.63887597537482,0 10.178161574451913,46.63882787964102,0 10.178446982933005,46.63858057221385,0 10.17845798560863,46.6385228163708,0 10.178571417683147,46.63843010169682,0 10.178590874091931,46.638339648791636,0 10.17865854904785,46.6383135441081,0 10.178702914815412,46.63832255454422,0 10.178831270003643,46.63825611582502,0 10.179007333026448,46.63824395909997,0 10.179117453746235,46.63820963360644,0 10.179152708771328,46.638162712695966,0 10.179194183542544,46.6381559552877,0 10.17933010753916,46.63815628237377,0 10.179529748177758,46.638134918661876,0 10.179632741590424,46.6381043635773,0 10.179844619834716,46.63807694566463,0 10.179908131439056,46.638071816923286,0 10.180089953869494,46.63811135094459,0 10.180146449071968,46.638092713409655,0 10.18016512029638,46.63806922767711,0 10.180273808527295,46.638047893340186,0 10.180381284297582,46.63804386508911,0 10.180478377115044,46.63802065022167,0 10.180620289006184,46.637933006461154,0 10.180998657610822,46.63779602791154,0 10.181182626406159,46.63771312924708,0 10.181270664171322,46.6377174872121,0 10.181386645652289,46.6376750995752,0 10.181472696733785,46.63761975530252,0 10.181618585132096,46.63754856836854,0 10.18172201446046,46.637526639430604,0 10.181924179983106,46.63761679170529,0 10.181850311390251,46.63779620168268,0 10.181859424850597,46.63785213255476,0 10.181878161636263,46.637871117757626,0 10.182067468114987,46.63785215820378,0 10.182246975327757,46.63782551585439,0 10.182300781589122,46.63779398417381,0 10.182320285550109,46.63782806824865,0 10.182263690486506,46.63788702251638,0 10.18188795500804,46.63825573774835,0 10.181758647431705,46.63834451917306,0 10.181453935198595,46.638451102031155,0 10.18130810705513,46.638546413532985,0 10.18127333581959,46.638664591352935,0 10.181322697259723,46.63895137994796,0 10.18127738913242,46.639088528427095,0 10.181197674244354,46.639359882415604,0 10.181191627280056,46.639566065003535,0 10.181158016124284,46.63964534140056,0 10.181129465155504,46.63970073989794,0 10.181147669386396,46.63983275886797,0 10.181090148622285,46.6399559014714,0 10.181045401364809,46.64002176840149,0 10.18089620973257,46.64012576365308,0 10.180828226547929,46.6402281840624,0 10.180972256129245,46.640462341783646,0 10.180819292525243,46.640579591666366,0 10.18080067174319,46.64062467259787,0 10.180803015192035,46.64073259779487,0 10.18078212340661,46.64077413402104,0 10.18078800857127,46.640848859519174,0 10.18082551990856,46.640887549256675,0 10.180917210744424,46.64111409199569,0 10.180896035446954,46.64116246443253,0 10.18083840292311,46.64121606493884,0 10.180817941570016,46.6413007368538,0 10.18073809663597,46.64137405239314,0 10.180597235594842,46.64146482074486,0 10.180515584261911,46.64162448978445,0 10.180531729277,46.64166025415113,0 10.180493961935117,46.641769850515615,0 10.180501859137365,46.642169244422675,0 10.180540739518698,46.642252654622766,0 10.180573565781671,46.64232005980302,0 10.18056295072756,46.64238531443913,0 10.180566430335817,46.64248432748132,0 10.180551880574425,46.64256352913515,0 10.180446443359507,46.64263846685725,0 10.18039152205909,46.64268454300035,0 10.180306788414626,46.642783549244136,0 10.180151027356406,46.64291623252408,0 10.180152483526092,46.643097342154604,0 10.180126189729146,46.6431867924899,0 10.180089729116157,46.6432611938602,0 10.180049669728417,46.64329519075348,0 10.179887843800397,46.64336941400102,0 10.179692041029048,46.6435669940899,0 10.17972839058567,46.643642839038385,0 10.179873413488874,46.64384973106031,0 10.179891646944718,46.64393453659692,0 10.180040400554024,46.644151525211186,0 10.180052573630707,46.644226364746245,0 10.18002191702428,46.644293167449575,0 10.17989318488209,46.64444011721321,0 10.179734541400348,46.64453037963053,0 10.179636390528062,46.6445785616566,0 10.179558550251889,46.64463051679621,0 10.179405258757368,46.64472051712497,0 10.179381735697534,46.64477542679667,0 10.179393158028372,46.644878510804595,0 10.179522403281096,46.64501605293994,0 10.179571886823986,46.64510738150609,0 10.179560783849482,46.64516305775073,0 10.179509490884332,46.64521970151343,0 10.179395693407713,46.6453865366348,0 10.179269433827843,46.64549080380723,0 10.179003583927496,46.645613540759015,0 10.178851389071973,46.64575572611971,0 10.17877925048424,46.64588959124851,0 10.178648877223008,46.64609095502374,0 10.178381399466792,46.64634033848516,0 10.178316785834124,46.64640902326062,0 10.17823419631902,46.64645896055025,0 10.178000547124082,46.64657666293193,0 10.17754800778364,46.646686646600806,0 10.17744532150772,46.64673706672659,0 10.177360826522571,46.64681049137109,0 10.177210077096381,46.64688977183055,0 10.177111526673707,46.64699123884438,0 10.177120516402123,46.647046431507725,0 10.17716202252726,46.64710190762985,0 10.177168028783141,46.64715930312699,0 10.177145257883877,46.647229111901794,0 10.177144903706292,46.64734420039794,0 10.17707792089958,46.64749371013411,0 10.177061803592856,46.64763368548228,0 10.177092365973577,46.64774803035595,0 10.177114802063638,46.647824210741994,0 10.177184349963694,46.64788327466054,0 10.177307225920016,46.64791344491507,0 10.177580536607833,46.6479313784348,0 10.178078163226834,46.648038749022405,0 10.178392151401129,46.64807777468376,0 10.178522542946572,46.64808529263727,0 10.17878271863846,46.64814935835459,0 10.178951527451607,46.64821242577582,0 10.179210809777498,46.648325452745574,0 10.179310598931474,46.648356452212376,0 10.179661912839707,46.64842375946378,0 10.180013561575704,46.648587351392024,0 10.180256309626879,46.648660529334975,0 10.180788052446909,46.648959681699026,0 10.18092648241581,46.64905247853543,0 10.1811113212592,46.6491356424768,0 10.181321228064272,46.64921449723532,0 10.181570436408958,46.64936816892267,0 10.181682967807804,46.649540002538416,0 10.181842650616987,46.649655097016165,0 10.182001007130253,46.649832521403624,0 10.182135940296268,46.64994697587521,0 10.182426662601141,46.65012571494216,0 10.182736569003088,46.65027848228943,0 10.183245141289449,46.650459301063826,0 10.183415917926022,46.65055139294911,0 10.183663625563666,46.650698579168655,0 10.183810285162329,46.65072029815671,0 10.184220129614907,46.651013592093534,0 10.18447645095326,46.651171538026134,0 10.184575273359822,46.651206629665225,0 10.184675862368758,46.651206647884536,0 10.18477467193171,46.65117167819523,0 10.184807931785752,46.651174134746086,0 10.18486305404707,46.65130396694868,0 10.184960211767454,46.651399383883984,0 10.185277870803148,46.65160063193516,0 10.185650705143203,46.6517879732196,0 10.185753929439578,46.6518439475426,0 10.185897916582405,46.65188283648844,0 10.185956890065077,46.651878969610685,0 10.18614343560986,46.65182395920183,0 10.186640574928443,46.651895873636704,0 10.186844205766953,46.65189336630469,0 10.187014410194418,46.65184282221701,0 10.187048705994071,46.65186561985131,0 10.187138713152248,46.65198320371489,0 10.187224432256585,46.652039790798455,0 10.187390814889365,46.65205606802289,0 10.187551039184246,46.65211167100407,0 10.187750263343176,46.652259204518664,0 10.187937911514528,46.65232612784285,0 10.188051730943716,46.65235352243581,0 10.188183260281438,46.65235686391968,0 10.188228401674666,46.65238347265075,0 10.188249799305499,46.65243183613719,0 10.188252989862649,46.6524944886578,0 10.188307939334358,46.65255009937294,0 10.188613128334437,46.65273336209803,0 10.188709308730552,46.652840895933025,0 10.188768530113679,46.65288834585142,0 10.188842639834272,46.652949285550584,0 10.188885333642423,46.65302076002196,0 10.18896862941523,46.65309940052252,0 10.18910643544663,46.653154667894356,0 10.18918799207483,46.65315269792556,0 10.189315065590069,46.65313822300631,0 10.189366926978368,46.65315733697405,0 10.189374785180748,46.65319543663959,0 10.189347369931157,46.65326127248845,0 10.189369805153687,46.653329977476645,0 10.18941026153504,46.6533575136328,0 10.189507141680135,46.65340079484157,0 10.18959736591507,46.6534295726524,0 10.189727653419551,46.65345493848561,0</coordinates></LineString></Placemark></Document></kml>