<kml xmlns="http://www.opengis.net/kml/2.2" xmlns:gx="http://www.google.com/kml/ext/2.2" xmlns:xsi="http://www.w3.org/2001/XMLSchema-instance" xsi:schemaLocation="http://www.opengis.net/kml/2.2 https://developers.google.com/kml/schema/kml22gx.xsd"><Document><name>Dessin</name><Placemark id="drawing_feature_1745682764510"><name></name><description>10 Vallée du Spöl</description><Style><LineStyle><color>ff0000ff</color><width>3</width></LineStyle></Style><ExtendedData><Data name="type"><value>linepolygon</value></Data></ExtendedData><LineString><coordinates>10.170845529100559,46.66259382026207,0 10.170330013882515,46.66257515701818,0 10.170270929343861,46.66254807410495,0 10.170243882877934,46.66248897337333,0 10.170099197656022,46.66237870355913,0 10.1699144489024,46.662294489321525,0 10.169666580260609,46.662149979947934,0 10.169425841538654,46.66214639409166,0 10.169175476562499,46.66220062835926,0 10.16889105601338,46.66228907560987,0 10.16874608929473,46.66233862250624,0 10.16859826249392,46.662435029565536,0 10.16850923574626,46.66255666224507,0 10.168293171665216,46.662775348361436,0 10.16822442320995,46.662897384041926,0 10.168182692877302,46.66294085658753,0 10.168141291745185,46.663073585357814,0 10.168095200733394,46.66311356303949,0 10.168093193774862,46.66313592716173,0 10.168111472027364,46.6631734970511,0 10.167856706032737,46.66330629975326,0 10.167709583036734,46.66337533347894,0 10.16754867295557,46.66353651658857,0 10.167360661672193,46.663603650047655,0 10.167200619336807,46.663624041342835,0 10.166976316294557,46.66361194408938,0 10.167115883034658,46.66355892952319,0 10.167179271191614,46.663530055870844,0 10.167205841653148,46.66349702509993,0 10.167169240247011,46.66343530627272,0 10.167065918666568,46.66341906483526,0 10.166982218563856,46.66337715773906,0 10.166925679616453,46.66333459997639,0 10.166890133858182,46.66327282266055,0 10.166874977484744,46.66311408865203,0 10.166816345557027,46.66289531769901,0 10.166811876208008,46.6628068805657,0 10.166841053549618,46.66272195667266,0 10.166827550728291,46.66255784328594,0 10.166874577683187,46.662432898921,0 10.166858651873863,46.662309512017806,0 10.16692124772219,46.662037340800154,0 10.166935114605769,46.66189432303827,0 10.166897271426247,46.661766372496984,0 10.166856762979195,46.661352860877976,0 10.166769218638207,46.66124605465336,0 10.166674685277489,46.66121736462259,0 10.1664978914306,46.661050989754045,0 10.166521826127358,46.66117279463127,0 10.166479692897461,46.66124029240286,0 10.16653207775027,46.66134557866383,0 10.166482801260205,46.66150731939393,0 10.166416046503079,46.66132463114296,0 10.166135443314847,46.661339270146534,0 10.166065945271306,46.661262431149254,0 10.16586144417025,46.66133427641101,0 10.165821421672108,46.66132875596919,0 10.165866359192904,46.6612866472176,0 10.165894011721756,46.661171525509765,0 10.165858558620084,46.661152937900866,0 10.165614889615991,46.66119476618594,0 10.165410559571171,46.6612508800933,0 10.164800231140818,46.66116775742908,0 10.164522486670394,46.661022726985564,0 10.164386686734908,46.6610259772309,0 10.16377358140143,46.661166626678344,0 10.163840241715763,46.66101260645514,0 10.163824476022478,46.66094891524438,0 10.163728239017662,46.66088642965696,0 10.163639922161364,46.660794303543575,0 10.163383676297565,46.66062838532008,0 10.163256610163694,46.66057657734411,0 10.16322580080606,46.66054635998759,0 10.163420926883312,46.66035092601352,0 10.16341117553628,46.66030163191981,0 10.163356122745665,46.660267675372964,0 10.163284134424757,46.660188563828356,0 10.163269232850851,46.660121252476124,0 10.163223682858963,46.660068351928885,0 10.163111941032552,46.65987494431873,0 10.163078151507218,46.65984734476625,0 10.16270614747965,46.65972125055387,0 10.162412663781375,46.659572737051114,0 10.162387588113987,46.65954879370657,0 10.1622178787662,46.659501741651894,0 10.16220911578773,46.65947315640771,0 10.162271312026627,46.65944143440725,0 10.162305094168214,46.65942694893522,0 10.162346086839104,46.659431007649246,0 10.162385454628385,46.659423587295734,0 10.162510804886779,46.659420589274006,0 10.162566449814639,46.659407447371024,0 10.16271920031419,46.65935134198537,0 10.162796272297191,46.65928466224122,0 10.162899566705345,46.65925523697876,0 10.163039830217949,46.65924532513884,0 10.163205742430105,46.659198374697006,0 10.163352104521062,46.65912056637446,0 10.163469006577357,46.65902525023366,0 10.163563956027476,46.658872010319385,0 10.163531311446214,46.658623645381525,0 10.163535195957834,46.658359454113324,0 10.163582551088986,46.658081492150465,0 10.163539503508495,46.657920334485915,0 10.163572946706347,46.65786999646389,0 10.16375654321544,46.657754143214085,0 10.163823122391078,46.65771029713841,0 10.16388029003081,46.65764773537093,0 10.163931339956923,46.65750591375585,0 10.16391225749868,46.65734243566948,0 10.163926930068232,46.657297646221686,0 10.16395480141676,46.65726273985148,0 10.163913962454824,46.65718167222469,0 10.163875309105082,46.65704491125073,0 10.163824832114981,46.656967441501045,0 10.163823869146857,46.65692739714385,0 10.163856099453195,46.656853047676975,0 10.163876048601614,46.65674200175887,0 10.163908654013284,46.6566960546428,0 10.163946581414711,46.656650708652506,0 10.163944414419813,46.6566077791766,0 10.163917045778813,46.65652684244977,0 10.163855272300255,46.65645619954637,0 10.163861018915979,46.65642327964891,0 10.163929812585968,46.656360439523056,0 10.163954688201173,46.6562012456222,0 10.164097392530168,46.65611405310628,0 10.16422678352915,46.65609857189553,0 10.164548872420623,46.655959004384314,0 10.164596136746688,46.655930918586776,0 10.164851737997957,46.6558789044768,0 10.164934426783814,46.655839771450836,0 10.165071953582208,46.65575488713261,0 10.165215647051687,46.655687338958515,0 10.165304511696165,46.65561410736724,0 10.165385003493123,46.65555244324897,0 10.16537819448389,46.65548048500898,0 10.165358828649047,46.65545326580502,0 10.165312929388202,46.65534071915959,0 10.1652466052491,46.6552847559086,0 10.165255015999058,46.6552626995913,0 10.165310045908269,46.65524171248536,0 10.165561802060013,46.6551555493456,0 10.165621952229708,46.655089272671766,0 10.165732093593187,46.65506987958964,0 10.165819881733979,46.65502698133305,0 10.16590294620658,46.65493247275945,0 10.16581191587585,46.65479354349449,0 10.165789581955625,46.654728513557764,0 10.165811633615135,46.65464129418965,0 10.165898549142106,46.6545182819388,0 10.165987354030856,46.65443216369253,0 10.16615888538878,46.65418255143852,0 10.166136284806294,46.65405849290441,0 10.166028592738538,46.653916829668624,0 10.165964495083749,46.65377922170393,0 10.165883411940078,46.65370133187502,0 10.165864947677626,46.65365005073786,0 10.165895932480604,46.6535720878395,0 10.165897734746002,46.65352396381123,0 10.165862580239938,46.65342297530779,0 10.16589880283856,46.65340680934095,0 10.165989069615081,46.65337113648274,0 10.166007517282859,46.653296387837834,0 10.166121074162882,46.65326088554119,0 10.166284014812682,46.6532183722369,0 10.166333233773098,46.65316619837384,0 10.166430742634617,46.653106311217684,0 10.166555695862662,46.653045038014525,0 10.166613995282141,46.65292125359504,0 10.166683359463061,46.652817208597085,0 10.166646273721465,46.65277438717636,0 10.166645235213299,46.652732887641356,0 10.16660380224143,46.652666858387185,0 10.166610640674124,46.652550863303745,0 10.166666420978089,46.65250290308916,0 10.166714325772789,46.652472899408096,0 10.166720732055577,46.65236929918389,0 10.166600082448452,46.652264371838186,0 10.166552951605473,46.652169339139164,0 10.1665240002892,46.652140892770774,0 10.166521105247668,46.65210453720478,0 10.166612682317353,46.652003388737114,0 10.166737982097299,46.65182336172399,0 10.166735305668611,46.651640238067706,0 10.16673391794236,46.65154993748868,0 10.166679554377255,46.65141646771387,0 10.166558003410875,46.65115102153617,0 10.166446845017306,46.65100847232528,0 10.166422508889896,46.65086189864768,0 10.166361646376565,46.65078077987854,0 10.166298930371754,46.650628569091346,0 10.166157146948043,46.65052414765865,0 10.166075955997536,46.65041165125901,0 10.166046133869308,46.6503030908307,0 10.165971133034972,46.650258639818205,0 10.165901239401103,46.650194749054094,0 10.165884137474759,46.650086612408764,0 10.165804594414999,46.64997276414572,0 10.165772557768703,46.64988319764512,0 10.165786374181586,46.64971676913319,0 10.165817146593128,46.64957178943677,0 10.165875691027335,46.64951574983582,0 10.166005288622733,46.649337077568624,0 10.166058621600868,46.64928261966594,0 10.166088142457838,46.649196678252395,0 10.166042509868118,46.64900633103989,0 10.166036941442142,46.648937985541785,0 10.165969636913417,46.64882696441683,0 10.165980189289145,46.64870068142874,0 10.165994416701748,46.64864716022803,0 10.166042693999987,46.64861832088762,0 10.166281220771495,46.64852227323273,0 10.166310097317359,46.6484654870322,0 10.166366572027833,46.64843135167259,0 10.166412349501687,46.64835303417927,0 10.166473272039593,46.64832316318633,0 10.166507699016778,46.648292469976646,0 10.166693664352085,46.64826615953961,0 10.166818532562072,46.648203430791355,0 10.166910995609777,46.64812763691679,0 10.166982412955596,46.64809605719145,0 10.167178431429761,46.64805930605035,0 10.167269157084982,46.64801196496996,0 10.167469448825171,46.64799696580874,0 10.167512725049153,46.64795294722797,0 10.167560972450945,46.64786072854449,0 10.167638030275146,46.64773139431663,0 10.167685588138147,46.647646477003015,0 10.167744579341422,46.64762029412035,0 10.16775501852177,46.647575605440515,0 10.167781320373289,46.64755166305598,0 10.167789121361059,46.64747571209461,0 10.167858239679713,46.6474405444513,0 10.167921409924105,46.647308628887274,0 10.168020671760369,46.64728366599134,0 10.16808785015787,46.64723106065279,0 10.168136713452688,46.647213862293235,0 10.168212400657886,46.64712025694776,0 10.168278882279564,46.64702250252522,0 10.168312939590917,46.646984532576674,0 10.168504411730323,46.64689980702087,0 10.168582350527444,46.64680768202306,0 10.168547986599098,46.64673492749292,0 10.168501749836024,46.64667848463938,0 10.168401265681581,46.64665831031185,0 10.168287822379064,46.646591094097495,0 10.168286539565992,46.64653806313717,0 10.168347081789262,46.64647398269903,0 10.16841465310968,46.64642485099754,0 10.168553820336577,46.64638552065999,0 10.168811760892973,46.64625882227492,0 10.168852952350713,46.64624631654883,0 10.16890848348236,46.64624858430171,0 10.168965184453842,46.646211950829844,0 10.169016472061355,46.64615097142533,0 10.169020556734896,46.646107681068685,0 10.16909503094354,46.646112373958765,0 10.169242961473817,46.64610162752696,0 10.16928476072553,46.64608046857548,0 10.169357651376453,46.64601249206053,0 10.169452337181921,46.64596198955562,0 10.169469504725527,46.64586727434532,0 10.169496626642005,46.64580399482023,0 10.169625436992316,46.64572531847723,0 10.169914978218834,46.645599593905345,0 10.170008935095536,46.64553568426979,0 10.17002342568034,46.64549142435498,0 10.169960440240935,46.645341761846204,0 10.169852587301204,46.64519626351779,0 10.169815688748049,46.645148917058414,0 10.169817548945874,46.645123676855825,0 10.169842129258521,46.64509285256616,0 10.16983968274949,46.64503436120811,0 10.169890048741209,46.644934530295856,0 10.169958723501683,46.64486593457844,0 10.170005639317711,46.644780583821365,0 10.170013505581386,46.64466737491769,0 10.170066479058331,46.644598435936025,0 10.170182920524827,46.64456468776026,0 10.17031085403136,46.64446875461768,0 10.170604798789556,46.64445090352322,0 10.17075667259644,46.644414864793916,0 10.170819225382605,46.64434929490023,0 10.170875537044383,46.644183373905456,0 10.170930950563118,46.64410069830495,0 10.171025122312734,46.64404012848226,0 10.171062720692465,46.643977316968275,0 10.171153266747028,46.643588703011005,0 10.171731905241726,46.64333808496438,0 10.171782968665116,46.643272790344085,0 10.171786759869944,46.64322374787299,0 10.171667884445105,46.643016480329415,0 10.171686258959273,46.64296636791766,0 10.1716110600703,46.642888935312286,0 10.171572793442111,46.642773234252545,0 10.17159004349291,46.64263892350624,0 10.171536576591823,46.642503697138,0 10.171531679081962,46.64236559880457,0 10.171584895697737,46.64221890667344,0 10.171645427114461,46.642028696487905,0 10.171708074215902,46.64194440700838,0 10.171758965353787,46.64189639344045,0 10.171790973025312,46.64188842628732,0 10.171879053140525,46.64189351044851,0 10.171986926454633,46.64187652309344,0 10.172120421451126,46.6418286857325,0 10.172437120010368,46.641764931089476,0 10.17265327976037,46.64169783098957,0 10.172927663409881,46.641562383850406,0 10.173000103136244,46.641487271059546,0 10.1730047188224,46.64143388946901,0 10.173075147844754,46.641296861361454,0 10.173130564851181,46.64129697008757,0 10.173274764494913,46.641336698917,0 10.173339058271337,46.6413056396405,0 10.173489853893704,46.64122787015936,0 10.173564589690226,46.64119655990646,0 10.173651237074472,46.64115272558506,0 10.173682636905879,46.64109834959109,0 10.173739402061264,46.641063151703314,0 10.174021404500126,46.64097503044423,0 10.174144404882677,46.64090584647661,0 10.174245257280418,46.64089478461429,0 10.17470649936707,46.640733246448576,0 10.174726825151417,46.64070108341549,0 10.174719684571858,46.64065625009718,0 10.174622098999016,46.640587327681075,0 10.174572996785564,46.640484845636436,0 10.174612803304296,46.64042279405736,0 10.17460934293813,46.64035448902747,0 10.174635460434008,46.64031282844056,0 10.174673586203337,46.640301833922045,0 10.17474585523268,46.640304416287115,0 10.174844205217704,46.64032652830196,0 10.174860439234939,46.64037868903762,0 10.175062834388239,46.640432134253594,0 10.175397347261582,46.640493201294404,0 10.175586023429908,46.64060285717084,0 10.175618553456054,46.64068774034842,0 10.175606679796148,46.64076289289215,0 10.17569432168965,46.64099716559983,0 10.175696338423387,46.641057586711014,0 10.175713896659541,46.641094598127985,0 10.175799001535518,46.641123506665195,0 10.175925232298985,46.64115934494997,0 10.175972672420796,46.641187719202065,0 10.176112150260591,46.64121675990246,0 10.176235090195231,46.64122892110724,0 10.17648975921551,46.64119976088497,0 10.176679632728337,46.64109504147091,0 10.176804765433662,46.640985490200784,0 10.177003151879298,46.64089793274143,0 10.177183775709178,46.6408518351869,0 10.177351242606143,46.64066999716786,0 10.177368060816933,46.64054664155133,0 10.177367004324674,46.64029902945372,0 10.177324429283578,46.6402366930769,0 10.177113103142966,46.640069006333654,0 10.177001055600247,46.64002418969637,0 10.17698626490795,46.63997991315579,0 10.177064392331443,46.63985061575474,0 10.177242489517004,46.63960700374358,0 10.17722226920288,46.6395175056069,0 10.177224701945985,46.6393593059275,0 10.17720769011955,46.63933307972872,0 10.17725759974871,46.639224617518025,0 10.17731862338261,46.63921163145346,0 10.177459081397226,46.639260083441144,0 10.17755744060767,46.63924115995848,0 10.177764478021032,46.639180028282006,0 10.177879397985398,46.639157826475156,0 10.1779052935746,46.63911185114925,0 10.177915585810402,46.6390468145922,0 10.177943059917455,46.63897206582814,0 10.178017640279167,46.63887596738303,0 10.17816156431682,46.638827871649276,0 10.178446972797582,46.638580564222295,0 10.178457975473178,46.638522808379335,0 10.178571407547565,46.6384300937054,0 10.178590863956307,46.63833964080029,0 10.178658538912151,46.638313536116804,0 10.178702904679684,46.63832254655291,0 10.178831259867781,46.63825610783382,0 10.179007322890433,46.63824395110881,0 10.179117443610114,46.63820962561536,0 10.179152698635155,46.638162704704875,0 10.179194173406337,46.63815594729666,0 10.179330097402833,46.638156274382766,0 10.179529738041257,46.638134910670956,0 10.179632731453824,46.63810435558644,0 10.179844609697923,46.63807693767385,0 10.1799081213022,46.63807180893253,0 10.180089943732497,46.63811134295388,0 10.180146438934917,46.63809270541897,0 10.180165110159308,46.63806921968641,0 10.180273798390122,46.63804788534959,0 10.180381274160311,46.63804385709852,0 10.180478366977683,46.63802064223112,0 10.180620278868673,46.6379329984707,0 10.180998647472938,46.63779601992129,0 10.181182616268082,46.63771312125695,0 10.181270654033177,46.63771747922199,0 10.181386635514027,46.63767509158513,0 10.181472686595432,46.63761974731251,0 10.181618574993598,46.637548560378626,0 10.181722004321866,46.63752663144073,0 10.181924169844365,46.637616783715416,0 10.181850301251632,46.63779619369274,0 10.181859414711989,46.63785212456476,0 10.181878151497646,46.6378711097676,0 10.1820674579762,46.637852150213874,0 10.182246965188808,46.63782550786453,0 10.182300771450109,46.637793976184,0 10.182320275411092,46.637828060258826,0 10.182263680347559,46.637887014526484,0 10.181887944869542,46.63825572975815,0 10.181758637293347,46.638344511182765,0 10.181453925060536,46.63845109404072,0 10.181308096917233,46.63854640554248,0 10.18127332568176,46.63866458336233,0 10.181322687121947,46.63895137195721,0 10.18127737899473,46.63908852043629,0 10.181197664106822,46.63935987442462,0 10.181191617142591,46.63956605701245,0 10.181158005986877,46.63964533340941,0 10.181129455018146,46.63970073190675,0 10.181147659249065,46.639832750876735,0 10.181090138485043,46.63995589348007,0 10.181045391227627,46.64002176041013,0 10.180896199595557,46.640125755661614,0 10.180828216411006,46.64022817607086,0 10.180972245992274,46.64046233379202,0 10.180819282388441,46.64057958367463,0 10.18080066160642,46.640624664606094,0 10.180803005055306,46.64073258980308,0 10.180782113269911,46.640774126029214,0 10.180787998434587,46.6408488515273,0 10.180825509771863,46.64088754126478,0 10.18091720060772,46.6411140840037,0 10.180896025310284,46.641162456440554,0 10.180838392786503,46.641216056946774,0 10.180817931433456,46.641300728861694,0 10.18073808649951,46.641374044400976,0 10.18059722545853,46.64146481275262,0 10.180515574125723,46.6416244817921,0 10.180531719140813,46.641660246158764,0 10.180493951798992,46.64176984252318,0 10.180501849001374,46.64216923643006,0 10.180540729382695,46.642252646630105,0 10.180573555645669,46.642320051810316,0 10.180562940591589,46.642385306446386,0 10.180566420199872,46.642484319488545,0 10.18055187043852,46.6425635211423,0 10.180446433223716,46.64263845886437,0 10.180391511923366,46.64268453500741,0 10.180306778279006,46.64278354125111,0 10.180151017220968,46.64291622453095,0 10.18015247339071,46.64309733416137,0 10.180126179593813,46.64318678449663,0 10.180089718980883,46.64326118586687,0 10.180049659593193,46.643295182760106,0 10.179887833665335,46.64336940600761,0 10.179692030894222,46.64356698609632,0 10.179728380450834,46.64364283104473,0 10.179873403353987,46.643849723066594,0 10.179891636809845,46.643934528603175,0 10.180040390419096,46.64415151721737,0 10.180052563495789,46.644226356752434,0 10.180021906889412,46.64429315945571,0 10.179893174747383,46.64444010921922,0 10.179734531265805,46.64453037163644,0 10.179636380393625,46.64457855366244,0 10.179558540117533,46.644630508801995,0 10.179405248623178,46.644720509130664,0 10.179381725563383,46.644775418802375,0 10.179393147894242,46.644878502810194,0 10.1795223931469,46.645016044945535,0 10.179571876689781,46.64510737351165,0 10.179560773715302,46.645163049756256,0 10.17950948075022,46.645219693518904,0 10.179395683273754,46.64538652864018,0 10.179269423694024,46.645490795812464,0 10.179003573793947,46.64561353276408,0 10.178851378938603,46.645755718124725,0 10.17877924035098,46.64588958325342,0 10.178648867089924,46.646090947028476,0 10.178381389334021,46.64634033048971,0 10.178316775701436,46.64640901526507,0 10.17823418618642,46.646458952554674,0 10.178000536991725,46.646576654936176,0 10.177547997651711,46.6466866386049,0 10.177445311375894,46.646737058730615,0 10.177360816390843,46.646810483375084,0 10.177210066964804,46.64688976383439,0 10.177111516542256,46.646991230848165,0 10.177120506270684,46.64704642351148,0 10.177162012395796,46.64710189963358,0 10.177168018651702,46.64715929513072,0 10.17714524775247,46.64722910390543,0 10.177144893574926,46.647344192401555,0 10.177077910768324,46.64749370213764,0 10.177061793461661,46.64763367748573,0 10.17709235584239,46.64774802235933,0 10.177114791932459,46.64782420274534,0 10.177184339832472,46.64788326666391,0 10.177307215788703,46.64791343691841,0 10.177580526476286,46.64793137043823,0 10.1780781530949,46.648038741025985,0 10.178392141268937,46.648077766687415,0 10.178522532814268,46.64808528464099,0 10.178782708505958,46.648149350358366,0 10.178951517318975,46.64821241777959,0 10.179210799644677,46.648325444749354,0 10.179310588798577,46.648356444216226,0 10.179661902706535,46.64842375146768,0 10.180013551442283,46.648587343396,0 10.180256299493275,46.648660521338925,0 10.180788042312946,46.64895967370307,0 10.180926472281756,46.64905247053944,0 10.181111311125012,46.6491356344808,0 10.181321217929932,46.64921448923938,0 10.181570426274453,46.64936816092672,0 10.181682957673264,46.64953999454242,0 10.181842640482351,46.64965508902022,0 10.182000996995532,46.6498325134076,0 10.18213593016147,46.64994696787915,0 10.182426652466155,46.65012570694615,0 10.182736558867882,46.65027847429343,0 10.183245131153866,46.6504592930679,0 10.183415907790328,46.650551384953225,0 10.183663615427808,46.65069857117275,0 10.183810275026351,46.650720290160855,0 10.184220119478669,46.65101358409763,0 10.184476440816853,46.65117153003029,0 10.184575263223342,46.65120662166937,0 10.184675852232193,46.65120663988875,0 10.184774661795048,46.651171670199474,0 10.184807921649062,46.65117412675032,0 10.18486304391038,46.6513039589529,0 10.184960201630705,46.65139937588816,0 10.185277860666194,46.651600623939345,0 10.185650695005997,46.65178796522385,0 10.185753919302298,46.65184393954684,0 10.185897906445017,46.6518828284927,0 10.185956879927634,46.65187896161497,0 10.186143425472238,46.651823951206204,0 10.186640564790418,46.65189586564121,0 10.186844195628753,46.65189335830928,0 10.187014400056057,46.65184281422169,0 10.187048695855683,46.65186561185597,0 10.187138703013826,46.65198319571953,0 10.187224422118103,46.65203978280308,0 10.187390804750748,46.65205606002757,0 10.187551029045508,46.65211166300879,0 10.187750253204317,46.65225919652335,0 10.187937901375529,46.65232611984759,0 10.188051720804628,46.65235351444058,0 10.188183250142236,46.65235685592444,0 10.188228391535436,46.65238346465555,0 10.188249789166267,46.65243182814195,0 10.18825297972343,46.65249448066253,0 10.188307929195112,46.65255009137767,0 10.188613118194992,46.6527333541028,0 10.188709298591064,46.65284088793774,0 10.18876851997415,46.65288833785614,0 10.188842629694703,46.65294927755531,0 10.188885323502841,46.653020752026656,0 10.188968619275599,46.65309939252718,0 10.189106425306901,46.65315465989904,0 10.189187981935033,46.6531526899303,0 10.189315055450159,46.653138215011055,0 10.189366916838416,46.65315732897881,0 10.189374775040807,46.65319542864434,0 10.189347359791261,46.65326126449315,0 10.189369795013787,46.653329969481355,0 10.189410251395119,46.653357505637494,0 10.189507131540147,46.65340078684627,0 10.189597355775014,46.653429564657124,0 10.18972764327939,46.65345493049035,0</coordinates></LineString></Placemark></Document></kml>