<kml xmlns="http://www.opengis.net/kml/2.2" xmlns:gx="http://www.google.com/kml/ext/2.2" xmlns:xsi="http://www.w3.org/2001/XMLSchema-instance" xsi:schemaLocation="http://www.opengis.net/kml/2.2 https://developers.google.com/kml/schema/kml22gx.xsd"><Document><name>Dessin</name><Placemark id="drawing_feature_1745772430457"><name></name><description>11 Alp la Schera</description><Style><LineStyle><color>ff0000ff</color><width>3</width></LineStyle></Style><ExtendedData><Data name="type"><value>linepolygon</value></Data></ExtendedData><LineString><coordinates>10.189734779926408,46.653454853292274,0 10.189614319943493,46.65344063623676,0 10.18940950397364,46.65335780690152,0 10.18936062348009,46.6533140286955,0 10.189367056625942,46.65319612340948,0 10.189362388021893,46.65315640992272,0 10.189322827547958,46.653139368599795,0 10.189118701192092,46.65315581733008,0 10.189017647052138,46.653122264215746,0 10.188924938280767,46.65306718251441,0 10.188831656916342,46.65293985719888,0 10.18875389315285,46.65289134376815,0 10.188656342398978,46.652782838285205,0 10.188596224877525,46.652721040197605,0 10.188296715858078,46.65254830314748,0 10.188248032433517,46.652485385843285,0 10.188237555081894,46.6524028527378,0 10.18818925663412,46.65235794673995,0 10.18804360400816,46.652352105205225,0 10.18793280327786,46.65233246422562,0 10.187716994978564,46.6522426505313,0 10.187654210175767,46.65219083108888,0 10.187555250007287,46.65211619308222,0 10.187398497390575,46.65205662776052,0 10.187206085563142,46.65203607660944,0 10.187141459039044,46.65198628670169,0 10.187080648333431,46.65192152567647,0 10.18704094590159,46.651860574347,0 10.187019179012953,46.651843822678345,0 10.186833560845962,46.65189509481716,0 10.186724421554327,46.65189835826192,0 10.18657228422363,46.65188835211971,0 10.186198934541556,46.65182609340221,0 10.186148655672584,46.65182442711483,0 10.185946691748745,46.651883290977544,0 10.185833198449993,46.6518723514794,0 10.185741172844832,46.651846405273766,0 10.185467731503888,46.65169246890816,0 10.185191987750594,46.651544149677235,0 10.184929379847588,46.6513769930063,0 10.184845946336605,46.6512943292246,0 10.184810026670304,46.65118433426162,0 10.184789414846861,46.651169713947255,0 10.184757476806512,46.65117912274181,0 10.184709705722627,46.65120619042359,0 10.184592987070682,46.651214044359634,0 10.184515611273907,46.65119359406474,0 10.18423048956237,46.65101546073437,0 10.183924117326944,46.650803478407184,0 10.183797425426299,46.650717987868006,0 10.183687600877576,46.65069687957947,0 10.183632560743508,46.650683808903615,0 10.183334889873342,46.650502170623525,0 10.182768801699979,46.65028905316701,0 10.182619296650653,46.6502211924971,0 10.182329271658189,46.65006980829922,0 10.18214223481099,46.64994905640031,0 10.182040262750615,46.64987664606755,0 10.18192459130328,46.64973289228934,0 10.181812913315785,46.64963408015292,0 10.181676535817536,46.64954306172348,0 10.18156296642851,46.64936582832111,0 10.181495623523553,46.649306956354756,0 10.181181476394634,46.64915399084284,0 10.181005464908527,46.64909762788864,0 10.180839665028786,46.64900371779285,0 10.18052328873611,46.648799489272,0 10.180245203427255,46.648656451015185,0 10.179985354420412,46.64858424097274,0 10.179666465619395,46.648424958586354,0 10.179280031635624,46.64835147494193,0 10.179135161811159,46.64828967230198,0 10.178953788961984,46.64821845055991,0 10.178972996250026,46.648025783632825,0 10.179002776254388,46.647945553945995,0 10.179065697992286,46.64789057392257,0 10.179529397094207,46.647610713448685,0 10.179927776921431,46.64749556248883,0 10.180103882307028,46.64743556152882,0 10.180310086366768,46.647378045410946,0 10.180915470027115,46.6471921356568,0 10.180997191565643,46.64715417351017,0 10.181274597906915,46.6469545645221,0 10.18154951015649,46.646768363715054,0 10.181630412269419,46.646693707035624,0 10.181960827042092,46.64654968960351,0 10.182249978755445,46.64641674366715,0 10.182403440150836,46.64628850676816,0 10.18283240921483,46.64608812071939,0 10.182985725870566,46.64605994945994,0 10.18326075369546,46.64587551012696,0 10.183339820251632,46.6458636801253,0 10.183388469971165,46.6458128357284,0 10.183666622822642,46.64566935302859,0 10.183780092230167,46.645618385430254,0 10.184069565044846,46.64542213460916,0 10.184291285156043,46.64527929119789,0 10.184399458613658,46.64522701084377,0 10.184437533382601,46.64519441800289,0 10.184497303138123,46.64513610613162,0 10.184598479044542,46.64506959681028,0 10.184798533720695,46.64499422356896,0 10.184881476308203,46.64495982842211,0 10.18499867703219,46.64494116404984,0 10.185077572314379,46.64488886936281,0 10.185201961201003,46.64480596224781,0 10.18530401330533,46.64475670822473,0 10.185471826857826,46.64462308145559,0 10.185632727972026,46.64453857298133,0 10.185723954149053,46.64446150450309,0 10.185945020474998,46.64436762519638,0 10.186163834585768,46.644250043776395,0 10.186441253754689,46.64415408362327,0 10.186639357180594,46.6441226667107,0 10.186828703717707,46.64408354216403,0 10.187021582452175,46.64409328381647,0 10.187093171817244,46.64411387187373,0 10.187443553717806,46.644116211082235,0 10.187490709615792,46.64413882857055,0 10.187530410819845,46.64419904911754,0 10.187527602621573,46.64428766211637,0 10.187413226735655,46.64458773380126,0 10.187378805487386,46.64465671068313,0 10.187364812065182,46.64489532861524,0 10.187379517401222,46.64499935608346,0 10.187383155192391,46.64513244596728,0 10.187415484623504,46.645262947543976,0 10.18749718889398,46.64538911345739,0 10.18754269671674,46.64542040929771,0 10.187604650065293,46.645569368286594,0 10.187621660202545,46.64566966264412,0 10.187745906624285,46.645809918676285,0 10.187847917765337,46.64605156008865,0 10.187856229367753,46.64617373888575,0 10.187878048013898,46.64621208552915,0 10.187999117116128,46.64632374185407,0 10.188170930791342,46.646412457361194,0 10.188505103697294,46.646650585728835,0 10.188590450518227,46.646723429299016,0 10.188709427583479,46.646801182158406,0 10.188776629313699,46.64684779091795,0 10.188818053928232,46.6468604680574,0 10.188946543050333,46.6468580842689,0 10.189129943411757,46.646804702122736,0 10.189271609016513,46.64667098152734,0 10.18943692507592,46.6464377608387,0 10.189534838327665,46.646266223399145,0 10.189702603237542,46.64592155138955,0 10.18992759347076,46.645535298174,0 10.189972665657177,46.645443411197085,0 10.190115535101839,46.645292383170016,0 10.190283246533909,46.645177468442505,0 10.1908993185105,46.64476354096603,0 10.191109645919003,46.64459757176741,0 10.191249249335113,46.6445056513393,0 10.191369304757172,46.64446099562172,0 10.191586146202273,46.64428442098867,0 10.191709873476213,46.644167839388,0 10.191754868525534,46.6441480344541,0 10.191791930571332,46.644116183357134,0 10.191856822233134,46.64411749363922,0 10.192086415115257,46.6440680285476,0 10.192200330970747,46.644005523369586,0 10.192224953514105,46.64399628922394,0 10.192255108514113,46.64397252380893,0 10.192388682987174,46.64394697673098,0 10.192525606706885,46.64383572478102,0 10.192695325299992,46.64376035116628,0 10.192759519931805,46.64374800005929,0 10.192806236136306,46.64372095424347,0 10.192894504649674,46.64372961712091,0 10.193090715037853,46.6436816773891,0 10.193158372300715,46.64367572119488,0 10.193268805846008,46.643626976904265,0 10.193411080597043,46.64358754038621,0 10.193612015018058,46.6435092503719,0 10.193975578334797,46.64338204132228,0 10.194125836436127,46.64329417859609,0 10.194301669866125,46.64321577498116,0 10.194430054191766,46.643150037722044,0 10.194594566554452,46.643095663759524,0 10.194697634297963,46.64306653312698,0 10.194819571828127,46.643038385336084,0 10.195043315542238,46.64301785095641,0 10.195103078227321,46.64304159992258,0 10.195124056659504,46.64306340833182,0</coordinates></LineString></Placemark></Document></kml>