<kml xmlns="http://www.opengis.net/kml/2.2" xmlns:gx="http://www.google.com/kml/ext/2.2" xmlns:xsi="http://www.w3.org/2001/XMLSchema-instance" xsi:schemaLocation="http://www.opengis.net/kml/2.2 https://developers.google.com/kml/schema/kml22gx.xsd"><Document><name>Dessin</name><Placemark id="drawing_feature_1745773349484"><name></name><description>12 Grimmels</description><Style><LineStyle><color>ff0000ff</color><width>3</width></LineStyle></Style><ExtendedData><Data name="type"><value>linepolygon</value></Data></ExtendedData><LineString><coordinates>10.167143478992301,46.67969131514826,0 10.167739903544957,46.67958920537778,0 10.16819035927177,46.67957985373585,0 10.168620633098898,46.67956450506871,0 10.16898224951837,46.679598311708105,0 10.16936091412662,46.679655590719996,0 10.169654020349189,46.67974142829935,0 10.170109842236037,46.679796728882145,0 10.170440870101428,46.6798507112331,0 10.170742915369878,46.6798650644674,0 10.170817335823447,46.67986074394794,0 10.171027937089058,46.6798254585419,0 10.171563354101073,46.67979965852869,0 10.171622450588956,46.6798086851259,0 10.171797030919228,46.67986784577049,0 10.172020058967199,46.679892009763236,0 10.172459165011901,46.6799477021399,0 10.17275086176402,46.679941632200375,0 10.17281048684591,46.67992076477275,0 10.172864645595782,46.67985395664064,0 10.1728967819076,46.679805382657094,0 10.173001427041427,46.67974384162448,0 10.173162341336823,46.679719103134424,0 10.173398930658777,46.67970118638811,0 10.17352977216356,46.67964045575898,0 10.173631758752961,46.679586667810845,0 10.173932796547357,46.6794779385307,0 10.173995568246939,46.679415962138314,0 10.174106604543383,46.67931019021262,0 10.174340701753014,46.67916059458069,0 10.174895453483385,46.67887659986574,0 10.175209533818125,46.678732835582814,0 10.175420795694544,46.678669451016894,0 10.175783049191411,46.6784476657243,0 10.176019405691026,46.67832429284166,0 10.176196750983452,46.678190454247385,0 10.176507214655695,46.67802030211532,0 10.176584081952681,46.67794419891632,0 10.176647093605656,46.67792828706461,0 10.176799641302377,46.67790374434306,0 10.176941507669808,46.677854262601315,0 10.177288456347055,46.67767867931706,0 10.177355870039301,46.67752136139624,0 10.177407748501588,46.67745100635765,0 10.177532904292313,46.677360892746115,0 10.177681996695734,46.67728892019328,0 10.17778069032713,46.67723399645594,0 10.178100396062753,46.677163679998586,0 10.17838804637498,46.6770595795537,0 10.178537086814647,46.676966010853796,0 10.178790448980187,46.67672235845039,0 10.178894825799151,46.676655779049604,0 10.179041481037448,46.67658391571928,0 10.179338697167159,46.676297454378584,0 10.179402855072663,46.67622176377091,0 10.179979580965876,46.67581924481904,0 10.180108172394124,46.675632159428105,0 10.18052104667706,46.67525436670182,0 10.180815354159696,46.67495213386255,0 10.180954249955604,46.674844408432605,0 10.18122512040189,46.674678075179635,0 10.181840457031036,46.67433211634998,0 10.18214723686148,46.67415379841344,0 10.182242719056019,46.67405647522,0 10.182363046543092,46.6738792349141,0 10.182528874312936,46.673704630099294,0 10.182644728618904,46.673597779251985,0 10.182894846269463,46.673496730451205,0 10.183185900612147,46.67335726126143,0 10.183374694021872,46.673305200616575,0 10.183485766399988,46.673247093827435,0 10.183632786426111,46.67317588279405,0 10.183872854235705,46.67308299257834,0 10.184066838602817,46.67298905285236,0 10.184264802993273,46.67287054106736,0 10.184353926393868,46.6727966256586,0 10.184581176601034,46.672719160223295,0 10.184716318778708,46.67262015887126,0 10.184886211957703,46.6725462351007,0 10.185068914836787,46.6724979178081,0 10.185196717235986,46.67246028230848,0 10.185570915249441,46.67241310586588,0 10.185789071650294,46.67232145969091,0 10.185966865216367,46.67221782871717,0 10.186039729979669,46.67219015577441,0 10.186318700463653,46.67214239402045,0 10.186468389096737,46.672082632839086,0 10.186575831691936,46.67195334261948,0 10.186800234324728,46.67173697360289,0 10.18701732180358,46.671511548027425,0 10.187247448837692,46.67130586944187,0 10.187390628402241,46.671221068310764,0 10.187648395918453,46.6711039241985,0 10.187987956444077,46.67090562844588,0 10.188081017911644,46.670840205820205,0 10.188162987150978,46.670617109734046,0 10.188218327043115,46.67043975808909,0 10.188455711523972,46.67023396891703,0 10.188727869618058,46.669854804059675,0 10.188783719018582,46.66971973212735,0 10.188985200571443,46.669500067411725,0 10.189078470066136,46.66938897898201,0 10.189093969403176,46.66927278114337,0 10.189134375168429,46.66913492311396,0 10.189254860686434,46.66897723126169,0 10.189286025368984,46.668888349938975,0 10.189260962890307,46.66872680217045,0 10.189328039387306,46.66827282202177,0 10.189327813207798,46.667804178430934,0 10.189349283587555,46.6676867449857,0 10.189298274652147,46.667376306145954,0 10.189287120771077,46.66720903863331,0 10.18933060824447,46.6670416236371,0 10.189329591490882,46.666961624643974,0 10.189252254552592,46.666859172770316,0 10.189106581436702,46.666762661160966,0 10.188996724984843,46.666648437442866,0 10.188870515427805,46.66653431733426,0 10.188796527628188,46.66646345087531,0 10.188744202857189,46.66633730833684,0 10.188723362697163,46.66613070616351,0 10.188743767520004,46.66602070760022,0 10.188738752787714,46.66599307425161,0 10.188475458490867,46.66583457911569,0 10.188274930175353,46.66561725143674,0 10.188246248772568,46.66556754197599,0 10.188168157083489,46.665492400166,0 10.188025262288736,46.665336036672734,0 10.187953017201613,46.665272991585404,0 10.187894679967513,46.665130564082396,0 10.187837909552512,46.66496060341207,0 10.1877477150476,46.6648716902593,0 10.187637850016403,46.66470661043097,0 10.187598066647665,46.664603188317656,0 10.187229211211823,46.66423656929619,0 10.187061098567412,46.66415999985724,0 10.186986634514096,46.66415603770272,0 10.186748045241286,46.6641949091386,0 10.186516555055634,46.66414722348533,0 10.186262049388281,46.66405833967801,0 10.186162440408394,46.664053543885665,0 10.185925920281212,46.66411252019417,0 10.18583215654996,46.6641198210673,0 10.185491000720564,46.664103072881765,0 10.18481548867192,46.6641064047788,0 10.184499255502262,46.66409747203157,0 10.184122068142685,46.66402305922901,0 10.184037304122299,46.664022222961606,0 10.183905948164528,46.66405130478149,0 10.183697264163687,46.664052862612195,0 10.183253678056383,46.664112504637586,0 10.183012635166289,46.664247170933685,0 10.182827324110415,46.66438769265135,0 10.182782151675537,46.66441488571418,0 10.182743925352051,46.664506511177386,0 10.182674678453038,46.66454345346954,0 10.182548425901194,46.66458102468547,0 10.182450966246773,46.66465967948046,0 10.18236606001605,46.66486185052042,0 10.182381074841496,46.66495147336456,0 10.18239049940518,46.66504178179337,0 10.182368043058199,46.665073277467606,0 10.182205287142668,46.66522549262303,0 10.18214794751705,46.66529094277408,0 10.18202620884144,46.66532410988532,0 10.181927607672973,46.665421508489544,0 10.181777224596134,46.66547435054596,0 10.181666768383016,46.665455352477274,0 10.181588752204918,46.665422677320045,0 10.181444751838441,46.66530592582026,0 10.181380660453879,46.66530027045489,0 10.181284161897947,46.66531555197447,0 10.1812062265602,46.665346223672046,0 10.18113021257217,46.66539412607065,0 10.181022467419062,46.66551822885699,0 10.18091565258659,46.665618703762604,0 10.180865192959466,46.6656343161536,0 10.180851947700656,46.6657030232532,0 10.18073342144422,46.665799460717125,0 10.180675161436563,46.665853179002134,0 10.180342696903752,46.66597662550657,0 10.180249998221294,46.66606739459937,0 10.180110404131,46.66611161819535,0 10.18001568968131,46.66616270710426,0 10.179933482260017,46.66625217409103,0 10.179769430406331,46.66633444409952,0 10.17970582814863,46.66644607930793,0 10.17967254565095,46.66653768814142,0 10.179638377454252,46.66657937395116,0 10.179545212962417,46.666631741034855,0 10.17951292215064,46.66667792197076,0 10.179486436749283,46.666740989888055,0 10.179389980107123,46.66682276781714,0 10.179339935997183,46.666909104368266,0 10.179196800325084,46.66701357219148,0 10.179096266862677,46.66704491943152,0 10.179001288667603,46.66713142993934,0 10.178831053282961,46.6672190310568,0 10.178816190106073,46.667297135130546,0 10.178590656093979,46.66738750592385,0 10.178497875406405,46.66747612275989,0 10.178368466832188,46.66753423711617,0 10.178167334432542,46.667590185988544,0 10.178132839032436,46.66767308135313,0 10.177885541616245,46.66770566428763,0 10.177784557586605,46.667763244573514,0 10.17775057228283,46.667856205835044,0 10.177623031056465,46.66789886595941,0 10.177474743772507,46.668006813497406,0 10.17732193621273,46.66806481112768,0 10.177129877945454,46.66817597019801,0 10.176828034320222,46.668267452099684,0 10.17657149413166,46.66836986234617,0 10.176434865230915,46.66846025124377,0 10.176320793893186,46.66850042644116,0 10.176260648482431,46.66853138684881,0 10.176165223827246,46.66854735789278,0 10.175770455924503,46.668736673885846,0 10.17563833201143,46.66883343236427,0 10.175512949170605,46.6688774778754,0 10.175192551510689,46.66902746816461,0 10.175044134700773,46.66911237948264,0 10.174893955913117,46.66920381180963,0 10.17471580686935,46.669233727369125,0 10.174582739707477,46.66932131974107,0 10.174328058292929,46.6693735086225,0 10.174241670666666,46.669320153134954,0 10.174137421901074,46.669302652715814,0 10.17408910805987,46.669236864762546,0 10.173997290900715,46.66909111342491,0 10.173861612111313,46.668990325372235,0 10.173701788369687,46.66902332762271,0 10.173436880184937,46.66899421794239,0 10.173342568899619,46.66900909390467,0 10.173128115276892,46.668981136867224,0 10.172970752427169,46.66899004127475,0 10.17293149858886,46.66898388950337,0 10.172777979814109,46.66900570388787,0 10.172560104201892,46.6690684741286,0 10.172110237597078,46.669209328402104,0 10.172024594857934,46.66922931319939,0 10.171719208945804,46.66919250036412,0 10.171588648321165,46.66921533868577,0 10.17143329080799,46.6692687244229,0 10.171311718018984,46.66935598145699,0 10.171240564002376,46.669375817690124,0 10.17103022399035,46.66939079775233,0 10.17084204851995,46.669452063920865,0 10.170750769126998,46.66945898273262,0 10.17067087806265,46.669441981501635,0 10.170374239852963,46.66946486050411,0 10.170221993589593,46.669511864115634,0 10.169940636047986,46.66954585683569,0 10.169869589597992,46.66954519572252,0 10.16973480989146,46.66957522709972,0 10.169512410073533,46.66959395914623,0 10.169451471306486,46.66961197287074,0 10.169365871562347,46.66961796615252,0 10.169273020654648,46.66963910952145,0 10.168876130754192,46.66971547916564,0 10.168694048289778,46.66973876081175,0 10.168585101417317,46.66975871292674,0 10.168474264591103,46.66978659249511,0 10.168227282326056,46.669794875945456,0 10.168110555559366,46.66979688479867,0 10.168001926824173,46.669823134515,0 10.16787508695365,46.669963151233006,0 10.167846738161478,46.67008206442218,0 10.167892371566532,46.67027257374346,0 10.167895994064047,46.67034421553299,0 10.167963672314443,46.67048211000422,0 10.16800976281084,46.67065654093299,0 10.16817877462625,46.67105293443981,0 10.168172202117589,46.67117211411785,0 10.168200989155702,46.671270579911514,0 10.168425616910763,46.6714688895066,0 10.168453165224546,46.671517180565935,0 10.168412919308862,46.671590132173975,0 10.168443192334916,46.671609563125344,0 10.168611333122461,46.67174094605668,0 10.168655499592987,46.67180755546615,0 10.168651984717771,46.67184147366887,0 10.168580473818759,46.67185470544387,0 10.168509571312434,46.67185928410309,0 10.16847477469268,46.67187451542175,0 10.168488585293979,46.67189937995586,0 10.16862649503053,46.67195798387623,0 10.16880552677182,46.672043677016006,0 10.168846621355755,46.672123080913934,0 10.168890451177878,46.67216234317302,0 10.168884641719128,46.672295658700364,0 10.168948464682039,46.6724055757817,0 10.168970429409052,46.67252958708815,0 10.168993164538291,46.672606788276504,0 10.169021186778444,46.67266442620484,0 10.168995132172048,46.67274070839075,0 10.168884970861559,46.67300322235359,0 10.168789602054662,46.6730825343267,0 10.168710322837697,46.673167541725725,0 10.16863827041012,46.673321287562054,0 10.168546091206982,46.67344299527212,0 10.16839633790245,46.67351429904336,0 10.168270492215019,46.67352883255663,0 10.16804747688877,46.673628479368375,0 10.168035057303635,46.67365181282297,0 10.168037231215509,46.67375686193933,0 10.168015599138364,46.67380489172197,0 10.167916838671724,46.67387924505313,0 10.16781551048913,46.67398557965592,0 10.167722683360717,46.67411522072656,0 10.167699825712626,46.67424246562156,0 10.167698014553462,46.67428274142849,0 10.167671829466885,46.67430280530885,0 10.16755712125462,46.67433074872889,0 10.167333438583876,46.67447936118215,0 10.167120281265117,46.674598134639744,0 10.166966003271773,46.67469181355232,0 10.166870020018486,46.674779776935594,0 10.16673768401314,46.67503761905387,0 10.166687752432697,46.675131003899466,0 10.166625131664343,46.675216728403726,0 10.16657076976471,46.67532097164014,0 10.166542359658704,46.67534491358221,0 10.166538679541194,46.67541698876002,0 10.166494030497333,46.675485725740494,0 10.166525767006185,46.67572926457023,0 10.166495428147503,46.67581205625724,0 10.166447171646869,46.67587152130597,0 10.16633646624956,46.67591664441065,0 10.166048294056262,46.67611817726407,0 10.165866805971898,46.676211786079236,0 10.165733010038636,46.67644450644089,0 10.1656934556549,46.676551994084555,0 10.165652148688471,46.67660409366797,0 10.165570126199002,46.676657887702966,0 10.165532498664184,46.67672069721529,0 10.165544194776158,46.67681905978055,0 10.165476269029089,46.67706904084845,0 10.165447370283317,46.677188489544754,0 10.165403291045433,46.67724785405959,0 10.165349262514894,46.677296658665064,0 10.165292577454272,46.677458546390575,0 10.165258464153588,46.67757022280117,0 10.165240066019775,46.677740841621535,0 10.165240535877857,46.67783297375118,0 10.165219643181343,46.67793713506465,0 10.165241285540649,46.67799276694041,0 10.165515001169481,46.678192098497995,0 10.165799845023002,46.67843846995704,0 10.165899614022116,46.678508068671526,0 10.165936400313162,46.67860158820144,0 10.166044983063697,46.67872136670036,0 10.166134893500834,46.6788235953643,0 10.166066898522566,46.67882378346366,0 10.166085689061871,46.67886436620811,0 10.166122008977451,46.67894896215322,0 10.166304076241039,46.6790943361855,0 10.166473731679766,46.679283919213525,0 10.166592649663833,46.67943168466845,0 10.16671752803318,46.67948052508845,0 10.16677826346609,46.67952298281222,0 10.167036100289984,46.67965576413694,0</coordinates></LineString></Placemark></Document></kml>