<kml xmlns="http://www.opengis.net/kml/2.2" xmlns:gx="http://www.google.com/kml/ext/2.2" xmlns:xsi="http://www.w3.org/2001/XMLSchema-instance" xsi:schemaLocation="http://www.opengis.net/kml/2.2 https://developers.google.com/kml/schema/kml22gx.xsd"><Document><name>Dessin</name><Placemark id="drawing_feature_1745939967435"><name></name><description>13 Champlönch</description><Style><LineStyle><color>ff0000ff</color><width>3</width></LineStyle></Style><ExtendedData><Data name="type"><value>linepolygon</value></Data></ExtendedData><LineString><coordinates>10.167168370461956,46.67968523270693,0 10.167739652763746,46.6795874483539,0 10.16831139009972,46.67956774395264,0 10.16876457201952,46.67956889935098,0 10.169352237625244,46.67965693789666,0 10.169642873449567,46.67974128106339,0 10.170048356253245,46.67978322246349,0 10.170448139012253,46.67985052941299,0 10.170739156052456,46.679870079721766,0 10.171073810314045,46.679823607765776,0 10.17146206114451,46.679801079457185,0 10.171607301965912,46.67980720698573,0 10.171777767497753,46.67986318986657,0 10.172148858443279,46.67991556050283,0 10.172549098917136,46.67995233803274,0 10.172776959580089,46.67993485544996,0 10.172847898695386,46.67988749803459,0 10.172872459329096,46.67982082911773,0 10.172979038482236,46.67974789568339,0 10.173089440293559,46.67972121702044,0 10.173357594771462,46.67970637045369,0 10.173426686945344,46.67969149606971,0 10.173605005563745,46.679592301269004,0 10.173949775989758,46.67946988680521,0 10.174090039612961,46.67931639046245,0 10.174367480815967,46.67914032471866,0 10.174915726881988,46.67886404160489,0 10.175231003681695,46.67872093809723,0 10.175411932314775,46.67867333984396,0 10.175691231580407,46.67849962894973,0 10.176022483262095,46.67831746027189,0 10.176211033681708,46.67818172005341,0 10.176489923161913,46.67803444876353,0 10.176596788653729,46.67793816753605,0 10.176826848977404,46.67789539351288,0 10.177079719637524,46.67778599096613,0 10.177286607527119,46.67767786717708,0 10.1774078216855,46.677451483970394,0 10.177529245011039,46.67736686638586,0 10.177767368282256,46.67724219790432,0 10.17794806921924,46.67719531319855,0 10.178319887566001,46.677090256219834,0 10.178441209530536,46.677038079112386,0 10.178538824405562,46.67696604745734,0 10.178673077019772,46.67682465193897,0 10.178838398356577,46.6766905213971,0 10.17904249023375,46.67658348896634,0 10.179223742127306,46.67640491868134,0 10.179385162844346,46.676248451256356,0 10.179459307836254,46.67619101034126,0 10.179950914244957,46.675831962813376,0 10.180045501189543,46.67573477220249,0 10.180110935332218,46.67562894986072,0 10.180479936193644,46.675296879307,0 10.180800286999157,46.67496108465548,0 10.180936113818262,46.67485088587384,0 10.181117097651393,46.67473599564278,0 10.181374017545618,46.67460365791016,0 10.181704120608861,46.67442270553995,0 10.18197129264493,46.67425167313559,0 10.182125712772098,46.674163852686846,0 10.182245859026969,46.67405708294331,0 10.182360582167851,46.67387530354979,0 10.182517120733294,46.6737261576148,0 10.182628035266342,46.673603899832756,0 10.182810841524514,46.673525006275035,0 10.182903238441451,46.67348793831733,0 10.183219132631772,46.67334816815855,0 10.18337767172521,46.673307103324106,0 10.183563170354063,46.6732125247501,0 10.184050468082905,46.673001864968136,0 10.18426059526378,46.67287665532957,0 10.184342317531348,46.672801397012,0 10.184429724907568,46.67276925380484,0 10.184582592463725,46.672717302685044,0 10.184664741536197,46.6726504440047,0 10.184831603251565,46.67256712556257,0 10.184957495458344,46.67253645709667,0 10.185256993636454,46.672448339350666,0 10.185553524951645,46.67241671325909,0 10.185733075898522,46.67234759444073,0 10.18594170204013,46.672233141721364,0 10.186008976750578,46.672198404848636,0 10.186207110197794,46.67216555078839,0 10.186353900735787,46.67213105536516,0 10.186459430756772,46.67208747676853,0 10.186524740332185,46.672038195689915,0 10.18658397171188,46.67194822193882,0 10.186695004320006,46.67184835994519,0 10.186862645334308,46.671668665489655,0 10.187125578693806,46.67140799393231,0 10.187364134664717,46.6712367471054,0 10.18753984920181,46.67115404019853,0 10.187656576178824,46.671104431194074,0 10.187789145718792,46.671088049414706,0 10.187930232229144,46.67104433109347,0 10.188326636351913,46.67094045886539,0 10.188597039272523,46.6708684222762,0 10.189281385684026,46.67060570049973,0 10.189833917483085,46.67036343534437,0 10.190000610608525,46.670239419518,0 10.190030470411054,46.67014799354996,0 10.190085990787091,46.67010849893074,0 10.190119533706897,46.6701098482924,0 10.190147961401518,46.67023658012767,0 10.190100674430052,46.67042034626777,0 10.190111781520175,46.67047406887369,0 10.190125161984406,46.670490302836484,0 10.190193164884509,46.67046994336398,0 10.190328639240054,46.67039828230402,0 10.19039140017699,46.670275106610866,0 10.19054988259713,46.670006235767374,0 10.190576185532581,46.669886100440436,0 10.190522902419007,46.669764288486384,0 10.190508880658948,46.669714955600945,0 10.19051038202636,46.669659745338755,0 10.19066673094158,46.66952566992385,0 10.190777622636421,46.669361737806504,0 10.190974823003877,46.66918976518358,0 10.191064323692332,46.6691192140104,0 10.191122792876,46.6690350150564,0 10.191249220711398,46.66882021483044,0 10.191216416174061,46.6684212304574,0 10.191290491244244,46.66827229734945,0 10.19127327919796,46.66816041217455,0 10.19130975277167,46.668096181379305,0 10.191404254897309,46.668021189744,0 10.19150912264289,46.667790075958706,0 10.191553128790183,46.66772998228075,0 10.191669142807529,46.667379476597375,0 10.191781511816968,46.667224146163974,0 10.191860171968283,46.667170198694954,0 10.19197969041169,46.667114038563966,0 10.192023385322722,46.66710938291323,0 10.192051134822025,46.667120230163725,0 10.19209224669255,46.66716746819343,0 10.192074416302784,46.66728955890352,0 10.192013255342449,46.66734142894195,0 10.19197522698996,46.66747768551435,0 10.191982235298989,46.66761694790002,0 10.191933649329354,46.667751300023966,0 10.191953522830298,46.66797686173156,0 10.191947730605246,46.66802978732904,0 10.191903230992864,46.668141724400776,0 10.19191811497207,46.668187436878085,0 10.19200954072733,46.66825721480873,0 10.192152177990149,46.66834663119805,0 10.192187130810439,46.66855607462133,0 10.19215320541025,46.66860872605516,0 10.192091988564567,46.66868003414982,0 10.192091818319087,46.66882854809706,0 10.192028641532852,46.668963972828976,0 10.19203419750818,46.66905238366321,0 10.19191554714811,46.66928098801597,0 10.191888148200317,46.66942058697313,0 10.191829038452841,46.66951272049127,0 10.191719791242166,46.66964208904223,0 10.19171412814309,46.66967462047574,0 10.191728279758294,46.669746986209034,0 10.191893286650137,46.67002878991646,0 10.192065487336375,46.67041225211816,0 10.192076745265235,46.67055091663701,0 10.192201280782037,46.67068798543973,0 10.192213123689083,46.67075608767345,0 10.192317037254133,46.67084500030127,0 10.192542379787055,46.67112870317181,0 10.192570919604972,46.67113449209757,0 10.192579550867089,46.6710781328409,0 10.192578311147285,46.670746298488595,0 10.192557760417609,46.67071070511696,0 10.192560911055445,46.67064943922137,0 10.192580465546476,46.67056114117942,0 10.19254889477582,46.67035241960053,0 10.192544092029902,46.6702613623836,0 10.192548947649373,46.67021301311366,0 10.192598086052886,46.670130478709574,0 10.19265694142875,46.67011537804144,0 10.192764022327175,46.6701228673063,0 10.192938500171795,46.67011864852031,0 10.192988632155132,46.67013759295107,0 10.193038542052392,46.67011119030317,0 10.193112792816638,46.670069801411344,0 10.193215582535258,46.67003420127595,0 10.19331386486559,46.67003326426261,0 10.193397278658278,46.66996645776883,0 10.193768629151828,46.66970657429611,0 10.194068797945349,46.66954165988353,0 10.194134221792824,46.669503651353295,0 10.194203853971711,46.66949476805796,0 10.194341048442517,46.66949792794335,0 10.194614469360094,46.66954674354557,0 10.19467407459164,46.66952586460038,0 10.194738984492373,46.66936304089217,0 10.194841305059027,46.66921586916472,0 10.19493900550344,46.669140405831065,0 10.195072691074243,46.66905438456938,0 10.195264221498585,46.668954005372,0 10.195322920935617,46.66885396115393,0 10.195394253444526,46.66879383829104,0 10.195559974062476,46.66867968561475,0 10.195785117819185,46.66858209134543,0 10.195939414140145,46.66842862115232,0 10.196103532587514,46.66826267507174,0 10.196229900992654,46.66817682948777,0 10.196485371111576,46.6680381861903,0 10.196582967880266,46.66800342846556,0 10.19668331326442,46.667920782153246,0 10.196844477354256,46.667758505797764,0 10.196897854697651,46.667636273235246,0 10.196963150536254,46.66755668640837,0 10.197284664712058,46.66735957114163,0 10.197437078807871,46.66731268677858,0 10.197668676119447,46.66730059812431,0 10.197721185143138,46.66728420865971,0 10.197874611236426,46.66713435611617,0 10.198036672776048,46.667010209880424,0 10.198134225061448,46.66681617130091,0 10.198173645588755,46.66678930050511,0 10.198885209372108,46.66656977195756,0 10.199268242250351,46.666512256738855,0 10.199473423918537,46.66649504551964,0 10.199922610813198,46.6663812135053,0 10.200131985461798,46.66634374269852,0 10.20024813127501,46.6663445260738,0 10.200480996683483,46.66637775335413,0 10.200646449582036,46.66640181671073,0 10.20089749577432,46.66652458756284,0 10.201111680852303,46.666565037873596,0 10.201387681284112,46.66654178624848,0 10.201671466973684,46.66658889351571,0 10.201872851600898,46.66655881213959,0 10.201959612942034,46.666537270435335,0 10.202077706710847,46.666473935075174,0 10.202264509975818,46.6662787091499,0 10.202318162818308,46.66622341610859,0 10.202500681495472,46.666172194865986,0 10.20271808889258,46.66616907869247,0 10.203288303613007,46.66625625495022,0 10.203651205475554,46.6662755210861,0 10.203838309285672,46.666253701580835,0 10.20398003317385,46.66622290519117,0 10.204383525992156,46.666074890377594,0 10.204631736823414,46.665978877476626,0 10.204715127895009,46.66597325294107,0 10.204958551916866,46.666008374350334,0 10.205231277423549,46.66602334662134,0 10.205671621624015,46.666002571339064,0 10.20587014359552,46.66598910968654,0 10.206044619645203,46.66596471383403,0 10.206370207596914,46.66586825669442,0 10.20645097313191,46.66583247972879,0 10.206657600860822,46.66563956850342,0 10.206658392818692,46.665579714015735,0 10.206715334430678,46.66550706159382,0 10.206743405898203,46.665422152937616,0 10.206799388504214,46.66539199696948,0 10.207021401201656,46.665356365765426,0 10.207640390454424,46.665130408619085,0 10.20805935204183,46.66503959505852,0 10.20826716812812,46.665033101984534,0 10.208591530363368,46.66504354956539,0 10.20921602266152,46.66502404084933,0 10.20946385385285,46.66498201762486,0 10.209688023221089,46.66488657821692,0 10.209972977925146,46.66477310194252,0 10.210102549901576,46.66470947872057,0 10.210317292817031,46.66465458092958,0 10.21039573994071,46.6645627893303,0</coordinates></LineString></Placemark></Document></kml>