<kml xmlns="http://www.opengis.net/kml/2.2" xmlns:gx="http://www.google.com/kml/ext/2.2" xmlns:xsi="http://www.w3.org/2001/XMLSchema-instance" xsi:schemaLocation="http://www.opengis.net/kml/2.2 https://developers.google.com/kml/schema/kml22gx.xsd"><Document><name>Dessin</name><Placemark id="drawing_feature_1746004817832"><name></name><description>14 Punt la Drossa – Il Fuorn</description><Style><LineStyle><color>ff0000ff</color><width>3</width></LineStyle></Style><ExtendedData><Data name="type"><value>linepolygon</value></Data></ExtendedData><LineString><coordinates>10.189974141219185,46.654174549139825,0 10.189972728937015,46.65422026920228,0 10.1900712195461,46.65432659128678,0 10.190245957483715,46.65444947979279,0 10.190307598849236,46.654591966283036,0 10.1903674527753,46.65495981828164,0 10.190315558000439,46.65500858434138,0 10.190306212189695,46.655071439707434,0 10.190308876745895,46.65511874452038,0 10.190286465515257,46.655191993892544,0 10.190297624836916,46.655226278457825,0 10.190335721069562,46.65525559285225,0 10.190384481857516,46.655330001957275,0 10.190455360589015,46.65536644277501,0 10.190486558976547,46.65542750365479,0 10.190470671342183,46.655505634581885,0 10.190497443164887,46.65560001176753,0 10.190594196448481,46.65569269775758,0 10.190671377135516,46.65577664925363,0 10.19068101589737,46.65580161210474,0 10.19080703424887,46.65587343405303,0 10.19093418880078,46.65588547837878,0 10.190984490057744,46.65590801867394,0 10.190996401231361,46.65593652597793,0 10.191046494651594,46.655971434568464,0 10.191080615547913,46.656025320770546,0 10.191163132636214,46.65614642574665,0 10.191198664813054,46.65620747654956,0 10.19124739107142,46.6562811662801,0 10.191302002668632,46.65629941695891,0 10.191374880996593,46.65635452583378,0 10.191365775212013,46.65648360443493,0 10.191392621258744,46.6564973530906,0 10.191488360631306,46.656614474698785,0 10.191515665366202,46.656657727305124,0 10.19159393225081,46.65673646182533,0 10.191635053855817,46.65676354303901,0 10.19174945649527,46.65677157551508,0 10.191804449438116,46.65676304720069,0 10.191810624435293,46.65674058164254,0 10.191977032942637,46.656743037279995,0 10.192116172929078,46.65670295915823,0 10.192125701386328,46.656684731710634,0 10.192228852003925,46.65667719845347,0 10.192299971563422,46.65669779505459,0 10.192337867580525,46.65670263773132,0 10.192428521964217,46.65673715945655,0 10.192603233815904,46.656799883328546,0 10.192772650272074,46.656861295271625,0 10.192935203137065,46.656939328381576,0 10.19304847462337,46.65704817016579,0 10.193097424256491,46.65712617304754,0 10.19320026660656,46.65717407715561,0 10.193228965023096,46.65720361795963,0 10.193356136209793,46.657244192404896,0 10.193479466116546,46.65728368197893,0 10.193683557325699,46.6573687297198,0 10.193703112306439,46.65740353079194,0 10.193807072136353,46.65754288992054,0 10.193896906902342,46.65762278282117,0 10.194034579848138,46.65770804518646,0 10.194237727587762,46.65789749753652,0 10.194311268779353,46.65792451323699,0 10.194407733686292,46.6579293777614,0 10.194432565418479,46.65794461427337,0 10.194449591468032,46.657970837840914,0 10.194518587742971,46.65799076460062,0 10.194604796655332,46.65801227719791,0 10.194611874376303,46.65806897648275,0 10.194697422980179,46.65814681292915,0 10.194827169931733,46.65818902532211,0 10.19488051517239,46.65818917398802,0 10.195131666028146,46.65836220812691,0 10.195269860290475,46.65838549867422,0 10.195478474485961,46.658558979256874,0 10.195486023076127,46.65862481228803,0 10.195516922817191,46.658656458916006,0 10.195550702850756,46.65872402986323,0 10.195618736869502,46.65882748547959,0 10.195659311322263,46.65884378035244,0 10.195776040154994,46.65892807611364,0 10.195835775389655,46.65905332897838,0 10.195833910479964,46.65909872660849,0 10.195888371991803,46.659243580583606,0 10.195996700734966,46.659296388575655,0 10.196040119628517,46.659347888684536,0 10.196176517773042,46.65952023710981,0 10.196207087823353,46.659545412611,0 10.19622521534533,46.65967507492189,0 10.196247849255181,46.65968820459224,0 10.196374006172253,46.65970098714467,0 10.196487118438087,46.659745040341825,0 10.196520292175043,46.65978023107701,0 10.196513131553017,46.65982431723072,0 10.196536504512274,46.65989285983742,0 10.196603267964212,46.65990995995105,0 10.196698172772365,46.65999140908723,0 10.196747660570765,46.660059319215584,0 10.196892729348527,46.660217059240686,0 10.19696629312073,46.66035414518347,0 10.196928826712474,46.6606034116803,0 10.196932935854814,46.66066781070839,0 10.197023818775332,46.660849899179595,0 10.197093522440511,46.66092451833132,0 10.19711042467526,46.66096874160321,0 10.19713945738771,46.66101982192111,0 10.197179577109987,46.661047645420425,0 10.197453776350248,46.661194338296816,0 10.197599804199312,46.66127811753366,0 10.197672800567048,46.66129434619683,0 10.197807974459336,46.66127883342004,0 10.198407362575606,46.66130102440971,0 10.198739525254227,46.66127209831036,0 10.19894656208596,46.66129155650631,0 10.199140358926101,46.661256624225146,0 10.199396645904335,46.66131880063218,0 10.199574962561156,46.661431098827784,0 10.199730666250112,46.66151981065028,0 10.19989249812346,46.661677860679276,0 10.200019991664504,46.661757555969885,0 10.200128652845429,46.66187802117391,0 10.200150837267863,46.661904339188126,0 10.200123456148804,46.662002907091455,0 10.20013081242554,46.66204448189299,0 10.200207613708173,46.66211460789315,0 10.200181512638638,46.66219730738053,0 10.200197368446279,46.66233903516738,0 10.200215465316376,46.66238610861171,0 10.200285131270993,46.66252119699838,0 10.200295365232257,46.662634852776335,0 10.200538212763364,46.66282261223957,0 10.200560815546835,46.66287465233475,0 10.200615166154659,46.66293524414201,0 10.20063575748,46.66299017573335,0 10.200680721198335,46.66303083848014,0 10.200818025537211,46.66311821375683,0 10.201010217865562,46.66319489911195,0 10.201183789710985,46.6631734119464,0 10.201308146629701,46.6632121486822,0 10.201434092192294,46.663220611671406,0 10.2016874864522,46.66332820599815,0 10.20175395555238,46.66340074136445,0 10.201799427290625,46.66341043641799,0 10.201885573691348,46.663527746007176,0 10.201945707344937,46.663537805137246,0 10.202032090405597,46.66357026364386,0 10.202082904521664,46.66362302193045,0 10.202272374767034,46.66372295309607,0 10.202597241982868,46.663796416447944,0 10.202665107469816,46.66379404959646,0 10.202804533887962,46.66384105764361,0 10.202926155259751,46.66384674445571,0 10.203340092772212,46.663783063186195,0 10.203344850496952,46.66374767700817,0 10.203615460268553,46.66377185655518,0 10.20397461745607,46.663780319878356,0 10.204761698463695,46.66374739504973,0 10.20548927838358,46.663714347544136,0 10.206004922427699,46.66369693597795,0 10.206044601902963,46.66372762504632,0 10.206617490688265,46.663727269032435,0 10.20680432614288,46.66370644929151,0 10.20807696676188,46.663743339063736,0 10.209052054974219,46.66384503899826,0 10.209752188950066,46.66394286241742,0 10.209951222229515,46.66397555995404,0 10.210155703615587,46.66404885006768,0 10.210359377861721,46.66410436398273,0 10.210555112272157,46.6641478327626,0 10.210491259807696,46.66424873097135,0</coordinates></LineString></Placemark></Document></kml>