<kml xmlns="http://www.opengis.net/kml/2.2" xmlns:gx="http://www.google.com/kml/ext/2.2" xmlns:xsi="http://www.w3.org/2001/XMLSchema-instance" xsi:schemaLocation="http://www.opengis.net/kml/2.2 https://developers.google.com/kml/schema/kml22gx.xsd"><Document><name>Dessin</name><Placemark id="drawing_feature_1746005616552"><name></name><description>15 Munt la Schera</description><Style><LineStyle><color>ff0000ff</color><width>3</width></LineStyle></Style><ExtendedData><Data name="type"><value>linepolygon</value></Data></ExtendedData><LineString><coordinates>10.210026704776247,46.66386787156023,0 10.209851542978008,46.663955527962,0 10.20835731164193,46.663770809103475,0 10.208086387317373,46.66374288938583,0 10.206899282307674,46.66371033115184,0 10.206804875211926,46.6637025609917,0 10.206555602039067,46.66373018674882,0 10.206171689335177,46.66373951625663,0 10.206056270230787,46.66372938033126,0 10.206027510897313,46.6637075820969,0 10.205982383502649,46.66362301240729,0 10.20600113863299,46.66358080342281,0 10.205978070028292,46.663240317089404,0 10.205952411711348,46.662902787568314,0 10.205944239980676,46.662845395417996,0 10.205987449281114,46.662614001270526,0 10.206041414774932,46.66252414423349,0 10.206104338594113,46.66248662102832,0 10.206375608993907,46.662473550024885,0 10.206626908447989,46.66247896083116,0 10.206688197336515,46.66242995894247,0 10.206714632687634,46.66233357181331,0 10.206668025460225,46.66223323615646,0 10.206445670007374,46.662119139389475,0 10.206455280819233,46.662082191729,0 10.20660646779051,46.661991411347024,0 10.206762334461787,46.66171761382424,0 10.206719739346791,46.661580431228344,0 10.206610716642903,46.66146300473161,0 10.206428686038896,46.66136016592574,0 10.206115046963216,46.661138333758764,0 10.206046404995183,46.66099151649699,0 10.205857163940609,46.66084997831483,0 10.205760714196218,46.66065664311008,0 10.205721008420209,46.66061657443532,0 10.205543692421415,46.66053174624122,0 10.205412580886726,46.6604427864153,0 10.205369668127911,46.66040135579251,0 10.205334299649149,46.6604050945452,0 10.205295637137803,46.66042619053971,0 10.205260318435021,46.66041049121064,0 10.205247501484285,46.66038488675417,0 10.20483520521423,46.66011395572228,0 10.20482621156776,46.660060902689835,0 10.204788459435417,46.660058940163594,0 10.204724432440404,46.660074892973086,0 10.204666133379325,46.66005975162234,0 10.204627202366213,46.660034781356394,0 10.204561721021845,46.65996177428724,0 10.204487864003536,46.65994917035056,0 10.204350274652105,46.659958270903786,0 10.204276799333083,46.65993269963102,0 10.204298872355722,46.65989400975851,0 10.204284790507462,46.65986411663226,0 10.204149132945926,46.659829257078975,0 10.204098483661715,46.65980424284272,0 10.20412575607942,46.65974455005199,0 10.204181881590488,46.65971727137613,0 10.204405064657541,46.659684495820926,0 10.204430823829323,46.65965651465462,0 10.204303849066509,46.659542846490396,0 10.204267205179258,46.659501263247456,0 10.20416167945215,46.65935823232147,0 10.204157005014197,46.6592057304556,0 10.204144299361182,46.6591822827801,0 10.204030676513868,46.6591692045103,0 10.203988502318264,46.65914215315413,0 10.20391314847,46.65899521708497,0 10.203914835818765,46.65892606728136,0 10.203888554640885,46.65884175912463,0 10.203834719886208,46.658791234696366,0 10.203674121329446,46.65871249233495,0 10.203536602633669,46.658620806508665,0 10.203423797832615,46.65854237766728,0 10.203207253061464,46.65841877551262,0 10.203143650429713,46.658361289041146,0 10.203052912839002,46.658325337861434,0 10.20287096433801,46.658234186046094,0 10.202815175634152,46.65820674484841,0 10.20258745591904,46.65798407354133,0 10.202435343701865,46.65789593332974,0 10.202333955209857,46.657835764050894,0 10.20224559369853,46.657764480303804,0 10.202148992827645,46.657601962785606,0 10.202050141255913,46.65748918025068,0 10.201869064700487,46.657350771694034,0 10.201749229878033,46.657253774189265,0 10.201301932791669,46.65697379358113,0 10.201288442742294,46.65681872081984,0 10.201240761249084,46.65672485300431,0 10.201246012635385,46.656684412140976,0 10.20126818385839,46.65665001199061,0 10.201270706266211,46.65661755605942,0 10.201283526708448,46.65658197079882,0 10.201201464608832,46.65647022005391,0 10.201203841271683,46.65627614676316,0 10.201239757528151,46.65618097078417,0 10.20125214135046,46.65613533540061,0 10.201176583648007,46.65610981285453,0 10.201045321829328,46.65609931926991,0 10.200973942296987,46.65607369518444,0 10.20091033061189,46.65596922959669,0 10.200865924289682,46.655939351762605,0 10.200805894283224,46.65584938272481,0 10.20074464367633,46.65579687717172,0 10.200721877139483,46.65565849197261,0 10.200658901829865,46.65559039188225,0 10.200633399686199,46.655521181753606,0 10.200521521256826,46.655480702277764,0 10.200355890266989,46.65536568384885,0 10.200294346431905,46.65530742612935,0 10.200179341515108,46.655158577480044,0 10.200088442207479,46.65509887191602,0 10.199885268682497,46.655031810341534,0 10.199763333628352,46.65483153571659,0 10.199673899274181,46.65475955629861,0 10.199645429785258,46.65472472329526,0 10.199657714288106,46.65465819624306,0 10.199691623607801,46.654605542488135,0 10.199685081333456,46.65442570707301,0 10.199713017824017,46.65437895718381,0 10.199691056549247,46.65421535643182,0 10.199708993125627,46.65414738357109,0 10.199791787332126,46.653966845093336,0 10.19980667396258,46.65373790879591,0 10.199867953002874,46.65359784532231,0 10.199927009781844,46.65348483136276,0 10.200029918304581,46.65339091078753,0 10.20007301760509,46.65324810478435,0 10.20008728696419,46.653220403183404,0 10.200040979660596,46.65298972385268,0 10.200007600370766,46.65286983164274,0 10.200011220129179,46.6527156889034,0 10.199972846983657,46.652594879961356,0 10.199955569394277,46.65246558849732,0 10.200023909372456,46.652307299690975,0 10.199853220031317,46.652205448275915,0 10.199613525958497,46.65205792532783,0 10.199561560056203,46.65199397920152,0 10.199492011476941,46.65192223744797,0 10.199383789246307,46.65189174673738,0 10.199266924282144,46.651896739756424,0 10.199123061990454,46.65186421146937,0 10.198880697904459,46.651848490333855,0 10.19869740218031,46.6518528115085,0 10.198545131047744,46.651819788329604,0 10.198210038487812,46.65170840927569,0 10.198028309535964,46.65171281331691,0 10.197926910180934,46.65169038741802,0 10.19786885823179,46.65165939943927,0 10.197818720667136,46.65161958106202,0 10.19762023405104,46.651541604063205,0 10.197507864118355,46.65148295719058,0 10.197417063291983,46.651404530343534,0 10.197379732254346,46.651349283992595,0 10.197303831566915,46.65129641181232,0 10.197062374738453,46.651218771540286,0 10.19702346963096,46.65117364154813,0 10.196739601467401,46.651102770519906,0 10.196451237632598,46.650962343601044,0 10.196276429950379,46.650897468640466,0 10.195995742325621,46.65072501549733,0 10.19586083088715,46.650635364863696,0 10.195754180376644,46.65051268790199,0 10.195690291658945,46.65036939118206,0 10.19562637231372,46.65026439637025,0 10.195444643901807,46.650059456861705,0 10.195226870177695,46.64995170786601,0 10.195041404291532,46.64983691054229,0 10.194946502397372,46.64971898766413,0 10.194809740265116,46.64952506508695,0 10.194695730225524,46.649422002182376,0 10.194594015412283,46.64912390698965,0 10.194555759844178,46.64888560883994,0 10.194499352482937,46.64872284115601,0 10.194512539519668,46.648653413346814,0 10.194615264842474,46.648555902597174,0 10.194605779755083,46.64851124069732,0 10.194468339114383,46.648420262865365,0 10.194318019519025,46.64834327430841,0 10.194215426338282,46.648258554467475,0 10.19414825218492,46.64817163474059,0 10.194085690783611,46.64801117547433,0 10.194022286952954,46.647790624765946,0 10.193932761763262,46.64771648382255,0 10.193849152621627,46.64760885330896,0 10.193675998374434,46.64737116314099,0 10.193617845737482,46.647180623956864,0 10.193405066007532,46.647003200607806,0 10.193321826326313,46.64690875045942,0 10.19330392403638,46.64686527084847,0 10.19322562535321,46.64678191203788,0 10.193188703378718,46.646693540039855,0 10.19315980789119,46.646639528151525,0 10.193114799238819,46.646416201533675,0 10.193132233497032,46.64636481113958,0 10.193124398773234,46.646074054509135,0 10.193225369146074,46.64579438065761,0 10.193204839746384,46.64563880684952,0 10.193271054667203,46.645428147456045,0 10.193397515487213,46.64512205703606,0 10.193427788271212,46.64497488803049,0 10.193496825452073,46.64484701243572,0 10.19355025293827,46.644708974963144,0 10.19361902101639,46.644603263959866,0 10.193688675437546,46.64456978631767,0 10.193695440661855,46.644537830471364,0 10.193756781814573,46.64447854218857,0 10.193756948981164,46.64439953939412,0 10.193837855309916,46.64433977767342,0 10.19383481157973,46.64428012062043,0 10.193986297594854,46.64409533567052,0 10.194077983720517,46.64391777813139,0 10.194163922287576,46.64386710724514,0 10.194254289007782,46.64377339719885,0 10.194359975367929,46.64362343914718,0 10.194447300739315,46.64352498543845,0 10.194490249457852,46.6434343497153,0 10.194568235798807,46.643365697681865,0 10.194723584276966,46.6432546746958,0 10.194868101870801,46.64319541056007,0 10.19501732041501,46.643189638302864,0 10.195188464747188,46.643142301740184,0 10.195313601369154,46.64303344916419,0 10.195361539916703,46.64296893872631,0 10.195435605574849,46.64290915203897,0 10.195589523196027,46.642811120313105,0 10.196023498065049,46.64268974852523,0 10.196198825452589,46.64272437563024,0 10.196604322552348,46.6427753957373,0 10.196790003520816,46.64282848809669,0 10.19694381778387,46.64281036396521,0 10.19716090625434,46.64276191121627,0 10.19720281568429,46.64272890004868,0 10.19729003400128,46.64269655165086,0 10.197330869690468,46.64269772181389,0 10.197418764887892,46.642658158057486,0 10.197615649494285,46.64264402849498,0 10.197794739793375,46.64258857661261,0 10.198050411237025,46.64255862389189,0 10.198359936074159,46.6424776932585,0 10.198484639232312,46.64234005218067,0 10.198551109318645,46.642311124196105,0 10.198587682291382,46.642228890774014,0 10.198652639337967,46.64219060199942,0 10.198920333725164,46.64208908733527,0 10.198991188239173,46.642043456529755,0 10.19932679947044,46.64198204736313,0 10.19938009196738,46.64198147495314,0 10.199641827549927,46.64186570536062,0 10.199799074642684,46.64181478778001,0 10.199933280117273,46.64178129766049,0 10.200012141511401,46.64174914977799,0 10.200164855800569,46.64175048471261,0 10.200365729615928,46.641732654113255,0 10.200623973387273,46.64168201583579,0 10.20075683962351,46.64164279813623,0 10.20094720362531,46.641562591571144,0 10.201062773451344,46.6415122750121,0 10.201197220388778,46.641503973462505,0 10.201519142801205,46.64154295377247,0 10.201802803821087,46.64146335688648,0 10.201894811088852,46.64140209320851,0 10.201962566295826,46.64135725557492,0 10.202167715373523,46.641274446175395,0 10.202457922855382,46.64122655474573,0 10.202530338301255,46.641224796692015,0 10.202671004747252,46.64119142750562,0 10.202763056529797,46.6411483461282,0 10.202839734958106,46.64110109941698,0 10.202979553790094,46.640999673007336,0 10.203145919636926,46.640927555755475,0 10.203271481380563,46.64090816814126,0 10.20344532382716,46.6409048540499,0 10.203553629963466,46.6408831620269,0 10.203769634098883,46.640905146746434,0 10.203941944428188,46.64087191507704,0 10.20411896421909,46.64082767630761,0 10.204184053015236,46.64081157199022,0 10.20424847521768,46.64080819159815,0 10.204310668932619,46.640761295744674,0 10.204405947302702,46.64074264247628,0 10.204586632458705,46.640572371391436,0 10.20473804755238,46.64049153804358,0 10.204828804774325,46.640410362971345,0 10.204903522424463,46.64029915452357,0 10.204977332291188,46.640247437516315,0 10.204996308581997,46.64020612991236,0 10.205116232498137,46.64010246108258,0 10.205376896212405,46.6398894217503,0 10.205468735723567,46.63980368129542,0 10.205527040004073,46.63973237137776,0 10.205577460491375,46.639635837407376,0 10.205607899539062,46.63953525057809,0 10.20566078155026,46.63948676483549,0 10.205745540460653,46.639442950468414,0 10.205785193756347,46.63941929411781,0 10.205941543818241,46.639409139688524,0 10.206239560438583,46.63933381738258,0 10.206392874563004,46.63929015128217,0 10.206558021989112,46.63927161275616,0 10.206916197597062,46.63923839567732,0 10.20707391448796,46.63924685247259,0 10.207136986935605,46.63921717992199,0 10.207249516770586,46.6392008277362,0 10.207642031980763,46.63922032750121,0 10.207753048831853,46.639201045794266,0 10.207885775757699,46.63914153977103,0 10.208310444833856,46.639093992865,0 10.208585797829226,46.63909092416872,0 10.208956023753588,46.6391127770928,0 10.20909947053204,46.639091864455224,0 10.209243490284962,46.63909834414928,0 10.209525841031722,46.63902611754201,0 10.209608860893548,46.63897417320337,0 10.209676374858498,46.63890263679344,0 10.209849526752466,46.63886029839799,0 10.210029664864253,46.63879756870307,0 10.210189729494427,46.638782779437996,0 10.21025593070986,46.63878842928665,0 10.21037119869724,46.63874840706731,0 10.210493887119824,46.63872454264428,0 10.210655454091029,46.63871334695845,0 10.210789465842682,46.63870463746453,0 10.210865348381171,46.63871912822617,0 10.211063114360233,46.638719758244726,0 10.211223936445789,46.63869405666582,0 10.21133892445483,46.63864859395868,0 10.211421077360937,46.638631162112134,0 10.211409416036675,46.63879692677727,0 10.211563872262953,46.638925307331746,0 10.211593778762415,46.638998727337516,0 10.211711659404989,46.639136233993995,0 10.211650682990431,46.63926649235579,0 10.211674751799398,46.639307659545395,0 10.21163870161033,46.6393589298164,0 10.21157499641811,46.6393806384269,0 10.211314756725454,46.63974505756352,0 10.21115878790815,46.639866734462615,0 10.2111542838748,46.639921555587684,0 10.211133500309371,46.63994437824881,0 10.211142628793489,46.63995927358693,0 10.211273204611105,46.63999784694408,0 10.211297948500803,46.64003179889517,0 10.211412286933317,46.640100282967985,0 10.211590190115682,46.64035744265568,0 10.211727001010615,46.64045633420428,0 10.211750569494447,46.64052846875619,0 10.21188664707891,46.64062360653448,0 10.211935656330583,46.64068216333167,0 10.212084049283483,46.64074189841366,0 10.212194174198894,46.64090032885013,0 10.212187757019636,46.64097895293236,0 10.21201247366666,46.641067450024046,0 10.21187189106054,46.64111910715428,0 10.211746354131419,46.641138002659254,0 10.211648209392147,46.641262774167515,0 10.2116496810721,46.6412914472088,0 10.211568617613999,46.6413416541446,0 10.211418625367324,46.641413696746206,0 10.21097134518888,46.64149746619198,0 10.21086599021424,46.64150219137511,0 10.210751252377882,46.641548178506675,0 10.210738246390356,46.641600327081214,0 10.210658890124368,46.641663449757225,0 10.210557391309463,46.641906267997655,0 10.210372793102998,46.64203746254794,0 10.21035103570538,46.64210255384924,0 10.210479739517732,46.64236937797745,0 10.210636017820937,46.642461256072714,0 10.210860749671848,46.64246010331432,0 10.21103215645974,46.64251999937582,0 10.211142692061033,46.64259577527494,0 10.211480940189654,46.64274879228181,0 10.21175343232567,46.64286348262776,0 10.211765267303859,46.642910706910214,0 10.211842446534755,46.642947700880676,0 10.211982528622558,46.64300835855727,0 10.212019641466789,46.642998095925385,0 10.212092153655014,46.64304600175049,0 10.212203904306806,46.643084312948126,0 10.212282628141999,46.64314139006253,0 10.212418591535135,46.64316255373473,0 10.21252318706915,46.64326510896705,0 10.21278504178422,46.643314879926734,0 10.212927629988158,46.64338578363081,0 10.212977475472655,46.64341984354952,0 10.21303724640422,46.64344358305225,0 10.2130653743911,46.64350264830832,0 10.213114444338618,46.643521609354885,0 10.213240628885488,46.6436373157095,0 10.213242934176481,46.64383232174458,0 10.213153208827407,46.64389713861834,0 10.213200050063726,46.643974464866766,0 10.213133268566736,46.64400527448312,0 10.213136576082286,46.64402895017223,0 10.213091625910138,46.644049482557186,0 10.213116326004826,46.64410287223088,0 10.213068333689263,46.64416595210186,0 10.21299387532884,46.64420232116931,0 10.212964100641614,46.64427117377867,0 10.213017892373264,46.644320975016186,0 10.212844688124761,46.64440942245101,0 10.21268817147372,46.644537776731475,0 10.212613910884762,46.64455037093814,0 10.2125856850458,46.644611529246426,0 10.212497592785835,46.644687823948516,0 10.212399383625375,46.64470965361229,0 10.212306348606955,46.64475079407721,0 10.212199498833465,46.64494742190501,0 10.21218375646986,46.645027712896145,0 10.212054550763243,46.64509913347894,0 10.211955887128585,46.645132492007846,0 10.211847539956612,46.64514017035845,0 10.211642501184965,46.64511780875165,0 10.21128639036674,46.645079931368706,0 10.211110101531705,46.64506766697356,0 10.211013795093356,46.64508584958733,0 10.210762359080393,46.64513732482137,0 10.210802780141824,46.64515073837188,0 10.211120164560112,46.64508037988681,0 10.211877107955447,46.64516056929735,0 10.212003292354757,46.645133739388655,0 10.212182987556467,46.64504945450519,0 10.21220878895192,46.64506322370915,0 10.212407071718161,46.645096547204616,0 10.212460098447751,46.64511109284802,0 10.2125035521247,46.645102115418624,0 10.212500556804576,46.6451252248014,0 10.212634759030378,46.64517306708941,0 10.212790908328216,46.64526140807693,0 10.212930559745791,46.64525033674336,0 10.213170198891152,46.64529488928643,0 10.213357311101639,46.64529392877233,0 10.213433036922385,46.645315913134255,0 10.213547159857928,46.64531889081228,0 10.213882715209069,46.64545972877543,0 10.214360666858182,46.645522945811535,0 10.214558132964449,46.64549695929192,0 10.214673078931353,46.645495596467825,0 10.215199550103256,46.6456483329037,0 10.21524609048175,46.64565871613047,0 10.21537100826573,46.64562759396739,0 10.215675267287283,46.645627372017174,0 10.215842785437282,46.645688632045015,0 10.215898254217482,46.64575062919169,0 10.216022988363816,46.64579725879681,0 10.216106458117007,46.645793782807424,0 10.216255912230945,46.64577213957163,0 10.216372503488662,46.645762096236645,0 10.216483179253906,46.645718362330925,0 10.21654658540231,46.645711056208725,0 10.216721952769806,46.64570533753363,0 10.216781838926936,46.64573123207324,0 10.217148437403173,46.64555095258021,0 10.217213857824389,46.64554215713924,0 10.217248225255245,46.645498844940555,0 10.217322221848715,46.64549415945623,0 10.21745390131134,46.645431914760444,0 10.217561030614881,46.64540474096652,0 10.21763293018074,46.645420263379286,0 10.217675865306564,46.64540121815939,0 10.217806557501431,46.64538075069442,0 10.217886523560448,46.64537016001459,0 10.21797787399417,46.64533697481099,0 10.218223392358293,46.64533314071942,0 10.218533728983946,46.64523773729894,0 10.218660983673209,46.645231750544255,0 10.218725700093227,46.645209293524275,0 10.218848156049514,46.64517102864826,0 10.218967471208186,46.645152997349655,0 10.219106886804823,46.64513951421957,0 10.219153396689846,46.64513328247582,0 10.219306787433698,46.645147533507505,0 10.219496209791158,46.64515082580016,0 10.219675426570154,46.64511837260044,0 10.219800451563206,46.64508940254405,0 10.219959182235117,46.64508552500725,0 10.220258727386753,46.64495147008587,0 10.2203315820817,46.64490433699376,0 10.220411554233644,46.644873587458356,0 10.220447733533407,46.64486550457615,0 10.220498095421881,46.64482827954033,0 10.220738758904908,46.64473025297994,0 10.22084375601235,46.64469817171963,0 10.220943671555432,46.644574118498895,0 10.220987744256288,46.64449601317113,0 10.22101330927684,46.644444276168684,0 10.22106061861123,46.644388408325405,0 10.22109256030814,46.64433867512698,0 10.221103419518856,46.64430491545808,0 10.221163438158928,46.644272493333744,0 10.221179456408873,46.64421811006458,0 10.221271911650767,46.644104987259816,0 10.221300972552694,46.64408052054124,0 10.221302494226455,46.64401299719011,0 10.221338885526865,46.64392788055837,0 10.221369997898506,46.643902643838814,0 10.221439481449998,46.643891586912616,0 10.221435873901376,46.64386215959011,0 10.221391880650977,46.64382004146222,0 10.221428190746009,46.64375364390078,0 10.221478668968302,46.643698418278426,0 10.221517535496256,46.643681630655806,0 10.22161025162808,46.64367504492912,0 10.221646844362764,46.64365471344403,0 10.221679495763105,46.6435984837335,0 10.221664623600056,46.64357365110956,0 10.221702341314035,46.64353457487654,0 10.221801433900353,46.64352999280784,0 10.221881049606012,46.64355324266813,0 10.221902089575915,46.64353545097561,0 10.2218998462498,46.64346906161176,0 10.221922795928297,46.643427466785035,0 10.221992366273899,46.64337753328433,0 10.221965848654094,46.64326875818058,0 10.22201391328346,46.643183010257204,0 10.221989342639333,46.64305115104864,0 10.222054499759587,46.643037319927934,0 10.222159737366082,46.64282741843087,0 10.222214282497799,46.64276982450159,0 10.222215117514619,46.64272517086777,0 10.222262639942306,46.64269377351185,0 10.22224129315293,46.64262446602868,0 10.222282822635975,46.64255794055377,0 10.222249376663061,46.64253788147932,0 10.222302750092995,46.642518579192796,0 10.22231932259363,46.642474980525215,0 10.222267632187352,46.64236466130953,0 10.222300820331405,46.64232298974275,0 10.222293338494223,46.64227925934612,0 10.222316287364176,46.64223766443542,0 10.222281588112416,46.64217300277642,0 10.222319533348362,46.64211808315743,0 10.222235807902226,46.64203403330598,0 10.222262534689275,46.641842608670146,0 10.222370522759006,46.64176725929916,0 10.222385004075262,46.64164903650287,0 10.222351423438287,46.64158578731772,0 10.22219459552177,46.641504674785836,0 10.222112055137048,46.6414246253538,0 10.222127916704105,46.64138752308903,0 10.222075675897791,46.641367923537736,0 10.22209556995685,46.64133491766659,0 10.22208402275186,46.64129344632354,0 10.22212420037358,46.64122791967551,0 10.222077459836555,46.641152754041606,0 10.222102133081123,46.64105927617922,0 10.222071799519918,46.64087644563859,0 10.222108477372895,46.64081723769111,0 10.222212367462502,46.6407232714038,0 10.22228579541328,46.640595004299215,0 10.22235012970768,46.64046385083023,0 10.222430069993042,46.64039206667133,0 10.222537937239975,46.640334717204624,0 10.222598445223724,46.640271326902806,0 10.222646744096005,46.64020854949085,0 10.222784373183833,46.6401403934992,0 10.22282542445615,46.64004436388628,0 10.2228876356887,46.639834212452286,0 10.222967302892336,46.63967604756732,0 10.22298624355154,46.63946194515102,0 10.223069734245769,46.63935767850385,0 10.223065508380257,46.63927571426632,0 10.223098310221785,46.639202202941576,0 10.223305734805395,46.63929143504213,0 10.223363330961464,46.639354096481235,0 10.22346738985514,46.63942569982671,0 10.223505116059012,46.63946797043164,0 10.223669848593872,46.639540248979166,0 10.223762788140082,46.639575890217785,0 10.223831463153699,46.639630361624974,0 10.224018828754522,46.63971576389411,0 10.224125947527735,46.639785852011435,0 10.224185762306709,46.63979014756665,0 10.224249499921838,46.63976915089875,0 10.224341572878057,46.63977049736435,0 10.224511493224007,46.6398364298961,0 10.224588014913758,46.639840316452336,0 10.224768286686775,46.63982870574551,0 10.22479121030257,46.639867738769475,0 10.22475834176675,46.63991965552757,0 10.224652888589164,46.640023741040515,0 10.224643813416174,46.64007075610269,0 10.224709259569531,46.64021792089404,0 10.224782489615563,46.64025932221699,0 10.224886266464184,46.64028485814639,0 10.22495029563053,46.640289770064044,0 10.22504662584541,46.640272294605055,0 10.225114089830202,46.64026272449305,0 10.22516213881085,46.64020107750971,0 10.225422116963584,46.64014360138214,0 10.225557267074771,46.64012877464739,0 10.225677734826682,46.64007255337734,0 10.22577182241516,46.63998720464949,0 10.225856072163099,46.63995850593966,0 10.226031710563998,46.63983686317489,0 10.226210720202717,46.63964866408059,0 10.226261311094747,46.63955527908087,0 10.226376209945352,46.63939120958913,0 10.226470930968757,46.63926838416297,0 10.226701921078842,46.6390849137429,0 10.226777015513877,46.63900665148647,0 10.226933059938734,46.638930840303274,0 10.227150036377381,46.63886073529889,0 10.227401599277188,46.63887329014854,0 10.227742074551513,46.63900820759158,0 10.227834498562865,46.63902257182227,0 10.228054412230696,46.638989107588145,0 10.228210186253676,46.63894857606165,0 10.228534333621768,46.63888880023479,0 10.228621778681426,46.638901774903516,0 10.228897256844531,46.63889269369174,0 10.229225794735822,46.63887744165222,0 10.229344981075428,46.63885724247328,0 10.229597770685526,46.63889351892042,0 10.229756341395536,46.63888261773314,0 10.230131557946452,46.638920930558186,0 10.230271735055966,46.63892253240204,0 10.230541373987146,46.63900158721757,0 10.230940080870736,46.63910065750344,0 10.231033447478808,46.63916747714558,0 10.231099024289566,46.63928321131247,0 10.231154702704037,46.63941281746361,0 10.23128281357018,46.63952186474522,0 10.23142638483363,46.63963882979368,0 10.23144965315504,46.63975044890504,0 10.231549791699349,46.63991919835982,0 10.232103313730008,46.64011343223325,0 10.232368152476877,46.64018854155869,0 10.232941579992946,46.640323552682,0 10.233279709409626,46.64041301169451,0 10.233579321682853,46.64060293014999,0 10.233900309366359,46.64076629748435,0 10.234083473262473,46.64079794175903,0 10.23416791424385,46.64084481023792,0 10.23446224349781,46.64086920636557,0 10.23458083741984,46.64084472008402,0 10.234766184294209,46.64089739239067,0 10.235148763346652,46.641147764201136,0 10.235391528683747,46.64127432495444,0 10.235548165405492,46.64138492583444,0 10.235913642687189,46.641431664862885,0 10.236151202337597,46.64148390829046,0 10.2362097098743,46.64149451784821,0 10.236359993409309,46.641566873105006,0 10.236807692614711,46.64168086049167,0 10.236872010770337,46.64171918620268,0 10.236997234798647,46.64171959938779,0 10.237686732216494,46.6418570048344,0 10.238226414754186,46.64188891203979,0 10.23856610758994,46.64188136638749,0 10.239022592442721,46.64184830293899,0 10.23954558162854,46.64179025981536,0 10.239800639732769,46.64181636146386,0 10.24026211572523,46.64175305198636,0 10.240334197778457,46.641709112588636,0 10.240421230642944,46.641594152697834,0 10.24053329284758,46.64154094669321,0 10.240749410637482,46.64148131524839,0 10.240890040841103,46.64141090330816,0 10.241140648364409,46.64138457726708,0 10.24136161430443,46.641320771314376,0 10.241472485202655,46.64130148410116,0 10.241765900970735,46.64119347420734,0 10.24197212598663,46.64109768913261,0 10.242331478632115,46.64111187646219,0 10.242626647260806,46.641057813437754,0 10.24297364796496,46.64093480244747,0 10.243097083901644,46.64089576687933,0 10.243203676713495,46.64085121485986,0 10.243268415024477,46.640829462866705,0 10.24346687715439,46.64070507033684,0 10.243759090569094,46.640574047975456,0 10.243910805282908,46.64046351752959,0 10.244130745663925,46.64035011286388,0 10.244499440162983,46.640202085872524,0 10.244752805066055,46.640168681816085,0 10.245155549363979,46.64007236590404,0 10.245229905733929,46.64003453784991,0 10.245828636107461,46.639916083648075,0 10.245957664472373,46.63990426308743,0 10.246142108557072,46.639892515552575,0 10.24635306784995,46.63988803266726,0 10.246723318340164,46.639918319304485,0 10.246858536811967,46.639904905169686,0 10.247136061125603,46.63989373954645,0 10.2475167307099,46.63985555166665,0 10.247620568754224,46.63985743722874,0 10.247838609589023,46.63982830031224,0 10.248099018438305,46.639829792893686,0 10.248287529376913,46.639835938991595,0 10.248478104818503,46.63982259649775,0 10.248622009421842,46.63979528778051,0 10.24882569642233,46.63979169974992,0 10.248980712339838,46.63975691731528,0 10.249285322775462,46.639724571901574,0 10.249674979096397,46.63969839311516,0 10.24989204880932,46.63967071600936,0 10.250213339252115,46.639564608353055,0 10.250629056453961,46.6395169055498,0 10.250959027227045,46.63940868818804,0 10.251570783356978,46.6392736398958,0 10.251700249489208,46.639230126324186,0 10.25178090246488,46.63919285814317,0 10.251848569227159,46.639182342981314,0 10.251929109669973,46.639142917760886,0 10.25243947897685,46.63898560376765,0 10.25275789200328,46.63891654136987,0 10.253060126554288,46.63876860159458,0 10.253134652946768,46.63869404903477,0 10.253286075708152,46.63863055339925,0 10.253542542600899,46.63842272860858,0 10.253955817740794,46.63820805660355,0 10.254168537932237,46.638042522501785,0 10.254486262860834,46.63794035662026,0 10.254898482813882,46.63784593070389,0 10.255075234075312,46.6378271597745,0 10.255181941277012,46.63784827640049,0 10.255804051675861,46.63782928288634,0 10.256022605004548,46.63781019588946,0 10.256122684749212,46.63778468205688,0 10.256321249483188,46.63776320955508,0 10.256858415087073,46.63763904731044,0 10.257030596593106,46.63758539264224,0 10.257147761658507,46.63746658743241,0 10.257244882407575,46.63740443077711,0 10.257316807213094,46.637380332864076,0 10.257421887486963,46.63737053188886,0 10.257497107816148,46.63738954647989,0 10.257573846995331,46.63737756751111,0 10.25766787894346,46.63733636421712,0 10.2578674624908,46.63726324806469,0 10.257945132833287,46.637249086142994,0 10.257994680497047,46.63721690315184,0 10.258097750419305,46.6371085246031,0 10.258166091761048,46.63707587607429,0 10.258247743618458,46.63703785848252,0 10.258503324625648,46.63702720819883,0 10.258734267005615,46.63704524394213,0 10.258941241634476,46.63698468366955,0 10.259025426831194,46.636887459665815,0 10.25914082707397,46.63685508437292,0 10.25924926478822,46.63674945133573,0 10.259367266289532,46.63658109767685,0 10.259489102293848,46.636542514024754,0 10.259637169444767,46.6364150213605,0 10.259772947022048,46.63633246705103,0 10.259947746176724,46.63629645901607,0 10.260097103706219,46.63623372507863,0 10.260209790416855,46.63622949215325,0 10.260362986508987,46.63626025023676,0 10.26079174013007,46.636262579541466,0 10.260981380935041,46.63623052149075,0 10.261181553713023,46.63623995635162,0 10.261268205134936,46.63621765043693,0 10.261397295982224,46.63620581055527,0 10.261522519698193,46.63622142269868,0 10.261702411955646,46.63624287808437,0 10.261839254748491,46.6362207667245,0 10.26200090071931,46.63621315804849,0 10.262179318864048,46.63618641567022,0 10.262358204778954,46.63620861482406,0 10.262561851397823,46.63626115542109,0 10.2628116983033,46.63628087352424,0 10.263475770405067,46.63650484431868,0 10.263713200179499,46.636547727429864,0 10.263981513043271,46.63658066298775,0 10.264046171715195,46.63657761832408,0 10.264225827297821,46.63662985120668,0 10.264417545592623,46.636657487918114,0 10.264533784539442,46.63674154232017,0 10.264707235908682,46.63685962018632,0 10.264809313070586,46.63689236131517,0 10.265075135902569,46.63709741354916,0 10.265182734560181,46.63723032959714,0 10.265256556081313,46.63728248948379,0 10.265307115784966,46.63734962503126,0 10.26551465990464,46.63757779825074,0 10.265604314742777,46.6377526685838,0 10.265567891345528,46.63783843894181,0 10.265510089201934,46.6379125847904,0 10.26530582826685,46.63810483238564,0 10.265234545576627,46.638214981601706,0 10.265069921797704,46.638405524575184,0 10.265090981074245,46.638679439717535,0 10.264997676761519,46.638834376227905,0 10.264873019531771,46.638929619002504,0 10.264827417602126,46.639076132094544,0 10.264761043520558,46.639166328250795,0 10.264725664755785,46.63918952359448,0 10.264571168161533,46.639273988293944,0 10.264525432412722,46.6393096116046,0 10.264492762112539,46.63938457283179,0 10.264451323838076,46.63953174216558,0 10.26446110583832,46.639638765190575,0 10.264420665546943,46.63968512304734,0 10.26423219886231,46.639779789208454,0 10.264158982914408,46.63984677967927,0 10.264099989826976,46.64001814142468,0 10.264098158400156,46.64011902636261,0 10.264194443616603,46.64036068431305,0 10.264164555986827,46.64045903502152,0 10.264128065829725,46.64050097524845,0 10.264044954952906,46.64053111428592,0 10.263842403539428,46.64057645583136,0 10.263625516390718,46.640587597332626,0 10.263514490080494,46.640574571037234,0 10.263407499178774,46.64053878006402,0 10.263245024543073,46.640470821000235,0 10.263168950426406,46.64047558813523,0 10.263079678217363,46.640487881713014,0 10.26295111885577,46.64053923721274,0 10.262898681502072,46.640616128089,0 10.262890437782199,46.64069840168983,0 10.262948616453462,46.64079126584358,0 10.263106226645847,46.640906139821475,0 10.263228453148551,46.640994091692924,0 10.263357579486179,46.64112407015905,0 10.263397284896596,46.641183556929306,0 10.263610632615674,46.641316839220856,0 10.263694882353043,46.64154251648382,0 10.263668444023958,46.64171666955065,0 10.263726256942896,46.64175736109846,0 10.263785484141493,46.64177028943045,0 10.263953750135277,46.64176899327871,0 10.264095958006186,46.64178922081483,0 10.26414108212848,46.641851830968044,0 10.26427282891593,46.641911912686275,0 10.264602070264134,46.64202972375804,0 10.264904085643217,46.642176470769165,0 10.26513689653818,46.64238954199912,0 10.265404605925676,46.64268146531602,0 10.265746413858412,46.643060700539486,0 10.266183996186001,46.643520016037996,0 10.266320794081453,46.6436764374207,0 10.266432129599849,46.643943571092755,0 10.26653148148092,46.64428748431993,0 10.26659184877259,46.64456170861292,0 10.266739366930045,46.64491914742884,0 10.266839058722615,46.64514560093532,0 10.266898548522592,46.645482084868824,0 10.266963891219067,46.645631641764446,0 10.267000789731496,46.64565736163088,0 10.267049353418642,46.64566623386474,0 10.267124695050454,46.645759768362254,0 10.267163261006838,46.645837279900114,0 10.267151890170952,46.64591963168316,0 10.267094368661443,46.64611903468443,0 10.267145783403922,46.64639022563941,0 10.267142332023582,46.646424146930286,0 10.267220180620473,46.646592830493745,0 10.267278100399015,46.64678029559663,0 10.267274539519075,46.64689196942257,0 10.267230600295322,46.64703128288204,0 10.26721055219998,46.647095863539995,0 10.267115250509159,46.64715294392802,0 10.267014069523297,46.647237526680364,0 10.266925138752706,46.647356360518444,0 10.266868852078305,46.64741967055901,0 10.266869625471914,46.64747436415802,0 10.26671474430426,46.647620820796284,0 10.266593644614678,46.64770445812974,0 10.266494934683795,46.64773642592604,0 10.266544142451218,46.647837430253325,0 10.266673767620755,46.648096256138146,0 10.266640246108285,46.64817724302663,0 10.266635710335853,46.6481882012865,0 10.266634977229073,46.64821413612452,0</coordinates></LineString></Placemark></Document></kml>