<kml xmlns="http://www.opengis.net/kml/2.2" xmlns:gx="http://www.google.com/kml/ext/2.2" xmlns:xsi="http://www.w3.org/2001/XMLSchema-instance" xsi:schemaLocation="http://www.opengis.net/kml/2.2 https://developers.google.com/kml/schema/kml22gx.xsd"><Document><name>Dessin</name><Placemark id="drawing_feature_1746106112779"><name></name><description>16 Vallée de Fuorn</description><Style><LineStyle><color>ff0000ff</color><width>3</width></LineStyle></Style><ExtendedData><Data name="type"><value>linepolygon</value></Data></ExtendedData><LineString><coordinates>10.210706013347139,46.66383766639906,0 10.211075121113451,46.66375178849637,0 10.211312113773907,46.66369093130216,0 10.211438836147666,46.663625872340496,0 10.21158399536005,46.66356265955619,0 10.211760090264798,46.66348492156823,0 10.212050331351977,46.66338948393595,0 10.212187882405685,46.66330307590995,0 10.212351616505845,46.66321779418738,0 10.212419753571528,46.663118950059726,0 10.212500580072653,46.66308386682951,0 10.212495582474707,46.66300696070945,0 10.212538053028581,46.66297857061553,0 10.21260834900257,46.66296246075827,0 10.212879546325743,46.66294793637503,0 10.213237440474373,46.66287010881193,0 10.213488365334548,46.66280712452586,0 10.213669280361103,46.66278615915328,0 10.21395077654167,46.66268715449233,0 10.214268222874987,46.662616068391536,0 10.21431475145556,46.66252422868984,0 10.214383599705792,46.66250962013903,0 10.214726161229372,46.66249983091013,0 10.215015927688452,46.66241933894098,0 10.215075304423738,46.66237397832029,0 10.215115517574183,46.66230172916991,0 10.215258094914084,46.662250972223354,0 10.215441309334889,46.662254424052584,0 10.215637798844705,46.66227194970059,0 10.21605621585816,46.66215088386446,0 10.21619963088188,46.66205164121501,0 10.21629650121574,46.66200320593442,0 10.21648625892621,46.66197122201346,0 10.216874341103377,46.66185017307986,0 10.216974512373257,46.66184556973853,0 10.217240278051309,46.66186788155993,0 10.217411712906724,46.6618457016417,0 10.21749589012266,46.66181485217655,0 10.217861464610639,46.661622360178654,0 10.217921607265188,46.66161225383116,0 10.218116125278204,46.66161182603378,0 10.21836260111599,46.66154390005207,0 10.218668184216948,46.66148834571912,0 10.218861659138996,46.66138643783541,0 10.218966822350664,46.66139754840648,0 10.219204595629384,46.661546519447775,0 10.219285836944909,46.661580530346264,0 10.219378368498422,46.66165097987276,0 10.219483031452322,46.66168623286741,0 10.2195660735559,46.66169428359527,0 10.219585298892754,46.66166141915674,0 10.219532024988917,46.66156121565091,0 10.219556377255334,46.66148575266558,0 10.219629934318696,46.66133706496769,0 10.219699374140237,46.66130441409912,0 10.219772384637672,46.661300471513925,0 10.219840505524079,46.66130312732703,0 10.219884860001532,46.66131140270228,0 10.219953706984974,46.661368752257225,0 10.219947832036706,46.661417128276696,0 10.22007397657685,46.66149035579255,0 10.22021408572399,46.66142862286177,0 10.220266515334815,46.66139062799031,0 10.220373034350134,46.66136714949073,0 10.220439436681207,46.66137704580104,0 10.22070401846343,46.66139865852125,0 10.221031875305103,46.66148927391422,0 10.221231363329679,46.66146352322011,0 10.221360684795178,46.6614157303464,0 10.221552065063017,46.66131386895711,0 10.221652804504794,46.66127973215765,0 10.221741594922895,46.66127756238805,0 10.221886298153386,46.661304981371615,0 10.221861460588858,46.66139125520858,0 10.221823174501544,46.661419546638506,0 10.221749481533761,46.661471912320685,0 10.221714878417709,46.66153106895498,0 10.22161264249856,46.66157676061231,0 10.221460962948948,46.66165749513009,0 10.221398525763838,46.66172453067696,0 10.221469787882867,46.661706951854825,0 10.22156927769155,46.66172971691936,0 10.221741185479443,46.661737034357785,0 10.221960868346489,46.66167695411122,0 10.222189891175384,46.66157489156775,0 10.222434902766985,46.66151923053661,0 10.22254152916041,46.66151571983175,0 10.222704357160692,46.661448389209056,0 10.22311264599343,46.661313866605184,0 10.223231012658344,46.66133760845426,0 10.223301293084932,46.66130499338151,0 10.223360278608187,46.661292752757966,0 10.223483645685858,46.6613120527766,0 10.223552662984345,46.661311804884434,0 10.22364126191021,46.661326195782145,0 10.223867270946354,46.66130771070629,0 10.223934757428486,46.661309524011074,0 10.224226513020461,46.66124767663078,0 10.224320612030509,46.66120650086232,0 10.224387237340625,46.661220708830434,0 10.224717661990105,46.66121910494712,0 10.22491212092695,46.6611567563868,0 10.225186100151507,46.66115581222266,0 10.225429977267767,46.66113904649031,0 10.225573531284155,46.66114417232134,0 10.225699507784086,46.66117348455047,0 10.22579851054522,46.661207056230495,0 10.226226861502756,46.66121816909456,0 10.226435259651126,46.6612029895239,0 10.226901663023924,46.66122828607799,0 10.227049391135019,46.661253464840286,0 10.227209663716703,46.66123802236085,0 10.227388348897053,46.6611335821351,0 10.227469461985299,46.66109416153107,0 10.22766992027101,46.66104677897117,0 10.22782268980991,46.66104807685338,0 10.228020938197792,46.661038902058195,0 10.228290185387843,46.66100711095339,0 10.228418632186374,46.6610032446631,0 10.22855778231754,46.66103600332796,0 10.228652207864057,46.66102145194571,0 10.228682504970898,46.66100055275375,0 10.228687893112243,46.66092267239601,0 10.228722182703754,46.660898075977556,0 10.229116192045085,46.66081139404013,0 10.229509560446248,46.66075280226969,0 10.229831350721296,46.660705616570176,0 10.229929990849246,46.660691680692835,0 10.230079810051484,46.66065748361867,0 10.23020367716082,46.66061773534388,0 10.230393790010732,46.66061307513201,0 10.230473218504242,46.66059169092552,0 10.230623451415141,46.66058440849224,0 10.230686768309457,46.66053462339631,0 10.230859464411822,46.66049655446817,0 10.230994143316215,46.6604716555751,0 10.231114232211038,46.66045359328592,0 10.231349875036896,46.66033839140704,0 10.231468695707623,46.66033043834214,0 10.231620908464985,46.66030078932858,0 10.231677063881449,46.66023390183853,0 10.231816747394396,46.66016424590319,0 10.231986405539107,46.65999464132623,0 10.2321418708332,46.659906600517765,0 10.23231047686002,46.659749127358374,0 10.23242683766439,46.65971387767102,0 10.232613704548644,46.65968697662623,0 10.232707707976017,46.659642920839005,0 10.232908153650735,46.65961568613814,0 10.233017842117148,46.65953236670477,0 10.233692379209185,46.65936967503771,0 10.233931957392231,46.65929281763471,0 10.234037649431334,46.65923335173937,0 10.23418612625026,46.6592124296178,0 10.234326205191627,46.65923130762635,0 10.234454306305778,46.65928143494708,0 10.234479485224767,46.65930313351762,0 10.234634188208535,46.65932165212465,0 10.234744498917323,46.65933118196445,0 10.234867220078732,46.65932504737959,0 10.235044983218481,46.65928396789277,0 10.235177715299812,46.65928214837442,0 10.235290231971943,46.65923331210447,0 10.235582419738614,46.6590591209238,0 10.235869266742018,46.658943371549455,0 10.235948353828897,46.65893566973459,0 10.236065196120991,46.6588896059855,0 10.236198785371824,46.65882702341053,0 10.236334055068777,46.658793464800404,0 10.236573330010375,46.658768869069064,0 10.236864352582721,46.65863285749126,0 10.237207038314676,46.65854524826256,0 10.237331046808396,46.65849709910252,0 10.237455236865586,46.65843141613224,0 10.237842612957762,46.658298073088986,0 10.237970965941185,46.6582524532703,0 10.238058408514295,46.658224387541075,0 10.238199709290319,46.65815149342473,0 10.238314085035498,46.65813860310352,0 10.238612559470331,46.658147228409284,0 10.23869903130172,46.658140782913655,0 10.238775803609773,46.65814897376767,0 10.238938413855276,46.65813849624059,0 10.239109566817294,46.65811125082853,0 10.239293514926587,46.658108886809494,0 10.239343490972068,46.65809973889532,0 10.239444362070646,46.658108776419986,0 10.239581008234344,46.658061501965484,0 10.239873325336264,46.65811190351872,0 10.239951179751502,46.6581409439231,0 10.24018369956734,46.658308718849405,0 10.240271935770132,46.65835969230245,0 10.240357214135042,46.658370552463296,0 10.240390378296135,46.658405011447,0 10.240488601800314,46.65844362891909,0 10.240596337701213,46.65844385776357,0 10.240726716837983,46.6584168932349,0 10.240810053004985,46.65828958077716,0 10.240817927616952,46.658184236211696,0 10.240693627159638,46.65806635223272,0 10.240660870660998,46.65801663126404,0 10.240705373184735,46.657926989089766,0 10.240756927065053,46.65789260536503,0 10.24079804541945,46.65784403046086,0 10.240838109896576,46.657830086461836,0 10.240869071814847,46.65780196857141,0 10.240950058553578,46.65777045995919,0 10.24101519133628,46.65775589904459,0 10.241101810527507,46.65771201346298,0 10.241266058905396,46.657652539355084,0 10.241411320356866,46.657630246972516,0 10.241628541803227,46.65762418064696,0 10.241708048798461,46.6576377868011,0 10.241893113463,46.65761667376575,0 10.242009426931233,46.65760085236131,0 10.242202365777876,46.65765081473248,0 10.242210309375839,46.657602386105026,0 10.242198145793491,46.657549413213474,0 10.242241453480766,46.657497234329334,0 10.242277314540676,46.65747387606662,0 10.24233908998643,46.6574752347197,0 10.242465063905811,46.65744405722264,0 10.242972579664649,46.65736892940201,0 10.243154845578472,46.657354362257124,0 10.243393661538251,46.6573009674226,0 10.243608189095472,46.657202816822185,0 10.243742777627153,46.657156307821076,0 10.243856922725989,46.65709878391203,0 10.244042018935582,46.6570380721761,0 10.24416341235481,46.65699682047119,0 10.24433056289816,46.65691279379076,0 10.244414192319134,46.65685170173282,0 10.244672661562484,46.65677406326407,0 10.244729288453758,46.656776987309385,0 10.244806695109531,46.65679739662174,0 10.244902635329906,46.65675183856893,0 10.244968273656648,46.65672037038094,0 10.245137627274728,46.65667876213042,0 10.24533121974684,46.656560247033596,0 10.245435951985446,46.65649877588416,0 10.24556583605486,46.65644230200744,0 10.245659274867368,46.65638888609234,0 10.24575409224446,46.65632175803276,0 10.245873084386865,46.65627707067273,0 10.246003634681164,46.65617349322361,0 10.246280487727164,46.65608747887611,0 10.246441739218085,46.6560107933625,0 10.246586884492652,46.656006494529095,0 10.246808987215253,46.65601397586002,0 10.247021599256076,46.65594780693096,0 10.247267756653546,46.65591509972375,0 10.247365934690066,46.655892521030076,0 10.247509102791845,46.65589042952335,0 10.247598101971185,46.65585223929315,0 10.247686994647497,46.65585220619664,0 10.247882614000117,46.65587329688751,0 10.247943748702637,46.655842272837745,0 10.247988600395486,46.65579581180752,0 10.248276952737097,46.6555691285599,0 10.248339811186332,46.65536699319273,0 10.248561605584847,46.65532840508911,0 10.2486743979561,46.655265150329825,0 10.24877790543816,46.655224441418994,0 10.248810236211243,46.655162452176064,0 10.248871216477822,46.65510839465176,0 10.248957273754066,46.65489318076323,0 10.249025431644895,46.654686162956665,0 10.249181595941629,46.65445731772753,0 10.24933279146449,46.65430816627084,0 10.249484393867922,46.654186695390464,0 10.249674688652773,46.65408553144594,0 10.249890423550516,46.653990938064176,0 10.25022623057364,46.65389265966229,0 10.250243004744268,46.65386180527067,0 10.250408725163396,46.65381091985849,0 10.250610026881084,46.653740438150884,0 10.25098030973708,46.65370177771167,0 10.251353386132548,46.65368203986004,0 10.251801535822906,46.65373288057629,0 10.251856066637837,46.65371569558987,0 10.25192216562675,46.6537198217556,0 10.251945372366352,46.653743724999316,0 10.25214213793465,46.65374678238735,0 10.252220400214926,46.65376356603076,0 10.252421409301396,46.65375822803129,0 10.252528386411203,46.65374406613797,0 10.252610414203629,46.653752837561186,0 10.252752110172834,46.65370254238282,0 10.252854632264658,46.65364887941914,0 10.25297216084356,46.65361645881498,0 10.253071124332699,46.653629130748755,0 10.253327701700309,46.65355583810804,0 10.253521735464984,46.65352656507758,0 10.25410093568142,46.653378874132144,0 10.254181768876645,46.65338479439509,0 10.254331035816215,46.653339349272805,0 10.254501303459664,46.653295544322084,0 10.254593170541336,46.65325016244193,0 10.254671314717696,46.65324463042313,0 10.25476056689692,46.65321146739515,0 10.254942686083204,46.65313425321553,0 10.25512365365089,46.65307506475468,0 10.255209183430372,46.65307078948716,0 10.255317497098872,46.65304219381311,0 10.255487510481677,46.652968129645686,0 10.255604222506479,46.6529602030776,0 10.255677957458131,46.65293030276902,0 10.25575837750671,46.652928313192376,0 10.255847403410607,46.652890835511364,0 10.255931732418384,46.65286355255466,0 10.25603366019395,46.65281279724747,0 10.256213030434887,46.65278316246525,0 10.256257625440066,46.65276881536062,0 10.256304092521674,46.65273742967612,0 10.256577202952265,46.65260036905641,0 10.256673582493207,46.652583585830925,0 10.256839792879816,46.65246212829123,0 10.256934231959914,46.65240995308756,0 10.25702020445375,46.65239414702977,0 10.25712331194278,46.65230592661776,0 10.257244705870127,46.6522474893158,0 10.257309964622939,46.652195480732665,0 10.257547942230293,46.65208664364704,0 10.257632200563755,46.65207807856472,0 10.25770825670075,46.65203768691156,0 10.257857053024427,46.65194329530612,0 10.257911941961282,46.65189298296398,0 10.257982134807222,46.65187540714758,0 10.258053897670793,46.65186787105152,0 10.258186177192925,46.651797644734685,0 10.258294141974513,46.65174241840659,0 10.258617469081015,46.65166602068433,0 10.258692165260955,46.65161300254689,0 10.259046958542083,46.65149838935428,0 10.25911189109804,46.65148022319617,0 10.259416273623657,46.651421570016076,0 10.259620159569376,46.65137749422304,0 10.259792550602672,46.6513545056767,0 10.260160518711416,46.65127195808511,0 10.26024205563635,46.651271377412804,0 10.260692121447452,46.65109896546233,0 10.260740718919244,46.65106247600459,0 10.26087182186821,46.65104986781851,0 10.261179588390593,46.650976008026944,0 10.261423287517372,46.65093685121227,0 10.261515484993915,46.65092016745346,0 10.261668954134219,46.65087532812306,0 10.261880562997836,46.650781681614305,0 10.262236467709247,46.650588561122355,0 10.262653255642874,46.65030358689962,0 10.262737577095503,46.65027629889953,0 10.262851291089437,46.650251161419405,0 10.263087160120412,46.650142364469346,0 10.26332298369514,46.65003767166698,0 10.263526794637727,46.64997574291803,0 10.26365629656252,46.64989262058885,0 10.263746356398896,46.64985511076913,0 10.263861819136034,46.64982344970803,0 10.263898032868143,46.64981607201655,0 10.26409845392922,46.64966564758854,0 10.26430542555334,46.649404014442865,0 10.264555759485708,46.649144604792944,0 10.264687621865397,46.649058123132846,0 10.264807152559989,46.64899026856957,0 10.265144828941676,46.648756721211676,0 10.265231425773468,46.648716402239955,0 10.265451169785557,46.64863537174921,0 10.265737576128226,46.64851451643013,0 10.265834601135799,46.648466831038384,0 10.266231037088057,46.648350876081096,0 10.266522867867973,46.64824896857722,0 10.266597092544002,46.648226513646954,0</coordinates></LineString></Placemark></Document></kml>