<kml xmlns="http://www.opengis.net/kml/2.2" xmlns:gx="http://www.google.com/kml/ext/2.2" xmlns:xsi="http://www.w3.org/2001/XMLSchema-instance" xsi:schemaLocation="http://www.opengis.net/kml/2.2 https://developers.google.com/kml/schema/kml22gx.xsd"><Document><name>Dessin</name><Placemark id="drawing_feature_1748764105592"><name></name><description>17 Margunet</description><Style><LineStyle><color>ff0000ff</color><width>3</width></LineStyle></Style><ExtendedData><Data name="type"><value>linepolygon</value></Data></ExtendedData><LineString><coordinates>10.210690840581572,46.663844714436436,0 10.210926920431543,46.66378548116319,0 10.211055871228508,46.66375408496374,0 10.211218313830932,46.66371783655827,0 10.211348419084961,46.66368035672985,0 10.211456864171577,46.66361228650479,0 10.21167783994241,46.66351607932178,0 10.21195045799155,46.663425678533336,0 10.212089885849467,46.66336980542774,0 10.212278303153376,46.663251400543245,0 10.21236539886831,46.66320487510985,0 10.212419551079961,46.663116765855904,0 10.212495391412107,46.663079597097095,0 10.212497678376895,46.66300990727502,0 10.212519618916286,46.662980106385824,0 10.212586498072621,46.66296838558544,0 10.212859858922057,46.662949616927925,0 10.21294583646025,46.662938439924574,0 10.213297981632776,46.66285417202209,0 10.213447078203023,46.66281521791314,0 10.213701975794663,46.66277974075525,0 10.213939299098628,46.66269176757744,0 10.214272705292352,46.66261400834198,0 10.21430984252172,46.66253741393458,0 10.214356688914108,46.66250700566529,0 10.214726006670332,46.662500022425526,0 10.215011522888942,46.66242508081987,0 10.21507679360431,46.662382112790816,0 10.21510670734244,46.66230771251039,0 10.215185319413195,46.662267446784625,0 10.215279567786702,46.662245974394196,0 10.215451713479876,46.66225590599522,0 10.215631444142852,46.66227069836744,0 10.21573824897418,46.662246398003965,0 10.216054755817533,46.66215390763568,0 10.216198856735057,46.662046446564275,0 10.216300805914818,46.662003592436776,0 10.216486785270565,46.661968780595416,0 10.216854995748209,46.661854843043855,0 10.216952587844421,46.66184136121258,0 10.21714560732882,46.661857845334495,0 10.217218176133503,46.66187121280871,0 10.217400485612163,46.66185061766619,0 10.21757721849175,46.661778689517355,0 10.217863818714877,46.66161829859859,0 10.217947122352546,46.6616122289407,0 10.21812879565233,46.661607795263336,0 10.218429853124258,46.661528794647005,0 10.218629138270758,46.661499204977375,0 10.21886386103309,46.66138549145417,0 10.21898226324262,46.661405812388494,0 10.219208142837882,46.661547640081416,0 10.219290385022706,46.66157792629136,0 10.219346295844256,46.66163812200511,0 10.219470340137,46.661682525364064,0 10.219566402860977,46.661696326839326,0 10.219582218941692,46.66166162804021,0 10.219537728460836,46.661566840993395,0 10.219595506369616,46.66140698670106,0 10.21965853949391,46.66132067523139,0 10.219770261698624,46.661296753929506,0 10.21985235901945,46.66129575830501,0 10.21990367838545,46.66132377165601,0 10.219951589024994,46.66137104295024,0 10.219957011914557,46.66141935181921,0 10.220039450962151,46.66148192689674,0 10.220080889147843,46.66148898844684,0 10.220205808437267,46.66143648701407,0 10.22024632296182,46.66139714808078,0 10.220367937118715,46.66136592025413,0 10.220411048151984,46.661376977567905,0 10.220588792898177,46.66138171868518,0 10.220822502124888,46.66142415870336,0 10.221020685305454,46.66148390551756,0 10.221227794811629,46.661460679944746,0 10.22129924119953,46.66144167712353,0 10.221450304827373,46.66137321462901,0 10.22152337467992,46.66132504959888,0 10.221618122681976,46.66129154815792,0 10.221665101371975,46.661278405478114,0 10.221807264707827,46.66128532678536,0 10.221880721892486,46.66131231885668,0 10.221857891913867,46.66138804364754,0 10.221830022666934,46.66141111486248,0 10.221751601488018,46.66146820692065,0 10.22171509558171,46.661526673602786,0 10.221611924806652,46.661577173565604,0 10.22145803681055,46.66165849963219,0 10.221395241688066,46.66172560503027,0 10.221497737956549,46.66170710763325,0 10.221567507074726,46.66173019184197,0 10.221634591967499,46.6617237546973,0 10.221751669616637,46.66174008519548,0 10.221935024778915,46.661689224851884,0 10.222246397106383,46.6615677469004,0 10.222420793434091,46.66152350187037,0 10.22254248107523,46.661516529131966,0 10.223106403999115,46.66131722481741,0 10.223225897616322,46.661336290476704,0 10.223307879064258,46.66141585003515,0 10.223315983012856,46.66148282226762,0 10.22336960901045,46.66155347931826,0 10.223388168562064,46.66159780577684,0 10.223505010544253,46.66175297990255,0 10.223700150745373,46.662178418447745,0 10.22378805864372,46.66237001505422,0 10.223812038023752,46.66245179236062,0 10.223860115487957,46.6625049926392,0 10.223906838713665,46.66264458796472,0 10.2240447699512,46.66287203690095,0 10.22407882846912,46.663030219763144,0 10.2242606786892,46.6634231970097,0 10.224345274149599,46.66359880673125,0 10.224385501217467,46.663702576669074,0 10.224543038155893,46.66389463698775,0 10.224871456244756,46.66413049332739,0 10.225127408129122,46.66424737732673,0 10.225299043839856,46.6644821267564,0 10.225366242321364,46.66452286392884,0 10.225849024429193,46.664687772568065,0 10.226162272405704,46.6647338770963,0 10.226349993038218,46.664812445989625,0 10.226538722367081,46.664843011008365,0 10.226588472589532,46.6648609847613,0 10.226703631212926,46.664952524303835,0 10.226777714591766,46.66499149288151,0 10.226910722695681,46.665041714129515,0 10.22735127699817,46.665154073987,0 10.227427270522545,46.66518499885103,0 10.227560464615049,46.665288090735864,0 10.227615926168966,46.665419270186376,0 10.227702517368172,46.665520304555564,0 10.22790975129675,46.665683955561015,0 10.228013768847784,46.66573978255016,0 10.228301542246719,46.66621121293888,0 10.228305746544361,46.666257853718676,0 10.228380653041228,46.66633518427591,0 10.228508330630474,46.66646639796445,0 10.22859963599019,46.66663608600067,0 10.228741109503504,46.66679726738941,0 10.22893081267296,46.66695894721407,0 10.228984745441533,46.66701280176,0 10.229036155022154,46.66704032968001,0 10.229105052163144,46.66711380877118,0 10.22933796434076,46.66753586719266,0 10.22941558217644,46.66787736096222,0 10.2295575045046,46.66812657268624,0 10.22974716769442,46.66835096338865,0 10.2298271870118,46.66839218356617,0 10.230126766205496,46.66863273329187,0 10.230283603433119,46.66877705233747,0 10.230396523813045,46.668937413230324,0 10.23047814275049,46.669044999280985,0 10.230480562265145,46.66918168006027,0 10.23055057953505,46.66927672147376,0 10.230631225672719,46.66942626650873,0 10.230668605624892,46.66954209908501,0 10.230661980592606,46.669706189649105,0 10.23071332739157,46.66978480907203,0 10.230774689979697,46.66982488667344,0 10.23078740313411,46.66991333615889,0 10.230869781826103,46.67021568786397,0 10.230961981274184,46.67033497441286,0 10.230982739852827,46.67042162734825,0 10.231041125157898,46.670734516866695,0 10.231206424777097,46.670895991918044,0 10.231228923497822,46.670993797250766,0 10.231270138230693,46.671055213732146,0 10.231278947873772,46.671180542760716,0 10.231310950409156,46.671237332937196,0 10.231325115240486,46.671331344301905,0 10.231471992458413,46.67161031575773,0 10.231534469457074,46.671694346401445,0 10.231577839702782,46.67172366972396,0 10.231623974847896,46.67182889194653,0 10.231723429257483,46.67191199954214,0 10.231736546097142,46.67207560611949,0 10.231837991323696,46.67227830933198,0 10.231845611589419,46.67233569725814,0 10.231933961434239,46.6724478806992,0 10.232008827646833,46.67259097334045,0 10.232016737472168,46.67265395168539,0 10.23209820791227,46.67274551283166,0 10.232141902455105,46.67282600557107,0 10.232288269024002,46.672935966371114,0 10.232357906711949,46.67304011909433,0 10.23238948717209,46.67315609343668,0 10.23242899991111,46.673200704423756,0 10.232483765594546,46.67329292028542,0 10.232645403114386,46.67350396314285,0 10.23271796578114,46.67355815883829,0 10.232757637439603,46.673650744793136,0 10.232785580684936,46.673696439085354,0 10.232863129128903,46.67375878283681,0 10.233137753734704,46.67394316252432,0 10.23326044739616,46.6740449067414,0 10.23331847381407,46.67407120978076,0 10.233515068447508,46.674163144146966,0 10.233686608503264,46.674310069227296,0 10.233782107057788,46.67435810397688,0 10.233944035580771,46.674465686240694,0 10.234039162273747,46.674506533023596,0 10.234190882311289,46.67465234445416,0 10.234453429690962,46.67485797865087,0 10.234736957863477,46.67506851061688,0 10.234846338545161,46.675227355239365,0 10.23499506811885,46.675398993059545,0 10.234999870761342,46.67546924445937,0 10.235063516379936,46.67557563493777,0 10.235180124090398,46.675649538870765,0 10.235115793550163,46.67573188281456,0 10.235124282234016,46.675761668012655,0 10.235179807532926,46.67580108711367,0 10.235187268820098,46.675832889963736,0 10.235163874516802,46.675875046134,0 10.235165276496263,46.67594698027915,0 10.235191940170697,46.67596791628895,0 10.235233701789323,46.67596609143503,0 10.235284998845112,46.67599122057792,0 10.23528619899652,46.67601438100699,0 10.23532219358812,46.67603588756492,0 10.235362451012351,46.67613965348668,0 10.235507946787456,46.676362688951805,0 10.23578653722378,46.67651098109122,0 10.235849260168074,46.676583179670835,0 10.236114582526115,46.67672220103727,0 10.236457600750432,46.6769706579063,0 10.236556002820192,46.677096984963114,0 10.236625837759222,46.67714324885199,0 10.236753266828156,46.67729890964588,0 10.236824677538058,46.677353131213536,0 10.236860425341982,46.677369845485906,0 10.236945116702872,46.67745620389351,0 10.236969335058646,46.67747480064078,0 10.23696273519355,46.67754933031165,0 10.23700901179301,46.67763455592573,0 10.237074413339203,46.677640146243206,0 10.237154167194916,46.677608600000184,0 10.23722570612182,46.67762043666326,0 10.237252871619056,46.67760617525271,0 10.237314125326085,46.677621463122,0 10.237426264504943,46.677483707232504,0 10.237460361881846,46.67737891483395,0 10.23743756078672,46.67725313007755,0 10.237466881244131,46.67725800729595,0 10.237686964744743,46.67739893626543,0 10.23784480284898,46.67748301972363,0 10.237940724884703,46.677539037316656,0 10.23800923594984,46.67755974406652,0 10.23802719295245,46.67756969826912,0 10.237911896060837,46.677633304920086,0 10.237880747222512,46.677682849046576,0 10.238028721900777,46.6776664185357,0 10.23803448547489,46.677687867514166,0 10.237858706549611,46.677818326683216,0 10.237893709179268,46.67782066518063,0 10.238029284768176,46.67778934596777,0 10.238266259028443,46.67778512192515,0 10.238344394036227,46.677767208675476,0 10.23840862860594,46.67775638068393,0 10.238637805466416,46.67775874465773,0 10.238967301586937,46.67783460918203,0 10.239117930268083,46.67782450925354,0 10.239146918539534,46.67784538723668,0 10.239120748365197,46.6778788163036,0 10.238655778620835,46.67803597795659,0 10.238510915161276,46.67802274564382,0 10.23844538532046,46.6780819310911,0 10.23837847347707,46.67812786189531,0 10.238348154685564,46.678170988541964,0 10.238374113981102,46.67822312756283,0 10.238441420061916,46.67831023480885,0 10.238586682518838,46.678424731441716,0 10.23877015430153,46.67853217326234,0 10.238845759633692,46.678532713874034,0 10.238843651030551,46.6783800321972,0 10.238870567845602,46.67836097857966,0 10.238934809266246,46.678366596399016,0 10.239238761809501,46.67844308812225,0 10.239469273696262,46.67845992617273,0 10.239795705868344,46.67854386029135,0 10.23991004699469,46.67855144427109,0 10.240007549773642,46.6785706373494,0 10.240197910451753,46.678631527719865,0 10.240384767645708,46.67865997280523,0 10.240528223784827,46.678623658906844,0 10.240621290020126,46.67857978804627,0 10.24103768038213,46.67849277936903,0 10.24113402237345,46.67848960976016,0 10.241255413869766,46.67845383770783,0 10.241326057090504,46.6784511281919,0 10.241426877800793,46.67842225924883,0 10.241844386542446,46.678423981511685,0 10.241953294992717,46.67843889405115,0 10.242062037050287,46.678428221646975,0 10.24222834396185,46.67842892693724,0 10.242370469900546,46.67834466424015,0 10.242384030530967,46.678292353054125,0 10.242528149317721,46.67831359527327,0 10.24276682362326,46.67836289678169,0 10.242795605699595,46.67835739042689,0 10.242773332582638,46.67828676952263,0 10.242710352464078,46.6781273685014,0 10.242715327437116,46.67806647243914,0 10.242660704745377,46.6779550657881,0 10.242605799918145,46.67790716290982,0 10.242583610221706,46.677838139209356,0 10.2425218142973,46.677767691406956,0 10.242399924137844,46.677659539541764,0 10.242392269641623,46.67760258666079,0 10.242439754942142,46.67757662869611,0 10.242602200713351,46.677525450990196,0 10.242540777629943,46.67741741030267,0 10.24251892061334,46.67737716593599,0 10.242548613153874,46.67732205869547,0 10.242485448109527,46.67720286570801,0 10.242451645650702,46.67708934724239,0 10.24246075000493,46.676991941070725,0 10.242457549688494,46.6768631994052,0 10.24243950861943,46.67682925833823,0 10.242487654837529,46.67672651735581,0 10.242423750618633,46.67665712820747,0 10.242424786238086,46.67660992319031,0 10.242471938207055,46.676555185913756,0 10.242537794261535,46.67652477749198,0 10.24256466735575,46.67650492436916,0 10.242518508500055,46.676466877482845,0 10.242347935314994,46.67642869403944,0 10.242329106705059,46.67640196922071,0 10.242421089966996,46.67638211299304,0 10.242476785486675,46.67635755225308,0 10.242558318300857,46.67636034338757,0 10.242679496152348,46.67629818632868,0 10.242764253688803,46.67624902747247,0 10.242864030066464,46.67613302061108,0 10.242969531239634,46.676082444336295,0 10.24302617918368,46.6760314712086,0 10.243086186818696,46.67600040685073,0 10.243240416802772,46.67597022128096,0 10.243296942442058,46.67598402307604,0 10.243360600438768,46.67597845751643,0 10.243395704397344,46.67595398420186,0 10.24346458623412,46.67591470454298,0 10.243409753857573,46.675732134221136,0 10.24348197003085,46.67561293810708,0 10.243653863427967,46.67554233441592,0 10.243751398223766,46.67545037147823,0 10.243716764107317,46.675320880764126,0 10.243727872297287,46.67519905981627,0 10.243657761585812,46.6751343783726,0 10.24370229686037,46.675051717059645,0 10.243755252035298,46.674996836251836,0 10.243827452034814,46.67499905662173,0 10.243879994120931,46.67498097000235,0 10.243958953609305,46.674979025549796,0 10.244014853392008,46.67493606694448,0 10.244034133072875,46.674859624988514,0 10.243990496297432,46.67466878267987,0 10.244024704934013,46.67458877447905,0 10.244169554351958,46.67449004825861,0 10.244243327385226,46.674455445548304,0 10.244273225562834,46.674426721310574,0 10.244331282281003,46.67440290105757,0 10.244443128312502,46.67442973348305,0 10.24458674074122,46.67446377979132,0 10.24462481267031,46.67450282472061,0 10.244806288578951,46.67454953229552,0 10.244914897583586,46.674536461281185,0 10.245051459107092,46.67454669114755,0 10.245180143456361,46.67458430315378,0 10.245317573847126,46.67456652336065,0 10.245189301379268,46.674492117258026,0 10.245084018306741,46.67429690873939,0 10.245037939454726,46.674215679474734,0 10.244998679709795,46.67410725661728,0 10.244853775956,46.67398128231243,0 10.244805666185801,46.67390570061161,0 10.244908758832192,46.67389836307588,0 10.245057425301038,46.67387310988839,0 10.245457857406167,46.673904825999884,0 10.24555978403988,46.6739141715182,0 10.245686886912592,46.673899044721495,0 10.245844968665738,46.673898347771335,0 10.246136625906919,46.67391754854544,0 10.24621649965056,46.6739555627397,0 10.24632618967231,46.67398564503697,0 10.2464097155343,46.67404915802884,0 10.246452500678544,46.67393295309769,0 10.246477284791496,46.67386259511942,0 10.246448578334856,46.67380653985288,0 10.246351144684056,46.673704841313686,0 10.246327917585106,46.67366063313932,0 10.246345450717216,46.67357303859811,0 10.246235965837005,46.673451544378246,0 10.246216920105825,46.673331265867986,0 10.246075653579897,46.67316271487236,0 10.245981841398743,46.673057873133914,0 10.245911325188215,46.67284210489269,0 10.245849552883044,46.672715029805374,0 10.245840997947148,46.67257290207518,0 10.2458882180363,46.67243019945185,0 10.24577072641866,46.6722947545655,0 10.245426548604252,46.67222847594028,0 10.245235865644355,46.672071644063806,0 10.24515698691338,46.67198562551195,0 10.24517614089819,46.671929177757484,0 10.245009188155382,46.67189330839514,0 10.244890134411717,46.67190663695096,0 10.244821800651678,46.67182404582874,0 10.244681509155258,46.67174193886253,0 10.24451152796859,46.671670158890926,0 10.244448580952218,46.671689301812286,0 10.244398372572235,46.67184167324923,0 10.24432140246942,46.671747610550064,0 10.244242430942926,46.67161322444191,0 10.244243173027412,46.671538038625286,0 10.244278291189346,46.67145320992716,0 10.244342603952393,46.67139325109735,0 10.244395966025786,46.6712791854288,0 10.244402384692913,46.671134289872995,0 10.244383610412774,46.671063792361856,0 10.244158016683459,46.67086143876339,0 10.244055344831684,46.67064491299857,0 10.244058282426945,46.6705224935429,0 10.244024070460055,46.67049055028335,0 10.243804505511168,46.67053833943058,0 10.243798531970544,46.670490507274614,0 10.243798507405298,46.67035272629819,0 10.243785192815661,46.67027548773036,0 10.243819108428333,46.670189889138065,0 10.243838136410119,46.67008626510257,0 10.243685952664224,46.66983628593737,0 10.24354927182927,46.669666926461986,0 10.243413027315917,46.66954662844148,0 10.24315767298798,46.66939778305972,0 10.243020569018146,46.669252503173794,0 10.242907943898555,46.66914332444554,0 10.242744814848313,46.66906897442943,0 10.242688092631523,46.6690261052759,0 10.242574929886336,46.668928934311886,0 10.242500954164305,46.668892371935414,0 10.242385802882879,46.66884642758083,0 10.242560455139643,46.66880694357863,0 10.242889110743404,46.668778061626995,0 10.242657314637757,46.668657422808515,0 10.242573592650462,46.66857496154403,0 10.2424220341324,46.6684771362687,0 10.242289799299117,46.66839322901245,0 10.242216951908619,46.66832636485315,0 10.242083886955378,46.66815931378107,0 10.241987519607207,46.66800495347266,0 10.241924496532727,46.667949150089385,0 10.241726168930967,46.667890858464695,0 10.24171269242045,46.66785520570225,0 10.241811460795482,46.667764813076346,0 10.24186125940136,46.667716407898084,0 10.241865985701692,46.66767311030023,0 10.241824271697466,46.66763095556786,0 10.24160513672285,46.667544988029455,0 10.241559193550565,46.667510933816764,0 10.241632378272397,46.66746515186357,0 10.24189161357062,46.66737560800834,0 10.241727535354249,46.667253125013396,0 10.241551145191135,46.667191894253,0 10.24148388145801,46.667137139543684,0 10.241361602365936,46.66695382923419,0 10.241370931519965,46.66688722842024,0 10.24130168638546,46.666852148241205,0 10.241511743020988,46.66677820906879,0 10.241586883627448,46.666743913356605,0 10.241713430627167,46.66662884752546,0 10.241826211433231,46.66653970929612,0 10.241952716648942,46.666468625150266,0 10.242077729203272,46.666413570696236,0 10.242150290582812,46.666400589499645,0 10.242057307118678,46.66635404717874,0 10.241823699826588,46.66631021830186,0 10.241636491145915,46.666309228070574,0 10.24167501047926,46.66626749775257,0 10.241786505780354,46.666220772810654,0 10.24183058126331,46.66619649809245,0 10.241933908685139,46.66619395498788,0 10.24207853264719,46.66613601884688,0 10.242143546649208,46.666089637963914,0 10.242222120868213,46.666125287610825,0 10.242382419054794,46.66612294104142,0 10.24227382466048,46.666068838791155,0 10.242212000710682,46.66597520169145,0 10.24216187095264,46.66595004702276,0 10.242110786808992,46.66588413350099,0 10.242048591168208,46.66585047960334,0 10.242042951853092,46.66583142672967,0 10.242088602683896,46.66581510966219,0 10.24215448779792,46.66580789035671,0 10.242285470726255,46.66582305820915,0 10.242394228876343,46.66581318409964,0 10.242418153432867,46.66582618927545,0 10.24245684061705,46.66589960474904,0 10.242637123985782,46.66592395407155,0 10.242713667451357,46.66598764129243,0 10.242753555435645,46.66599465580282,0 10.242773539637307,46.66595418108116,0 10.242737463702996,46.66586390864387,0 10.242743723059515,46.66580537979488,0 10.242700381313535,46.66569549638555,0 10.242747481274595,46.66561757000448,0 10.242726872231396,46.66555650400448,0 10.242715582797365,46.66525449013414,0 10.242707564165613,46.66516556939491,0 10.24261053793189,46.66504321207756,0 10.24251351320343,46.66496563526848,0 10.242493276284529,46.66484458604154,0 10.242390388544637,46.66468132883332,0 10.242312967217078,46.6644803329704,0 10.242280540854251,46.664348388607756,0 10.24215772964059,46.66416903952801,0 10.242089066118627,46.66403318916335,0 10.242036415816049,46.66377944156273,0 10.241975797648871,46.66370896476244,0 10.241875293611114,46.66365386337909,0 10.241768234665551,46.66357032155868,0 10.241729508983621,46.66351849752023,0 10.241658567359355,46.663428283262036,0 10.241532316888655,46.6633922073313,0 10.241420329461878,46.663384567859595,0 10.241354478338785,46.663326339647824,0 10.241293322571194,46.66326787056389,0 10.241263843319517,46.663215019164674,0 10.241196966169953,46.663180680434245,0 10.241020256499166,46.66314502729655,0 10.240954250346327,46.663149850050445,0 10.240816515850431,46.66313884520372,0 10.240675920689913,46.66313990533271,0 10.240600336989408,46.66311697566099,0 10.24045078700776,46.66305748215685,0 10.239974815253694,46.662969835983944,0 10.239736040242509,46.66298290571969,0 10.239658550385512,46.66294562853152,0 10.239499298864617,46.66292315649174,0 10.239209967845113,46.66282316535622,0 10.239124642225514,46.662791678052486,0 10.238991221440031,46.66277416773082,0 10.238850421951007,46.66272645186443,0 10.238605186085932,46.662646776270144,0 10.238387932067909,46.66262652830467,0 10.238130670205162,46.6625744776639,0 10.23801545070001,46.662571712217016,0 10.237848784581853,46.66251414649095,0 10.237671707547875,46.66248411357008,0 10.237520377429457,46.662457445886524,0 10.23738820022805,46.66246389275443,0 10.237278828407831,46.662439392192915,0 10.23711738518854,46.662374589211936,0 10.236960415116197,46.66237364827352,0 10.236520764121545,46.66232220339892,0 10.23641454266851,46.66231361769595,0 10.236329794958124,46.66233808984869,0 10.236157151871142,46.66234872792894,0 10.236027699679857,46.66247505406571,0 10.235681948057701,46.66268313214359,0 10.23553180201834,46.662778915860315,0 10.235181781177396,46.66284348668662,0 10.235049395897288,46.662845937649585,0 10.23483483902908,46.662810423320636,0 10.234668539107215,46.662808908637025,0 10.234535817391158,46.66284975047268,0 10.233682493213148,46.66275332130978,0 10.23350073266123,46.662722597238414,0 10.233184548205797,46.66274474969714,0 10.233040574117998,46.66273305901282,0 10.232887258026542,46.66269044093143,0 10.232727104200114,46.66262799912418,0 10.232575764678225,46.662550229105285,0 10.232340501558939,46.66238407542468,0 10.232173352396138,46.66225016847452,0 10.232074421091164,46.66214721275277,0 10.232005789166784,46.661988965984335,0 10.231847068682317,46.661826366576506,0 10.23177576614034,46.66177373909061,0 10.231542008362805,46.66156916375809,0 10.231412046475583,46.66148358959313,0 10.231275731256263,46.66143526432708,0 10.23123945865113,46.661408165997294,0 10.231076451811592,46.661335396490905,0 10.230893458261088,46.66128070906052,0 10.230649099239129,46.661253114706014,0 10.230509008827642,46.66124135565085,0 10.230313457089702,46.66119409199672,0 10.230047583812631,46.661155028898825,0 10.229968685173512,46.661157762384384,0 10.22983131195968,46.66104118178285,0 10.229767064977176,46.660967589287004,0 10.229763467875518,46.66092049808784,0 10.229705732221625,46.660837949839376,0 10.229663982110132,46.66083977258944,0 10.22957372304608,46.66084758215966,0</coordinates></LineString></Placemark></Document></kml>