<kml xmlns="http://www.opengis.net/kml/2.2" xmlns:gx="http://www.google.com/kml/ext/2.2" xmlns:xsi="http://www.w3.org/2001/XMLSchema-instance" xsi:schemaLocation="http://www.opengis.net/kml/2.2 https://developers.google.com/kml/schema/kml22gx.xsd"><Document><name>Dessin</name><Placemark id="drawing_feature_1759241260615"><name></name><description>20 Mot Tavrü</description><Style><LineStyle><color>ff0000ff</color><width>3</width></LineStyle></Style><ExtendedData><Data name="type"><value>linepolygon</value></Data></ExtendedData><LineString><coordinates>10.326655562002498,46.71763493477417,0 10.32662068773524,46.7176036102295,0 10.326591401167144,46.71749430803753,0 10.326592885645175,46.717376174323626,0 10.32678573213206,46.7171401995901,0 10.326971827783517,46.717005310650734,0 10.327059478549302,46.716938053954955,0 10.32711787321339,46.716825188306096,0 10.326829829692908,46.716645180901544,0 10.326709380314211,46.7165838162831,0 10.326609711608636,46.716582315171436,0 10.326097426581,46.71678853981589,0 10.326048662054047,46.71682600889691,0 10.325909835172766,46.71685904897151,0 10.32587632514336,46.71685318767828,0 10.32577097494937,46.71678204571135,0 10.325512370684503,46.7166612968911,0 10.325347071151562,46.71660106665243,0 10.325284095271996,46.716591925278124,0 10.325183337154273,46.71660655454087,0 10.325101577608779,46.716611308668746,0 10.325002039095374,46.716648720852405,0 10.324897967960142,46.71663793574097,0 10.324822215572599,46.71660898761204,0 10.32487584023199,46.71651637399708,0 10.324865387358985,46.71641393007461,0 10.32484723857876,46.716379203640074,0 10.3248484086751,46.71635758264458,0 10.324808582223895,46.716287419350174,0 10.324789824454239,46.71615434762414,0 10.324763975128256,46.71610313480595,0 10.32461390251046,46.71599497873713,0 10.324253572002675,46.71579999317561,0 10.323939453853853,46.71567039887256,0 10.32377063865753,46.71562509124193,0 10.323664597203539,46.715513420636576,0 10.323530998345213,46.715410708872234,0 10.323430904360896,46.71533998612111,0 10.323416670061574,46.71531315719906,0 10.323178855595431,46.71508726773187,0 10.32314447548774,46.714916365513695,0 10.323139948508754,46.71472295751329,0 10.32309782769126,46.714588077730234,0 10.323048823227495,46.71438754367738,0 10.322983378051749,46.71425165461429,0 10.322975328653287,46.7141041803257,0 10.32292215308971,46.71395838462576,0 10.322799507578726,46.71384073598906,0 10.322725939376307,46.713784947713116,0 10.32269571225808,46.71372013868037,0 10.322735631370703,46.71355279531729,0 10.322643797458166,46.71345105819152,0 10.322517575460763,46.713244735347125,0 10.322453431043018,46.71301379394571,0 10.32232605287477,46.71274023470698,0 10.32228971162394,46.71258281740712,0 10.322207767370275,46.712445864781174,0 10.3219610961761,46.712141028828924,0 10.321899870180085,46.711996904221145,0 10.321777667469421,46.71186564889879,0 10.321741569132433,46.71178799559758,0 10.321728721153328,46.71174353850887,0 10.321641571715961,46.711658577566304,0 10.32162799812764,46.71160054427662,0 10.321660199505665,46.71157174106444,0 10.321768883007405,46.71151541369986,0 10.321913734882491,46.711448163926896,0 10.321921535777792,46.7114199778159,0 10.321891439191784,46.71135756439412,0 10.321629675400859,46.711140274775914,0 10.321522071493991,46.71100736305928,0 10.321417281658595,46.710918849730895,0 10.321290832844522,46.71082164890729,0 10.32111907586845,46.71065566051744,0 10.321051141664938,46.71059613287002,0 10.320909428907145,46.71051335084635,0 10.320705837700293,46.7104265354407,0 10.320539322800247,46.71038036562155,0 10.320458607444026,46.71035041910678,0 10.320210052510774,46.71021262519383,0 10.320107357001023,46.710163242100926,0 10.319843568830251,46.70998950842612,0 10.31960889693242,46.70984350083696,0 10.319535173757425,46.7097810879958,0 10.319387057160185,46.70960010551737,0 10.319306024952537,46.70950628506069,0 10.319163421974562,46.709406730226476,0 10.319013166121795,46.70929457376968,0 10.318833261612168,46.709153267692365,0 10.318752004337878,46.709004181574976,0 10.318705966783606,46.70879066864778,0 10.318653735699241,46.70868403172158,0 10.318386774596316,46.70832532345653,0 10.318129184844791,46.70800994406085,0 10.318028411072978,46.707775009330256,0 10.317964473148752,46.70770158580184,0 10.317726927488877,46.707566842790065,0 10.317630005822664,46.70751651209226,0 10.317421467089437,46.70732975169035,0 10.317208591244077,46.70709042638642,0 10.316977210478397,46.7068324429245,0 10.316831936352706,46.70673585063452,0 10.316769712139687,46.7066598530824,0 10.316742342342671,46.706582975409766,0 10.316649494008683,46.70645670158993,0 10.316506872840876,46.7063347532283,0 10.316193726343787,46.706134743028,0 10.316004761416007,46.706015267061865,0 10.31591002048232,46.70591849862646,0 10.315822742523675,46.70578715561262,0 10.315664179179032,46.70565558070384,0 10.3154626445867,46.705475942032244,0 10.315309918123202,46.70527347981368,0 10.315179340977659,46.70505980431724,0 10.314927016871765,46.70474619669826,0 10.3147671387849,46.70450954207859,0 10.31469844626107,46.704384888933134,0 10.314592062446366,46.70426602234051,0 10.314428600875928,46.70418937942088,0 10.314289366330259,46.70410892626895,0 10.314141579930128,46.70408626557752,0 10.314038510392704,46.70403140237766,0 10.31382331415996,46.70383531251378,0 10.313682306257059,46.70369972570557,0 10.313617383409605,46.70361659757949,0 10.313532200119967,46.703465341571345,0 10.313434250821508,46.703351858990914,0 10.313268112429181,46.703224902389664,0 10.313113663715182,46.70301943774903,0 10.312924075412525,46.70282350015687,0 10.31277478467452,46.70273480137566,0 10.312720519870423,46.702676993673954,0 10.312678293928006,46.702561305641545,0 10.312622680455036,46.70243460273964,0 10.312569220687106,46.702326395032834,0 10.312474351797384,46.70224881952222,0 10.31237400198659,46.702199370836965,0 10.312331273478014,46.7021394356121,0 10.312326629184776,46.701921240875485,0 10.312168985546315,46.70161594224259,0 10.31211661713149,46.701484516228106,0 10.312140649713937,46.701302383544146,0 10.312113643752618,46.70122074603593,0 10.312030862419254,46.70115166186489,0 10.31200505676255,46.70099477613252,0 10.311994605019189,46.70070442596605,0 10.312015597346413,46.70063992254242,0 10.31214723742123,46.700381506534335,0 10.312163699743051,46.700296149597,0 10.312155819973421,46.70023557279801,0 10.312083436302611,46.70012144464787,0 10.312038080405502,46.700045264207965,0 10.311940376386218,46.699827016659526,0 10.311900864957806,46.69965016122015,0 10.311787268594108,46.699461102594796,0 10.31167928039486,46.69923292003946,0 10.311569212417961,46.69900962421654,0 10.311436750402123,46.69885942537502,0 10.311362308448182,46.698757300732304,0 10.311293767063942,46.69862788144244,0 10.311162600910846,46.69844992494129,0 10.311150456602237,46.69833107921655,0 10.31110860866923,46.69830974306153,0 10.31106061449187,46.69834773788991,0 10.31105115712098,46.698541498063946,0 10.310988567863536,46.69866748118375,0 10.31092404690512,46.69891940615118,0 10.31084596260158,46.69915302668104,0 10.31079995208777,46.699250147421274,0 10.31080913310051,46.69929149924814,0 10.31085724398346,46.69934306537991,0 10.310951775490746,46.699438981276884,0 10.310953527930954,46.69945004677053,0 10.310947820058558,46.699495772192456,0 10.310894072453902,46.69951312032373,0 10.310752121980608,46.69946871717609,0 10.310587376146692,46.69940010370124,0 10.310431782735295,46.699296068239654,0 10.310358214685616,46.699225151484576,0 10.310329795053246,46.69912830705717,0 10.31020458600344,46.69878315984828,0 10.31013603254588,46.69860975803204,0 10.310006950680517,46.69843404590867,0 10.30985106730391,46.69828259461276,0 10.309765672509887,46.69820797706538,0 10.309722011690146,46.698130708764765,0 10.309666479968351,46.69811451490279,0 10.309619830674327,46.69813408265478,0 10.309606344440562,46.69816481009768,0 10.309617890295486,46.698272475566135,0 10.309577998260878,46.69835344814153,0 10.309407388983434,46.69852828200597,0 10.309135931450598,46.698891775315055,0 10.308986602068039,46.69913814459352,0 10.308915031971678,46.69923590826185,0 10.308885706217827,46.69934060473529,0 10.308845052718143,46.699434982341764,0 10.30872882804276,46.69958984779977,0 10.30870014000032,46.6996409498214,0 10.308696767006236,46.69973059846388,0 10.308659465288914,46.69979471225368,0 10.30857402070816,46.69987669424593,0 10.308514434519045,46.69993737069171,0 10.308507078639748,46.700127079127675,0 10.30843141190251,46.700235341399484,0 10.30815280288739,46.70020015645912,0 10.307857201411387,46.70011003842341,0 10.307848914691215,46.70008545711958,0 10.307880649219843,46.7000478730471,0 10.307850730198737,46.70001024192605,0 10.307805821982974,46.69999697836012,0 10.307771978447649,46.69997304039834,0 10.3077634792509,46.69994446604883,0 10.307693468983985,46.699896648633306,0 10.30768340779261,46.699843061444994,0 10.307622958492423,46.69984378356191,0 10.307617732142743,46.69981112842372,0 10.307554509559877,46.69971595924907,0 10.307575491853553,46.69967304816776,0 10.307531028758008,46.699597150344424,0 10.307422219362527,46.69947593970125,0 10.307368872921545,46.69934773511511,0 10.307347993140946,46.699305078226054,0 10.307356961658932,46.699276863830214,0 10.307310780131965,46.69923964183092,0 10.307301278699054,46.69916264239912,0 10.307306834731497,46.69909213110472,0 10.3072365312595,46.698973149710774,0 10.30722773539851,46.698938985090386,0 10.307168154164797,46.698868514003614,0 10.307273602032215,46.69876267434913,0 10.307265785436533,46.69868130420597,0 10.307298541479788,46.69859731343054,0 10.30730034272319,46.69854368984764,0 10.307274137213161,46.698488372222506,0 10.307265002638625,46.698414026878844,0 10.30727318184163,46.698283473893525,0 10.307254386008678,46.69821437521163,0 10.307261386023503,46.698171016563464,0 10.307249077725464,46.69811454942062,0 10.307269862464109,46.69804605383349,0 10.307215313748848,46.69791707980494,0 10.307198746766574,46.6977367701345,0 10.307169936004444,46.697680917077065,0 10.307153093719663,46.69764855436078,0 10.307150375998559,46.697597443513544,0 10.307038135132666,46.69734597189969,0 10.306987372002936,46.69722023933299,0 10.306958974591893,46.697101802455,0 10.306871347296727,46.69702883846903,0 10.306874105158233,46.696896082591785,0 10.306865509929048,46.6968219290891,0 10.306817092642879,46.6967863626398,0 10.306816553316251,46.69674516930689,0 10.306791267991448,46.69672901247684,0 10.306819829076591,46.69667551510395,0 10.306736405945333,46.69668161305828,0 10.306695865344984,46.69664105023547,0 10.306650053395577,46.69663260706588,0 10.306625111275972,46.696557265634354,0 10.306594755164426,46.6965332396148,0 10.306534224649626,46.696532363974804,0 10.30649494254405,46.69653735089958,0 10.306463722123885,46.69651894438582,0 10.30645122998083,46.69648087426578,0 10.306453286716948,46.69643204238986,0 10.306372557582769,46.69640128723145,0 10.306277843120476,46.696435657637394,0 10.30625970911563,46.696466501607794,0 10.306205052122436,46.69655424190843,0 10.306182707658708,46.69663717066611,0 10.306116623695138,46.69664123251942,0 10.306057748512846,46.69667150223849,0 10.306064825834191,46.69676088779235,0 10.306035024137309,46.696861475798265,0 10.306048704602784,46.69692190693005,0 10.30603500440187,46.69694864090682,0 10.306068787348831,46.69699337237801,0 10.305991062940542,46.69715046498776,0 10.305940261883936,46.6972083318284,0 10.30588331172783,46.69725294712606,0 10.305862880732377,46.69730623973468,0 10.305794410213855,46.69739672635061,0 10.305760676434339,46.69746234874029,0 10.305629870951224,46.69760558266278,0 10.305604421341203,46.697717432478754,0 10.30553845863951,46.697789463289425,0 10.30546317596756,46.69783933760385,0 10.305375597900651,46.6978767263684,0 10.30530396970086,46.69792970734224,0 10.305041839811357,46.69801675493203,0 10.304997018969438,46.69800508746181,0 10.304932985900415,46.69802589021307,0 10.304908862208896,46.6980097037917,0 10.3047983374616,46.698009284826604,0 10.304714344535729,46.69802659105606,0 10.30463788309656,46.69809808563921,0 10.304606486791172,46.698142057627344,0 10.304617608592704,46.69828571933797,0 10.304632651716693,46.69834515286109,0 10.304534425709301,46.698466774543206,0 10.304453623896656,46.698587957954985,0 10.30438935943498,46.698635257019745,0 10.304249446628722,46.69869475240047,0 10.304089387366956,46.698769148275794,0 10.303959298568971,46.69878791500753,0 10.303881468109019,46.69878987181315,0 10.303785018394489,46.69883547904261,0 10.303763185022065,46.69886241714598,0 10.303679715833187,46.69886771428274,0 10.303613188367903,46.69888538027661,0 10.303571538574138,46.698889625993544,0 10.303479489858189,46.69897430635744,0 10.303466789293193,46.69904179825469,0 10.303476456992648,46.6991143255302,0 10.303406164189267,46.69920405218147,0 10.303401950845227,46.699256136892195,0 10.303414483966367,46.69929500588255,0 10.303384341719804,46.69938452737948,0 10.303379536688087,46.69949863826173,0 10.303280930389288,46.69980565016842,0 10.303309195534696,46.70003124740742,0 10.303315003463215,46.7002152005425,0 10.303259159568938,46.70032456017663,0 10.30325374202836,46.7003758754874,0 10.303317746827178,46.70054618120565,0 10.303353742547776,46.70056686761179,0 10.303416571159293,46.70072544902619,0 10.303478175948811,46.70079027334292,0 10.303483722682653,46.70085090916698,0 10.303516242905632,46.70091566497645,0 10.30351857563105,46.70095958839494,0 10.30360421349937,46.70110457563561,0 10.303567001384739,46.701261148937256,0 10.303535687193516,46.70130671782409,0 10.303532449406436,46.70137717051303,0 10.303550716121494,46.70145827805354,0 10.303562919766573,46.70153473996406,0 10.303530004592188,46.70170348781116,0 10.303548330312344,46.701763802375346,0 10.303625107097405,46.70185143584508,0 10.303716868610355,46.70198027564534,0 10.303818926038156,46.70214963987422,0 10.304084484377585,46.702495147030106,0 10.304320730391538,46.70291984870764,0 10.304349512976353,46.70297990020439,0 10.304406516869266,46.703045639546964,0 10.304406712869284,46.70307122418404,0 10.304471420401745,46.70318227204696,0 10.304487042330184,46.70323545738221,0 10.304547091535552,46.703314714509794,0 10.30455145167668,46.70335298924285,0 10.304599416844534,46.70342375379516,0 10.304700982688878,46.70374764329256,0 10.304817411868447,46.703924642130644,0 10.304865749368975,46.703958612193965,0 10.304872262485754,46.70401316775203,0 10.30491933741569,46.70406716140379,0 10.304995010890552,46.704199603584016,0 10.304970794080564,46.70424739338743,0 10.304997000026193,46.70430271153425,0 10.30507714071117,46.704387860527554,0 10.305033469885554,46.70454347362228,0 10.30510686312821,46.704676772789064,0 10.305129048356667,46.70470020505194,0 10.30512990773424,46.70476015898624,0 10.305167090149286,46.70486877921162,0 10.30523705118666,46.705145276429995,0 10.30515855899275,46.705156846598065,0 10.305179837268335,46.70518509974605,0 10.305313607371417,46.70525050731443,0 10.305433786855536,46.70536663606592,0 10.305489287404706,46.705475653002566,0 10.305521319234886,46.70550923328425,0 10.305582699305752,46.70565722846513,0 10.305655932277592,46.70571629170759,0 10.30574878214376,46.70584350337345,0 10.305756990656555,46.70601976460782,0 10.305821931081654,46.70612528738657,0 10.305862203572998,46.706248223818804,0 10.305910501360337,46.70628139484121,0 10.306008672129048,46.70631171188039,0 10.306062606440259,46.70636763871993,0 10.306068951873586,46.70639946604616,0 10.306087737598904,46.706424583065754,0 10.306087096736102,46.70647817738097,0 10.306135703540095,46.70656092036525,0 10.306248318423762,46.70673161649921,0 10.306223596202159,46.706855740230466,0 10.30637071548553,46.70697518876278,0 10.306390675014065,46.707044258238604,0 10.306366678439348,46.70720559655635,0 10.306398940595667,46.7073732078902,0 10.306413102908179,46.70748640538615,0 10.306471997799584,46.70756569069545,0 10.306517745865788,46.707616518511045,0 10.306528434818096,46.70777378539901,0 10.306532784936048,46.70786170350186,0 10.306568261845374,46.7078943971812,0 10.306655809458599,46.70792178229509,0 10.306754065342274,46.70801926927889,0 10.30674594438563,46.708063455710445,0 10.306733339256683,46.708242100297845,0</coordinates></LineString></Placemark></Document></kml>