<kml xmlns="http://www.opengis.net/kml/2.2" xmlns:gx="http://www.google.com/kml/ext/2.2" xmlns:xsi="http://www.w3.org/2001/XMLSchema-instance" xsi:schemaLocation="http://www.opengis.net/kml/2.2 https://developers.google.com/kml/schema/kml22gx.xsd"><Document><name>Dessin</name><Placemark id="drawing_feature_1759476557596"><name></name><description>21 Lais da Macun</description><Style><LineStyle><color>ff0000ff</color><width>3</width></LineStyle></Style><ExtendedData><Data name="type"><value>linepolygon</value></Data></ExtendedData><LineString><coordinates>10.111408822700955,46.769716767634144,0 10.11162322490474,46.76979751402986,0 10.111679395395244,46.76978115137981,0 10.11257427683806,46.77001598673144,0 10.11268358235303,46.77001041619674,0 10.112816273613285,46.769901977873275,0 10.11288366401238,46.7698025931114,0 10.112474062383797,46.76958648524656,0 10.11190173035233,46.76926665470926,0 10.111737108406238,46.769129068968695,0 10.111608385759746,46.768919921116144,0 10.111350433801933,46.76851155769712,0 10.111151889086424,46.76830855870495,0 10.110307448743972,46.76773199590086,0 10.109968694002388,46.7674856317438,0 10.109767046986532,46.767308283112456,0 10.109649857860989,46.7671542773928,0 10.10964565729417,46.76711374880088,0 10.10991802253469,46.7669493799908,0 10.110070458867225,46.76688562349303,0 10.110149187223755,46.76688227581167,0 10.1102915915067,46.76692558757577,0 10.110441103932166,46.76706804324629,0 10.110560100845312,46.76712544513543,0 10.110759419509696,46.7671674238379,0 10.111667243692843,46.76726653895032,0 10.11250728394511,46.76750115378357,0 10.112824661942003,46.76753735328969,0 10.112972692869198,46.76751733255232,0 10.113637251859188,46.767218872567,0 10.113541852185133,46.767131191103886,0 10.11343272938126,46.76683130358516,0 10.113338812928236,46.766525381574446,0 10.113321253424813,46.76634823825614,0 10.113331199715097,46.76606282169407,0 10.113321351466443,46.7660037115786,0 10.11325327320305,46.76595546082922,0 10.11302914498021,46.7658277900563,0 10.11295345534502,46.76576547571253,0 10.112913060108236,46.765717762857975,0 10.112877806146692,46.76563432496791,0 10.11281177780671,46.76525052901295,0 10.11273839945252,46.76503138226268,0 10.112707854747946,46.764938339380535,0 10.112632345309166,46.7647751410888,0 10.112573118882883,46.76466140754505,0 10.112550930609274,46.76463225700549,0 10.112435061294253,46.764485650796786,0 10.112192625873606,46.76427231527844,0 10.111936774532703,46.764050958644745,0 10.111884369673584,46.76395763323088,0 10.111866903621186,46.76364610747494,0 10.111864577742852,46.76357090542864,0 10.111807717032946,46.763463882183636,0 10.111696495987662,46.763317904200036,0 10.111649815414232,46.76328329907567,0 10.111562263368077,46.763132907226655,0 10.111393373810376,46.762820501822745,0 10.111229657327366,46.762579270298716,0 10.11110379624792,46.76236954125483,0 10.111056191246984,46.76230189071077,0 10.11092881765728,46.76209271908677,0 10.110669656019343,46.76183371837116,0 10.110561124438298,46.76171152249245,0 10.110536743172526,46.76164252831563,0 10.110531883827607,46.761588269442925,0 10.110585780830283,46.76140709771935,0 10.110615875151284,46.761253122162714,0 10.110582283177749,46.76116275456552,0 10.110435227490711,46.76101507394181,0 10.110329009637962,46.76091601202271,0 10.110333201492768,46.76088313038158,0 10.11039225650241,46.76085296201494,0 10.110453860571313,46.76085071995794,0 10.110577024604787,46.76091580185114,0 10.110691533986945,46.76096994475582,0 10.110789629508997,46.76097564351558,0 10.110873015506689,46.76096649428355,0 10.110962033408644,46.76093002678693,0 10.111042434139625,46.76088416581101,0 10.111102057694284,46.76084198981823,0 10.11118346643081,46.76072254208284,0 10.111324400990572,46.760652874307844,0 10.111446142685297,46.760618838230606,0 10.11157802102657,46.76060135621065,0 10.111674913237158,46.760606282788956,0 10.112109043352895,46.76069606163275,0 10.112366253749547,46.76078124192393,0 10.112954385769989,46.76108809827531,0 10.11336473682146,46.76128979983096,0 10.113649086757276,46.761364693167614,0 10.113766638719017,46.76143390122725,0 10.114041104207503,46.76168493723622,0 10.114082566470106,46.761769522228235,0 10.11399551027352,46.76219582931199,0 10.113955826364997,46.762480237960595,0 10.113936820092773,46.762613417072735,0 10.113953526806778,46.76264500938081,0 10.114019164140926,46.762677053624365,0 10.114080971579668,46.76266621723383,0 10.114120412002322,46.762639705321114,0 10.114190383799778,46.76252452152111,0 10.114368839759425,46.76223585556669,0 10.114432361227166,46.76217839402082,0 10.114513725671813,46.76212850999914,0 10.114613409270344,46.76209578753864,0 10.11533817998238,46.761884848011505,0 10.115460624822624,46.76180024970339,0 10.115606951100158,46.76167422807787,0 10.11569724944559,46.76155685503314,0 10.1157291618361,46.76145342507228,0 10.115717225964884,46.76136674035977,0 10.115486597227612,46.76111649566286,0 10.115375593127059,46.760897923504864,0 10.115058836096102,46.76044471611113,0 10.114936770739972,46.76032184714678,0 10.114902876080325,46.760223104182266,0 10.114788781499438,46.760080087023915,0 10.114619749032467,46.7599331728374,0 10.114549018387576,46.75983005486198,0 10.114501380822823,46.75974397705739,0 10.114390645033778,46.7596648480528,0 10.113770693138923,46.759378675385555,0 10.112807372028454,46.75892119755295,0 10.112691635072544,46.758864187300816,0 10.112358862652595,46.75866482881293,0 10.112240338237456,46.758613122331894,0 10.112154215286402,46.758599423851976,0 10.111970919305461,46.75859533645861,0 10.11187513320088,46.7585713865145,0 10.11183237574474,46.75853990756312,0 10.111812439825778,46.758489787634375,0 10.111803029643395,46.758323774452,0 10.111790041260832,46.75825145240069,0 10.11163569538963,46.75801947314333,0 10.111538427353134,46.75790635658203,0 10.11139406202873,46.75783872612649,0 10.111542533569402,46.75783260407933,0 10.111790016689342,46.75789237324516,0 10.112017796667965,46.75790702639935,0 10.112240647245466,46.757916197409834,0 10.112513282162714,46.75796658004185,0 10.112646631983841,46.75802582363948,0 10.112754779690949,46.75804647742065,0 10.112944101411196,46.7580604309005,0 10.113185442246222,46.75806676787623,0 10.113478431528728,46.75815185353296,0 10.113831000540207,46.7582643271312,0 10.11413991733346,46.75834184120995,0 10.114557975720514,46.758459973320235,0 10.11471871341135,46.75853136589269,0 10.114831713365078,46.75855590191696,0 10.114938650177924,46.758613266387485,0 10.115065687660959,46.7587094369523,0 10.115507168284738,46.7587598498521,0 10.115641141108918,46.75871432781118,0 10.115733219616974,46.75871616542489,0 10.115817672585445,46.75872857668268,0 10.115903829171836,46.75870496586678,0 10.1160510559676,46.7586215511129,0 10.116125343792774,46.75859342100631,0 10.116197729828897,46.75859731957503,0 10.11625888232481,46.75860947769976,0 10.116546635409474,46.75875304937767,0 10.116893093932937,46.758836071936685,0 10.116982528817006,46.75883157377175,0 10.11722623393664,46.75887462689782,0 10.117321035848793,46.75888439531064,0 10.117647918098582,46.75890150829802,0 10.117803555675147,46.75891704430358,0 10.118162498785336,46.75889981973415,0 10.118279922887558,46.75890106002356,0 10.118397787272817,46.75890628789816,0 10.11855800878617,46.75889692756087,0 10.118740850916861,46.75896779540253,0 10.118830552966246,46.75899207519125,0 10.119079523649615,46.75898782575629,0 10.119769096229684,46.75903959021586,0 10.119906584463632,46.759017968488465,0 10.120069261938301,46.758987758773685,0 10.120181033176092,46.75898753073482,0 10.120444525110345,46.75906449652762,0 10.120881520686433,46.75911819265285,0 10.121093842188987,46.759128545705614,0 10.121243626334055,46.75914341507277,0 10.12139778447791,46.7591525841788,0 10.121502925703773,46.7591828956829,0 10.121641526858491,46.75918363463879,0 10.12177226788592,46.759225372391576,0 10.121897817684383,46.75926799731768,0 10.122167525305262,46.75925925547723,0 10.122437304413022,46.759368852593646,0 10.122547953208546,46.75936944833916,0 10.12274250601671,46.75936436768055,0 10.1227915869627,46.75938148534032,0 10.122985555404275,46.75946942561994,0 10.123044660064918,46.75948744940679,0 10.123152194654526,46.75957628088182,0 10.123199274034208,46.75958659338188,0 10.123478629875324,46.759719346596114,0 10.12356241122478,46.75976533991877,0 10.12380562100229,46.7598514690151,0 10.123998639039673,46.75988689715806,0 10.124280549349459,46.75993736297492,0 10.124663081817987,46.76003799237746,0 10.124974752555556,46.76008626314822,0 10.125264787936056,46.76016622783162,0 10.125370633210848,46.76018771794638,0 10.125482428870432,46.760228482180146,0 10.125752418632144,46.76030663359855,0 10.125911704782197,46.760332574822584,0 10.12602413848333,46.76035276716162,0 10.126147131348883,46.76043283385107,0 10.126199422269883,46.76050848560216,0 10.12628807705971,46.76055207816398,0 10.126497881361928,46.76059053282407,0 10.126755517577658,46.760621008157905,0 10.127002628947343,46.7606071920448,0 10.127077493998513,46.76060771219469,0 10.127185923388142,46.760614293492445,0 10.12728250751671,46.76058346724085,0 10.127430540647252,46.76051716785707,0 10.12762216127372,46.76045783522673,0 10.12773737977991,46.760367184197435,0 10.127871115232105,46.76022162984953,0 10.12788741570835,46.760115037763846,0 10.127892429826707,46.7600155637801,0 10.127921884861872,46.75997261478924,0 10.128119370769218,46.75983091752634,0 10.128446404728242,46.759552549511646,0 10.1286292322651,46.75938378832988,0 10.128666251526813,46.75932581449213,0 10.128655836222862,46.75921921255634,0 10.128675162359508,46.75913995748759,0 10.128739508913153,46.75906306699047,0 10.128762100429567,46.75898259285739,0 10.128758656004393,46.758813654984536,0 10.128751828107726,46.758755770180066,0 10.128804414604478,46.75854325641405,0 10.128809721238342,46.75841636690553,0 10.128868617657682,46.75820925350725,0 10.128801236147382,46.75809207200118,0 10.128826418736221,46.75796357183068,0 10.128905897623211,46.757810778359236,0 10.128947244222964,46.75763964226485,0 10.129042550634033,46.75745010339468,0 10.129057600740738,46.75735335003032,0 10.129147230190478,46.75718335930261,0 10.129226636900475,46.757108397374445,0 10.129273126327963,46.7569736844856,0 10.129335480446231,46.75686398334885,0 10.129348160857226,46.756784884786775,0 10.129392523841336,46.756674204483225,0 10.12939341548714,46.75655883917758,0 10.129433000334702,46.75648771802419,0 10.12970816537776,46.756236835470105,0 10.129774899393416,46.756207852912794,0 10.130006479990907,46.75614985726582,0 10.130374888670227,46.75610119540727,0 10.13053338442238,46.75604492294225,0 10.130638044263302,46.75597621621957,0 10.130736498739063,46.755983029334544,0 10.130949553424438,46.756020256775145,0 10.131048822380166,46.75597680139717,0 10.131103708776843,46.7559104108576,0 10.131268184484055,46.75563633407288,0 10.131381391727016,46.7555057556767,0 10.131488060441864,46.75541073419776,0 10.131532808926913,46.7553411566457,0 10.13157399920137,46.75530021352872,0 10.131631547757674,46.755255181415116,0 10.131674809944839,46.75511902670335,0 10.131726965392371,46.75502104328058,0 10.131772667046558,46.75492536057862,0 10.131754132888007,46.75478746616967,0 10.131694511016109,46.754399981734515,0 10.131669193688946,46.7542894340276,0 10.131662603045124,46.7541808431444,0 10.13144422472904,46.753895911165394,0 10.131318139165813,46.75378456245224,0 10.131234374501366,46.75376255124216,0 10.131192845784149,46.75370036247721,0 10.131120739475193,46.75356213311984,0 10.131124282989223,46.75349034259013,0 10.131163514624317,46.7534366427189,0 10.131254963285537,46.75335612299788,0 10.131259293935965,46.75330321841067,0 10.131083866010933,46.753101060218306,0 10.130930861545686,46.75294987404195,0 10.130898032626286,46.75289867435457,0 10.130903061078046,46.752836186384236,0 10.130947751013032,46.752680252583374,0 10.130940672733404,46.752445335316274,0 10.130956498086203,46.75234261224983,0 10.130977824400498,46.75221017387084,0 10.131052882905337,46.752081265082076,0 10.131144779813647,46.75196315327765,0 10.131178094643404,46.75185715169867,0 10.13123151352671,46.751667983373714,0 10.131342915014779,46.7513824957466,0 10.131506400184296,46.75108961063017,0 10.13155974363698,46.7510387758644,0 10.131635534902783,46.75101779619774,0 10.13173469761529,46.75102185218871,0 10.131822266120945,46.75105016997452,0 10.131966069607234,46.751178710187375,0 10.132136596084171,46.75123625391121,0 10.132257484012344,46.751278977278304,0 10.132348975556392,46.75133918634416,0 10.132564979797628,46.75137486581796,0 10.132627136116989,46.75136060432896,0 10.132681910741969,46.75136170965635,0 10.13290617012041,46.751422780990325,0 10.133018918872775,46.75146569575435,0 10.133152285064167,46.75147853802436,0 10.13320385569914,46.75146212743055,0 10.133216292931323,46.75143144858349,0 10.133218463634355,46.751405010247716,0 10.133173361158562,46.751364495996036,0 10.133073898086712,46.75126129702221,0 10.133068253263653,46.751218251550064,0 10.133080615486868,46.75116278661981,0 10.13316124218728,46.75102894709435,0 10.133206492811658,46.750891965265374,0 10.133260017619685,46.750542072192914,0 10.133266488260611,46.750456999415825,0 10.133220632646497,46.750378121810634,0 10.133150552012745,46.750327002991575,0 10.132916884434898,46.75021737843034,0 10.132849291887647,46.750171015200976,0 10.132819831707057,46.7501173376598,0 10.132797069075377,46.75005790466862,0 10.13271789131296,46.749987809886754,0 10.132673729075487,46.74987290975346,0 10.132634607119382,46.74981226385881,0 10.132648744651947,46.74976714677426,0 10.132697593917543,46.74971961593329,0 10.132723396382806,46.74963025018115,0 10.13270364353209,46.74956115081709,0 10.132712317627153,46.749501775060885,0 10.132747194546928,46.74935040815225,0 10.13272503859678,46.74927016459187,0 10.132680437644245,46.749146479136776,0 10.132602910773892,46.74898327105672,0 10.132605446306385,46.748940831986594,0 10.13257578216167,46.74890634979818,0 10.1325579562825,46.74882920880994,0 10.132531860540816,46.748796241566346,0 10.132547556697597,46.748714310963734,0 10.132524930392648,46.748587707700715,0 10.132496921205828,46.74853939800839,0 10.132523282287217,46.748461213579446,0 10.132526581443006,46.74841076040567,0 10.13257263545428,46.74830732309614,0 10.132501358710737,46.74820481465912,0 10.132480358909898,46.748157334123064,0 10.132416220830338,46.74808528482567,0 10.132390854583134,46.748020316021055,0 10.132396040350981,46.74796102259784,0 10.132433000523832,46.74783146884616,0 10.132426808285997,46.74773086453792,0 10.13248358734192,46.74753921715443,0 10.132486452640478,46.747456789948664,0 10.132447244300495,46.74725461555601,0 10.132413100283497,46.74717706031662,0 10.132454811250312,46.74712649960759,0 10.132444162718063,46.747005817661766,0 10.132457059210557,46.746891169237934,0 10.13246610783543,46.746764080590765,0 10.132431634248823,46.746726513543464,0 10.1324245882756,46.7466787034724,0 10.132400185830567,46.746609713864316,0 10.132396303554463,46.746578620872214,0 10.132454497587323,46.74650848037246,0 10.132535273325615,46.74640102463772,0 10.132537968533411,46.74636178017385,0 10.132608707748682,46.74630973435956,0 10.132622990552676,46.74626941665535,0 10.132708571045093,46.746164554156266,0 10.13273063370169,46.74611685625293,0 10.132832846764915,46.74606566609679,0 10.132851141610148,46.746012459896164,0 10.132855478332361,46.74598277198502,0 10.13292320261907,46.745963581011495,0 10.132927459452715,46.745932295746364,0 10.132920208480082,46.7459036811582,0 10.13298172961389,46.745830263319505,0 10.13298336124017,46.74579540678176,0 10.132892442278425,46.74572319073285,0 10.132806728308758,46.74568523481486,0 10.132798673926903,46.74566383563802,0 10.132903017008736,46.745585408415614,0 10.13292388168724,46.74551375050493,0 10.132932165614186,46.745369203367225,0 10.132887083370498,46.745259122688864,0 10.132876569079933,46.745118639986316,0 10.132905722408271,46.74509636204223,0 10.132991520302571,46.745112726487086,0 10.133039826351686,46.745147567823686,0 10.133069219082673,46.74513008170107,0 10.133074359077831,46.745093178410876,0 10.133032398247428,46.74503062125834,0 10.133034529022849,46.74500338430819,0 10.133089237283789,46.74491013709692,0 10.133122980864174,46.744797225209496,0 10.133094720974212,46.744767507684216,0 10.133092660074249,46.74471622772767,0 10.133053496625152,46.74467797201475,0 10.133060238337954,46.7446498264869,0 10.13303611545557,46.74458642765812,0 10.133067683620629,46.744519314555305,0 10.133074400350619,46.74442080408139,0 10.133037396480178,46.74414113549316,0 10.133062177746408,46.74412455794541,0 10.13347095512091,46.7441980605548,0 10.133481743732803,46.74418101388417,0 10.133371813117774,46.74396131992527,0 10.133304578709561,46.743845457279384,0 10.133259222332624,46.743706597324326,0 10.13328364415919,46.743682831712036,0 10.133434452311956,46.74378881534879,0 10.133861767890995,46.74397702214309,0 10.13372792905559,46.74381466557267,0 10.133662321675136,46.74368987758764,0 10.13362891101122,46.74355713238547,0 10.13351507462058,46.74342228932217,0 10.133457044270187,46.743354069917466,0 10.133398982980546,46.743193920773095,0 10.133359116265892,46.74307172289674,0 10.133361853679308,46.74303002701972,0 10.133213028396952,46.74284723415105,0 10.13321600232267,46.74281358034466,0 10.133249440754504,46.74280719314756,0 10.133500526819839,46.74287002761805,0 10.133619534971304,46.74288480725749,0 10.134201331215502,46.743019786899055,0 10.134539891281312,46.743103178730024,0 10.13459449352425,46.743124277238635,0 10.135211495308235,46.74326481664093,0 10.135261970750692,46.7432732186662,0 10.135276366588544,46.743258485372145,0 10.135188221619558,46.74314862395511,0 10.135138050737503,46.74299920155282,0 10.13507516183613,46.74290553478301,0 10.1349816481886,46.742781407173794,0 10.134898519137607,46.74265543483941,0 10.134804866381629,46.74251943854704,0 10.134764921191135,46.742372455111216,0 10.134692064273239,46.74227301495917,0 10.13464584979393,46.742210138586515,0 10.134605785435843,46.74206075913221,0 10.134555484061599,46.74198598522665,0 10.134575213783409,46.74196153062293,0 10.134573596263005,46.741890178306214,0 10.134526703306017,46.741813724591985,0 10.13445838927722,46.74158825030802,0 10.134595570211589,46.74165457397805,0 10.134757930571272,46.74171230612244,0 10.134825121037633,46.741729108938,0 10.13502912979281,46.741828235574125,0 10.135121016212498,46.74185005162636,0 10.13526730023275,46.7419121612492,0 10.135321418158016,46.74194686419727,0 10.135740158906074,46.74205690485294,0 10.135854496339,46.74208538590942,0 10.135994616176609,46.74209406657747,0 10.136049821238828,46.74210395562576,0 10.136092603795948,46.74207495755872,0 10.136102352115195,46.74203714536427,0 10.136066156794765,46.741988425566745,0 10.135985576827165,46.741959946009466,0 10.135951343641619,46.7419271719838,0 10.135826053283056,46.74170304570418,0 10.135796359827289,46.74163726805973,0 10.135785929130934,46.74153697561771,0 10.135777641994034,46.7414644071313,0 10.13576193573842,46.74140640705889,0 10.135760105061253,46.74132329097799,0 10.13573763407495,46.74119988293905,0 10.1357103960729,46.74099089047506,0 10.13567080538133,46.740874284045724,0 10.135571887905757,46.74071190348591,0 10.135531334766242,46.74061033729551,0 10.135541039331555,46.74059491528948,0 10.135571547574195,46.740599791195805,0 10.13568330915504,46.740669912974084,0 10.135815319142482,46.74072596247378,0 10.135968703695944,46.74076750750458,0 10.136015525388284,46.74079598577802,0 10.13611053494987,46.740833719326666,0 10.136174029883152,46.74089298801928,0 10.136278933223569,46.74098885894978,0 10.136330445808397,46.74101802577045,0 10.136405731786418,46.74107732982465,0 10.13648771324778,46.741110573579085,0 10.136601359193792,46.74119504288049,0 10.136751650720019,46.7412674507368,0 10.136908681935816,46.74131171261404,0 10.137072252873374,46.741323835190734,0 10.137005385504713,46.74129023431073,0 10.136961614237478,46.74122969985802,0 10.13692805029761,46.74114728015567,0 10.136910760036903,46.74106526789637,0 10.136841705292486,46.740950062572026,0 10.136823728540419,46.74090701288945,0 10.136840769462735,46.74082599990031,0 10.13680963376839,46.74066965203576,0 10.13682153912267,46.74061774389372,0 10.13681764496381,46.74053994339375,0 10.136833595217503,46.74046348491736,0 10.136817444994586,46.74035155666746,0 10.136773680976878,46.74028168668153,0 10.136642324724498,46.74015980346054,0 10.136604454737451,46.74014077324938,0 10.136570856456462,46.74010171594778,0 10.136501429704095,46.7400580717299,0 10.13639639269565,46.73994586484553,0 10.136325472308062,46.73987236685162,0 10.13627821130824,46.73979740351351,0 10.136229044971987,46.73971071074017,0 10.136174200296374,46.739560009489985,0 10.13612771350682,46.73947415904629,0 10.136116095934032,46.73942643021833,0 10.136057218031247,46.73930373795703,0 10.136007966563197,46.739136275830276,0 10.136007868490562,46.73889716590382,0 10.13602807451566,46.73890574531417,0 10.136145989873423,46.738996246620026,0 10.136309042402893,46.739092925995585,0 10.136345047294812,46.73912739781402,0 10.13668228973664,46.73925346846725,0 10.136780199917233,46.73933303425326,0 10.136848629882715,46.73935677582925,0 10.136978539259177,46.739423443583135,0 10.136966830470287,46.73937390553209,0 10.136926017611732,46.73929607272301,0 10.1369280739729,46.73920545118101,0 10.136934171040991,46.73913661736629,0 10.13688631739487,46.739076159934285,0 10.136887728596632,46.73905167188358,0 10.136833524532094,46.73894336104406,0 10.136784490165395,46.73888564869701,0 10.136756496044704,46.73872146835431,0 10.1367622013942,46.73868123287055,0 10.13680845497568,46.73849899298025,0 10.136795395679044,46.738369782789306,0 10.136795712962016,46.738183130680845,0 10.136790838073109,46.737980362835195,0 10.136754927983295,46.7379214342228,0 10.136664834854404,46.73786190591141,0 10.136602546334156,46.73777642944683,0 10.136564365065608,46.7377248003992,0 10.136474097925419,46.73768617785856,0 10.13633220561242,46.73761707588939,0 10.136484101485104,46.737596274125146,0 10.136440829934282,46.73757465446262,0 10.136356419068704,46.73754766776594,0 10.136237571024349,46.737474725410785,0 10.136167660492598,46.73744999180103,0 10.136030008778791,46.737374085994816,0 10.135997676600283,46.737284293721636,0 10.135897137627715,46.737019601741494,0 10.135932214264548,46.737022770252935,0 10.136064052115083,46.737098813631455,0 10.136245680835561,46.73716968116645,0 10.13619531259928,46.73702374427493,0 10.136185739232484,46.73691277852747,0 10.136240918393963,46.73667121567328,0 10.136226495353704,46.736615584121495,0 10.136240859906069,46.736530485686075,0 10.136193565886668,46.7364692347868,0 10.136121059210348,46.736392587895246,0 10.135983297779706,46.73626790856378,0 10.1360198997975,46.736255048716245,0 10.136141759798257,46.73629454596053,0 10.136264143201275,46.73632123676995,0 10.13639541671878,46.7364092872758,0 10.136455942033418,46.7364558321919,0 10.136512170124409,46.736556052555436,0 10.136544798002685,46.73658006865954,0 10.136614460749014,46.73664638759035,0 10.136591190367662,46.73650700632579,0 10.136594811768958,46.73641656474696,0 10.13655902636107,46.73632945415801,0 10.136555745446394,46.736287152465685,0 10.136461233702814,46.7361894368958,0 10.136409696194363,46.73608990511327,0 10.13641214479875,46.73606905735883,0 10.136466903972522,46.7360701608979,0 10.13645990284408,46.73597677211495,0 10.136470735811358,46.73591414630199,0 10.136573918312246,46.7359292968821,0 10.136615667048416,46.735809967014696,0 10.136631443453295,46.73566006671567,0 10.136660996623482,46.73559939683333,0 10.13672590849942,46.73552429708397,0 10.136756877256534,46.735375636567404,0 10.13675548500731,46.73530130574381,0 10.1368107562065,46.73517113611533,0 10.136855421632267,46.73511010862935,0 10.136803364882514,46.73500019441089,0 10.136789205888542,46.73490314584963,0 10.136736509871184,46.73478045296079,0 10.136745856717496,46.734734654035265,0 10.136712060473604,46.734633376451825,0 10.136689113895027,46.734477195709324,0 10.136708117106929,46.734461553547575,0 10.13672952183024,46.73447064247204,0 10.13686046854581,46.734575491855985,0 10.136857467302224,46.73453878079399,0 10.136829417330818,46.73446667989568,0 10.136829270781218,46.73437073014199,0 10.136838913174943,46.73431234966964,0 10.136913443115931,46.73424341909083,0 10.136945839825394,46.73419307672265,0 10.13700502035311,46.7340965228763,0 10.137055866893798,46.73399232647643,0 10.137088399317456,46.73382843622151,0 10.137143434986989,46.73359787792726,0 10.136932924785924,46.733461327708724,0 10.136912342922656,46.73339884162381,0 10.136908675388995,46.733255798136035,0 10.13693726435634,46.73319914899663,0 10.13690244986892,46.733061640119246,0 10.136865467282218,46.732956828927236,0 10.136786645888252,46.73277718224488,0 10.136730415926447,46.732699942729425,0 10.136585887668275,46.73257942237837,0 10.136524320484174,46.73255848980024,0 10.136504202461547,46.73252858054377,0 10.13641966925595,46.732490599797174,0 10.13636162868415,46.73241645276016,0 10.136320746290052,46.7323902331359,0 10.136262757524126,46.73230124888889,0 10.136166850965775,46.73219876857195,0 10.13609230601842,46.73207932544619,0 10.13601223142319,46.73199086351591,0 10.136016452690217,46.73191240186892,0 10.136115295992255,46.731528585411475,0 10.136138597971136,46.731393870085356,0 10.136178778425343,46.73125875545476,0 10.136198587227332,46.73112928291858,0 10.136178025359028,46.731113906851135,0 10.136134326066019,46.73098527733743,0 10.136118228077242,46.7309099160108,0 10.1361216137403,46.73079149355289,0 10.136111849361123,46.73068937443016,0 10.13613688144714,46.73056164428451,0 10.136133661559251,46.73042187846042,0 10.13622097355622,46.73035264581471,0 10.136270368755104,46.7302699170914,0 10.136279558985274,46.73019773474854,0 10.136312978716443,46.73014068974022,0 10.136306933992842,46.73008965766773,0 10.136232161690842,46.72994429812742,0 10.136170568579333,46.729853000259475,0 10.136188679204237,46.72977377886913,0 10.136165761691926,46.729711151781096,0 10.136243987457638,46.72955337726249,0 10.13623950488682,46.72951030432709,0 10.136252748754348,46.729402843233345,0 10.136243060748233,46.72932551018528,0 10.136256812345568,46.72919287537169,0 10.136220592813268,46.729096979295356,0 10.136225689158993,46.72905927702019,0 10.136154282075479,46.72893462777468,0 10.136073725178049,46.72888295942518,0 10.136031247427994,46.72882479304182,0 10.136021352708646,46.72878984425633,0 10.136024364060637,46.72875698898242,0 10.135991337903357,46.728748174787334,0 10.135935536145254,46.72879587215618,0 10.135902211531615,46.72889741131021,0 10.135889573945299,46.72897047480208,0 10.135830539398604,46.72893029138131,0 10.135737923395654,46.728846923653386,0 10.135698677095958,46.72881508769838,0 10.135591685002513,46.728653698014696,0 10.135483722294827,46.72852654415746,0 10.135432030234234,46.72844700603373,0 10.135376767366342,46.728389141757944,0 10.135320258379016,46.72835289643188,0 10.135336423760696,46.72828054922061,0 10.13527186619555,46.72819971601191,0 10.135239903691387,46.728161180739626,0 10.135155901635228,46.72811039288995,0 10.134983679705948,46.72806408983361,0 10.134880472678304,46.72804813911423,0 10.134819433487726,46.72800121303519,0 10.134743143653044,46.727972326759165,0 10.134664897986912,46.7279526107376,0 10.134629074437322,46.72786387592984,0 10.13466189172565,46.72779591369083,0 10.134698860223546,46.72776269071449,0 10.134742880356978,46.7276151952681,0 10.134719077359613,46.72750129243313,0 10.134685214198955,46.72737933284238,0 10.134593512319785,46.72719921712095,0 10.1345543251913,46.72709148422163,0 10.134533891524278,46.72697252489461,0 10.134524933913555,46.72685130354254,0 10.13445349587624,46.72667797619843,0 10.134439786354264,46.726621067529635,0 10.134452975472303,46.726570988088326,0 10.134463477365184,46.726460626782355,0 10.134465815068793,46.72641080385282,0 10.134442671354892,46.72633421115246,0 10.13443291488632,46.72625979032929,0 10.134345164084419,46.72617062415738,0 10.134336082884237,46.72589854820269,0 10.134274341666034,46.72585242070619,0 10.134273932128268,46.72582008142319,0 10.134195330943648,46.725720745306035,0 10.134044972122384,46.72561066343879,0 10.13400166370996,46.72554118301107,0 10.133978176939033,46.72545655900045,0 10.133981274617405,46.72534948534361,0 10.133945960346944,46.72522258304416,0 10.13395870577801,46.72516845929926,0 10.133911040028766,46.725060097176026,0 10.133856435044075,46.72493365090475,0 10.13385525335238,46.7248134069647,0 10.13386189015851,46.72468053635194,0 10.133827263934526,46.724467905869304,0 10.133786240538171,46.724288437415325,0 10.133732349281843,46.724122827251506,0 10.133624868717186,46.72377296278457,0 10.133646102571719,46.7237538241026,0 10.133608110074196,46.72370897718632,0 10.133558269342625,46.72367372876781,0 10.13358833401502,46.723658616940966,0 10.133579132617639,46.72359784133381,0 10.133525471353458,46.72356014177265,0 10.133526538577236,46.723532161350235,0 10.13358976971232,46.72349000480271,0 10.133512882079161,46.723456242661435,0 10.133510170782888,46.72342665729512,0 10.13353734972836,46.72340314256014,0 10.13363255316881,46.72335938316784,0 10.13363846618485,46.72330502725519,0 10.133600195322954,46.723259664908035,0 10.13356601903628,46.72324183586326,0 10.133559158670666,46.723153896788226,0 10.133572464485958,46.72307479947228,0 10.13361246686559,46.72283919979611,0 10.133616165815644,46.72281454571991,0 10.133716795978446,46.72280539018709,0 10.133678291628467,46.72277495659487,0 10.133701353378308,46.72274306776983,0 10.133683104962424,46.72269860138762,0 10.13371224362021,46.7226403079665,0 10.133710340642802,46.72260223222677,0 10.133593216408512,46.722503345382684,0 10.13360858766723,46.72246429005534,0 10.133587326997535,46.72240888218938,0 10.133515746705294,46.7223826188122,0 10.133485200611148,46.722264742995485,0 10.133442954771484,46.722084740905366,0 10.133416451294808,46.72192441322026,0 10.133428356714125,46.72184196050979,0 10.13342336737424,46.72174211744527,0 10.133408490400871,46.721617094229494,0 10.133363724337006,46.721486000426744,0 10.133314139794507,46.72124987437593,0 10.133308632910671,46.72118901131539,0 10.133281937771248,46.721128452452774,0 10.133198738513036,46.72104231751769,0 10.133145048023607,46.72095463801436,0 10.133098021448474,46.72087696655133,0 10.13302665489207,46.72085493348444,0 10.132997432817874,46.72080886258599,0 10.132932518549831,46.72079260691208,0 10.132912738919957,46.720766813362715,0 10.132922853354032,46.720722523714024,0 10.132881988973228,46.720620139908384,0 10.132846552459771,46.72055316334536,0 10.132817646782488,46.72051741991599,0 10.13279903004222,46.720416204624776,0 10.132759740941824,46.720295993815206,0 10.132681470724126,46.720170181305875,0 10.132649305111224,46.720093852754424,0 10.132659129304608,46.72001907347312,0 10.13262794140752,46.71993763904363,0 10.132665360355693,46.71987237319391,0 10.132714096804053,46.71976296394565,0 10.132689530221127,46.71969069152439,0 10.13272184941908,46.719646724361745,0 10.132695592157878,46.71954060676506,0 10.132740868615036,46.719459906983985,0 10.132810764498702,46.71940319210086,0 10.132896405721466,46.71936032693343,0 10.132969419050376,46.71921797844065,0 10.133040091054191,46.719102793245966,0 10.133069079027603,46.71898535710319,0 10.13310873223017,46.71898950270174,0 10.133165891969982,46.71892461729753,0 10.133278076521252,46.71885080727243,0 10.133301987587739,46.71881127426043,0 10.133300259242677,46.71875201616087,0 10.13334910092555,46.71866869051622,0 10.132955224247766,46.718532293322504,0 10.1326445547563,46.71840768783008,0 10.132496148327304,46.71832394034847,0 10.132398909668423,46.71820340443396,0 10.132350063622752,46.718113915946816,0 10.132335278180053,46.71801526149329,0 10.132374476829444,46.717960966350155,0 10.132445216452584,46.71792117424485,0 10.13245248794367,46.71786932770617,0 10.132434109921292,46.71784688950377,0 10.13237747423697,46.717848227652844,0 10.13237756987493,46.71780078622519,0 10.13236598744098,46.717766327718785,0 10.132299248636919,46.71776282173581,0 10.13230413526815,46.71769401013447,0 10.132243600445795,46.71766663801791,0 10.13225529540949,46.71757995476289,0 10.132310505145428,46.71750071458609,0 10.132311090186525,46.71738239131333,0 10.132407537404179,46.71724033657608,0 10.13239736077555,46.717184666614024,0 10.132459909203641,46.71712897256686,0 10.132465611312226,46.71707038608069,0 10.1325302046113,46.716981605648506,0 10.132517644617941,46.7169522529696,0 10.132449855690762,46.71690302710095,0 10.132457639771141,46.71683676724632,0 10.132441349571037,46.71678208889205,0 10.132399616048767,46.71678561636904,0 10.132307984463361,46.716851315875715,0 10.132142486990253,46.71689419381852,0 10.132028583741228,46.71688417785869,0 10.131971599522734,46.71692788042765,0 10.131885241481667,46.716951098690316,0 10.131803898472981,46.71695132593296,0 10.131746581907434,46.71696369259924,0 10.131714649608545,46.71699070776003,0 10.13165614396018,46.717003949561956,0 10.131630494411006,46.71703335775009,0 10.131448187459917,46.71706053621803,0 10.13135364526686,46.71704328532446,0 10.13119786909125,46.71708339086205,0 10.131097110208351,46.717139139425015,0 10.131043981515065,46.71718250851133,0 10.13103964193944,46.71721903750336,0 10.131014251451619,46.717228955469416,0 10.130860068756462,46.71717753325505,0 10.130805262536814,46.71716612050103,0 10.130727160864328,46.717107818775425,0 10.130684962372726,46.71710203815211,0 10.130642981377743,46.71707592141937,0 10.130602098620894,46.71707180394536,0 10.130567667415482,46.71707346407601,0 10.13049337352211,46.71706674695324,0 10.130445188038383,46.71706449615144,0 10.130381461704328,46.71707193063233,0 10.130280588288423,46.71707600644375,0 10.12981561901327,46.717009190887126,0 10.129742514225422,46.71700159808778,0 10.129678787784382,46.717009032177984,0 10.129611543457548,46.716995371105945,0 10.129376709103878,46.71690857696129,0 10.129159548235654,46.71692895020709,0 10.129100408852354,46.716929498741614,0 10.12895997454383,46.716956532273436,0 10.128869035228757,46.716962066635325,0 10.12868556592334,46.71704009573186,0 10.128571993473559,46.717061412172,0 10.128492563996181,46.717050579337695,0 10.128382727174593,46.71707265457357,0 10.128343279389968,46.71709730474722,0 10.128343631774948,46.71705494013837,0 10.128276725319676,46.717048047323196,0 10.128269683160413,46.717030423829115,0 10.128231094206175,46.71702286293583,0 10.12824409366035,46.71696156321993,0 10.128193994309918,46.716949191095246,0 10.128194381421526,46.716932239457364,0 10.128131211019351,46.71692610554676,0 10.128146394956556,46.716835104911894,0 10.128109854025105,46.71679445777935,0 10.128088797275902,46.71679241305322,0 10.128107103830086,46.716764026135344,0 10.128073102340252,46.716749579967,0 10.128134867870182,46.71670283126394,0 10.128069749201526,46.71668234217673,0 10.12810817656371,46.716661951776096,0 10.128098292388923,46.71663677118621,0 10.128069046918968,46.71661882433409,0 10.12804398165146,46.71653639730511,0 10.12803035300559,46.71649653679403,0 10.128044544611463,46.71647781100487,0 10.128000630045255,46.716460455937494,0 10.128014104757582,46.71642735410411,0 10.127966863240971,46.7164132759285,0 10.127998088267773,46.71638615225736,0 10.127996176564656,46.716347816138494,0 10.1278788567381,46.71630500587503,0 10.127958419997126,46.71624395801445,0 10.128027230937546,46.71622394379785,0 10.1279211740334,46.71617367144271,0 10.12783277372245,46.71617415744411,0 10.12780508919144,46.716155619813705,0 10.127740090411084,46.71615875217667,0 10.127666190055853,46.71609357708334,0 10.127478170751226,46.715962877742555,0 10.127446164061254,46.71592765022214,0 10.127412358176077,46.71587967135424,0 10.127377604126234,46.71578933565939,0 10.1272806306845,46.71572936757708,0 10.127187445736729,46.715657201552844,0 10.127139734957758,46.715610350156325,0 10.127134616173164,46.71557768690318,0 10.127195005710137,46.71557546317283,0 10.127207477815647,46.71554558347694,0 10.127197909765137,46.71551702326143,0 10.127202851874321,46.71547612669175,0 10.127266575681071,46.71544743719489,0 10.12729001675068,46.715450882431185,0 10.127307853845553,46.715435269125244,0 10.127279167164366,46.71541995349055,0 10.127279659906751,46.715383159902096,0 10.127215071944688,46.71532527237954,0 10.1270938133958,46.71520339300471,0 10.127013954884506,46.71518848436217,0 10.126949330678688,46.71515242671577,0 10.126979512871461,46.71512772672159,0 10.12696108622746,46.715108171016084,0 10.126974434201484,46.71509586214998,0 10.127022923639005,46.715088321763176,0 10.127014349492189,46.71506028474879,0 10.126987342764629,46.71505532430339,0 10.126966432647514,46.715032628767176,0 10.126885499563372,46.71499615597683,0 10.126855213208747,46.71497208227573,0 10.12675264630744,46.714921726562,0 10.126696833854833,46.71489905430316,0 10.12668306337771,46.71485620013052,0 10.126607973240791,46.71484357760354,0 10.126537133509139,46.7148228588165,0 10.126407903064283,46.71482110799436,0 10.126345755234759,46.71481137868613,0 10.126213141815283,46.71474174064726,0 10.126157298094565,46.71469508062991,0 10.126137956452895,46.714657155367355,0 10.126084594506281,46.7145978474388,0 10.12595599360411,46.714515320792806,0 10.125902601783203,46.71444781307331,0 10.1258493929627,46.714430676282774,0 10.125823397541087,46.714399304707484,0 10.125721301971442,46.7143817209506,0 10.125701753798177,46.71436299112415,0 10.125605962451159,46.71430847667538,0 10.125573657061638,46.714236628300036,0 10.125522398212983,46.714258626219845,0 10.125592012577886,46.714114655231896,0 10.125541521434101,46.71408218341702,0 10.1254780931791,46.7140700849805,0 10.12549815967581,46.7139824547616,0 10.125427115622058,46.71386418792922,0 10.12544785040912,46.71381332392597,0 10.12539677583058,46.71376894995821,0 10.125383643259102,46.71373887435703,0 10.125365695103818,46.713728902454775,0 10.12534216861642,46.71363030543873,0 10.12537171419661,46.71359282721206,0 10.125335658769497,46.71356968867794,0 10.125294994934775,46.7135474583163,0 10.125274611730635,46.71351195631542,0 10.125277693738504,46.713465119894686,0 10.125208862164301,46.71343795614072,0 10.125099080059428,46.71340616006864,0 10.12507271918862,46.71339078910772,0 10.125071733070863,46.71334763350966,0 10.12503949081605,46.71330761327084,0 10.125017675603024,46.713243359083684,0 10.124959113417347,46.71321922426352,0 10.124953638321125,46.713179372863976,0 10.124910898013058,46.7131388003629,0 10.124851158653206,46.71301386991465,0 10.124763165221841,46.71297147811553,0 10.124770353394782,46.71292892954508,0 10.124753894397019,46.712902130680156,0 10.12475358474488,46.712872552483276,0 10.124799049428688,46.71280431415513,0 10.124784317798442,46.712765480463766,0 10.124746782967662,46.71273597977934,0 10.124748996197159,46.71271034016168,0 10.124745529825349,46.71268160443396,0 10.124666400247577,46.712657881417314,0 10.124594728794106,46.71262038928775,0 10.124428159329932,46.71261631764175,0 10.124361127588267,46.71260190468333,0 10.124238746700154,46.71262077996846,0 10.124181510861513,46.712662908320034,0 10.124139045679142,46.71274466907763,0 10.12409712374453,46.712767246035014,0 10.124109831261514,46.7128589015895,0 10.124076251243787,46.71286209146031,0 10.123918429622758,46.71282342981987,0 10.1238852074092,46.71283380767579,0 10.123924323571993,46.71291844432693,0 10.123915018389715,46.71294185214151,0 10.123756630996677,46.712915197725444,0 10.123727977423146,46.71292386868907,0 10.123788407834189,46.71301599946024,0 10.123838963674062,46.71321591086167,0 10.12373146616705,46.713393556880824,0 10.123674706124573,46.713445269020916,0 10.123633222926594,46.713499794424784,0 10.123276284526082,46.7136951711063,0 10.123192047206524,46.71378373108756,0 10.123135681660363,46.713813058785256,0 10.123094732905178,46.713888088671894,0 10.123066250817354,46.714028761407576,0 10.123133867584892,46.71419049465372,0 10.123149668017392,46.714296704814664,0 10.123116816315573,46.71427038122409,0 10.123037188529713,46.714175609625386,0 10.122995562820774,46.71413142782498,0 10.12288030460575,46.71405335646201,0 10.122829345134884,46.71403287856149,0 10.122730912919959,46.713877129274756,0 10.12269077999759,46.71383652513807,0 10.122623754395503,46.71381010275923,0 10.122596658593586,46.71376738524621,0 10.122579071079223,46.71363902744282,0 10.1225678727022,46.71357245140228,0 10.122598848692897,46.71353468935089,0 10.122631203552649,46.71344541014732,0 10.122653540214113,46.71339249639367,0 10.122679500389983,46.713333174657365,0 10.122678444115708,46.713259133906355,0 10.122695160182966,46.71322532049848,0 10.122673225440852,46.71318067499114,0 10.122610646745676,46.71299412927744,0 10.122554615235126,46.71287170468899,0 10.122521504695756,46.71279722557745,0 10.12250627879801,46.71272893783157,0 10.122517137141202,46.71263022916717,0 10.122509314820563,46.71249944365634,0 10.122463517722538,46.712477037618534,0 10.122426338234542,46.712522171547235,0 10.122389908645578,46.71260666398325,0 10.12234689253307,46.71256049979776,0 10.12229812509452,46.71246889343041,0 10.122319924200077,46.71236922895836,0 10.122301691276764,46.712301873034214,0 10.122225769978519,46.71217892156669,0 10.12226890212497,46.71204037371752,0 10.122212225749163,46.71190658659869,0 10.122157192684417,46.71185270915626,0 10.122120125867454,46.71176242650285,0 10.122068977586428,46.71161424178846,0 10.122037602062857,46.7115214263312,0 10.121937975861925,46.711459802823136,0 10.12182368566508,46.71128925938141,0 10.121773986842214,46.71122566097178,0 10.121671481261336,46.711152910536654,0 10.121637307635442,46.71106728081642,0 10.121652999216296,46.71091498613763,0 10.121594471629955,46.710790825327365,0 10.121602426530377,46.71064670879994,0 10.121704274981328,46.71056595015428,0 10.12170455302592,46.71052462157785,0 10.121724167736808,46.71047458425192,0 10.121733006622005,46.710418403732334,0 10.12167185754107,46.71033508458442,0 10.12164447601769,46.7102757585169,0 10.12155500242279,46.710123506333844,0 10.121503745862162,46.71005194839745,0 10.121411104788775,46.709966971557066,0 10.12136589640771,46.71008717687824,0 10.121376403792787,46.71015809468581,0 10.121325931303112,46.71031280701729,0 10.121155475785182,46.7104704822644,0 10.12101889527988,46.71062482187363,0 10.12094916515823,46.710649651246605,0 10.120820917388178,46.71071423855772,0 10.12073924322966,46.7107881055732,0 10.120709894627447,46.7108295760383,0 10.120685938333901,46.710909300715,0 10.120606999954424,46.711006311144985,0 10.120595082668155,46.71095381747147,0 10.120516862186106,46.71087809585669,0 10.120467327683441,46.710630583529245,0 10.120599131503683,46.71049028996428,0 10.120605091513394,46.71042298278406,0 10.120597356181642,46.71033760681769,0 10.120549291573425,46.71022758373356,0 10.12050446082848,46.71021504512155,0 10.120407411450282,46.710134968803224,0 10.120343022710713,46.71009095901621,0 10.120274785132123,46.71000540712041,0 10.120255896584995,46.70995307739854,0 10.120212479090585,46.70982856051253,0 10.120204969276172,46.709752661984766,0 10.120170379571471,46.70968870751887,0 10.120131936089615,46.70964083582453,0 10.120135482764065,46.70959517476893,0 10.120113704206037,46.709554907201806,0 10.120050552378846,46.7094780312257,0 10.120040481139975,46.709509452749444,0 10.120064919767332,46.70960323150094,0 10.120050208739185,46.70970512755537,0 10.120002694506345,46.70984948725721,0 10.120000476512823,46.709968680818335,0 10.120030900094003,46.710107354216284,0 10.120094071369406,46.71023140653193,0 10.120073531518896,46.7102862629279,0 10.119935114055204,46.71033349711719,0 10.11980750108495,46.71041086199697,0 10.119632548375293,46.71049912184141,0 10.119487544163226,46.71057769503368,0 10.11936999102839,46.710646826775005,0 10.119320093491718,46.71067278796775,0 10.119308531194049,46.7107210362484,0 10.119275995098556,46.71072180134578,0 10.119262787372959,46.7106901276884,0 10.119221114090458,46.71069430604477,0 10.11918720663789,46.71071429392333,0 10.119159040768176,46.71070935894671,0 10.119135811713718,46.71068671660927,0 10.119165262593562,46.710600466171506,0 10.119197263982265,46.7104846624838,0 10.11927948084412,46.71040676654545,0 10.119382108185835,46.71029480711579,0 10.119496889905728,46.710166492841346,0 10.119517610701667,46.71006845349043,0 10.119499448148604,46.7100073109772,0 10.119435062434587,46.70986968226488,0 10.119312682681759,46.709724633063075,0 10.119127665005651,46.70957325084881,0 10.11901646986994,46.709419142668224,0 10.118965311146251,46.7092732563536,0 10.118857426775282,46.70906869496863,0 10.118844561154814,46.708946602882484,0 10.118828479012784,46.70881024833256,0 10.1188120796256,46.70866750435835,0 10.11875809503999,46.70849830935961,0 10.118746054788373,46.70837305418588,0 10.118689213682801,46.708224390010706,0 10.118606901451459,46.708089592562686,0 10.118511638222747,46.70797508967295,0 10.11843211806462,46.7078496465337,0 10.118393688727602,46.707778585403815,0 10.118387215771374,46.707741955663586,0 10.118355729796148,46.70764674311558,0 10.1183585180478,46.70751554217845,0 10.118398465664239,46.70742984479082,0 10.118391029169944,46.70739723569069,0 10.118354850617601,46.7073948878447,0 10.118312374938219,46.707406281248325,0 10.118264214388752,46.70749057246458,0 10.118246961169614,46.70754135323827,0 10.118125167534915,46.707688944955315,0 10.118101010445423,46.707764675736684,0 10.11812182878956,46.707879329699544,0 10.118139820061181,46.708040744789265,0 10.118113537025163,46.70828444285991,0 10.11807634475922,46.70842085479647,0 10.117912978280128,46.708691763118566,0 10.117691297657025,46.7090700832032,0 10.117599784449194,46.709217336444055,0 10.11755185037496,46.709563892670616,0 10.117595682117333,46.70971033640177,0 10.117615123278426,46.70977384795401,0 10.117623817485935,46.709855203439,0 10.117604896746839,46.70987243980718,0 10.117576731462709,46.70986750446679,0 10.117551242292496,46.709799337396376,0 10.117440832887011,46.709684389927155,0 10.117330925688345,46.709579397695244,0 10.117167533642682,46.709334559695016,0 10.117026875660116,46.709095737674346,0 10.116982724530267,46.7089328558877,0 10.11695651404682,46.70868972139331,0 10.116933580115157,46.708485561205926,0 10.11689068353228,46.7084159509662,0 10.116793456377259,46.70830868936622,0 10.116725052427713,46.708172764270586,0 10.116691146256239,46.70794414657524,0 10.116695473200128,46.70786728285195,0 10.11665948896711,46.70779856252683,0 10.11661736584158,46.707746778205276,0 10.116557563103596,46.70765709519996,0 10.116504151864744,46.70735449981231,0 10.116475798031393,46.70738771320692,0 10.116413804015771,46.70758079533342,0 10.116366056920517,46.70794704176335,0 10.116257086431572,46.708259162409995,0 10.116305505565123,46.70848540391299,0 10.116255416197292,46.70861476260177,0 10.116140099841429,46.70880494670763,0 10.116102088984329,46.70891201048805,0 10.116084502854505,46.70916490346366,0 10.11612944810888,46.70948089163141,0 10.116167167795245,46.70955769176046,0 10.116236725780936,46.70966870278241,0 10.116216843559775,46.7097235500614,0 10.11607245628988,46.709816173201375,0 10.115933610788291,46.709941142488034,0 10.115669233629259,46.710041869505645,0 10.11529316038273,46.71020736746158,0 10.115218229655946,46.710274469239465,0 10.115075320101369,46.710469450234484,0 10.114940084856991,46.7106292921705,0 10.114820715004935,46.710843141674225,0 10.114829056884004,46.711011265593754,0 10.114777464523907,46.71122008693464,0 10.114715286621012,46.71125780010017,0 10.114321283071776,46.711327902666774,0 10.114134683084915,46.711325808427674,0 10.114029652248036,46.71132992285342,0 10.11380984594472,46.71141794627579,0 10.113662951517034,46.71153274334313,0 10.113546248063543,46.711610578242734,0 10.113353317562094,46.711670780069404,0 10.113153693389409,46.71180219466012,0 10.113080854547531,46.71185827659223,0 10.113026699744944,46.711962695987076,0 10.112972057079483,46.712010354910674,0 10.11289567966937,46.71201854346558,0 10.112847416367138,46.71198369346906,0 10.112828864812954,46.71191456311755,0 10.112846468603124,46.71182379493626,0 10.112886019725043,46.71168293642129,0 10.112934390180408,46.71159919695268,0 10.113029136365796,46.71149222612391,0 10.11314170851569,46.711392832988295,0 10.113225705144734,46.71130370549086,0 10.113286418344277,46.711233644928946,0 10.113344903099389,46.71112272695717,0 10.11338087319075,46.71107390675423,0 10.113439713467242,46.711040541968956,0 10.113647661000119,46.710987686296605,0 10.113814541615268,46.71092779789854,0 10.113891656775516,46.71088760717007,0 10.11391489398034,46.710847604139914,0 10.113907103197223,46.71080780674243,0 10.113868149574012,46.71074955015449,0 10.113752921604442,46.710584399838034,0 10.113697607990975,46.71047775126956,0 10.113679729248824,46.7104221985061,0 10.113685873579923,46.710382288685906,0 10.113716732925601,46.71023043931498,0 10.113707001433202,46.71015150681844,0 10.113685587565305,46.71004807236221,0 10.113689839576566,46.70996961137664,0 10.113714069840439,46.70991866769742,0 10.113805563256776,46.709816569996754,0 10.11399553491469,46.70972337240488,0 10.114108326159677,46.7096519592014,0 10.114210302803816,46.70957360331078,0 10.114415835307632,46.709460970958524,0 10.114464056907721,46.70942465641457,0 10.114487361996026,46.709378531872176,0 10.114479769112737,46.7093427278927,0 10.11443648494463,46.70929097004936,0 10.114193061530838,46.70905650247753,0 10.114054007643892,46.708879855158635,0 10.114030939625096,46.7087900412327,0 10.114016855931222,46.70867968591169,0 10.11397201468287,46.7086199683714,0 10.11393341908919,46.70856889989334,0 10.113905624449917,46.70847759767394,0 10.113861839808774,46.70839226798035,0 10.113771505461257,46.70822058287201,0 10.11370343926172,46.708067856545235,0 10.113654150668495,46.70783275820588,0 10.113666364951184,46.70763336999285,0 10.1136962325547,46.70746155371102,0 10.113711884497716,46.70735421537176,0 10.113705428231091,46.70722403133314,0 10.113717813573112,46.70714537941643,0 10.113750692087883,46.70703109992348,0 10.113763763963098,46.70694283661105,0 10.113753320028303,46.70684952799244,0 10.113714868991204,46.70673699768917,0 10.113686772035539,46.70661611718074,0 10.113701177448087,46.706507832479794,0 10.113730412876928,46.706374385019025,0 10.113783953504232,46.70621080874256,0 10.113894680677083,46.70593015161325,0 10.113929960066109,46.705820577342976,0 10.113975548634217,46.70570069011819,0 10.11396884084205,46.70544817241602,0 10.113982392062308,46.70535391227845,0 10.114025553192116,46.70526254389053,0 10.114078207605287,46.70517495066547,0 10.114084861722793,46.705098032394396,0 10.114057477960813,46.705061893292935,0 10.11400721334638,46.70503348767907,0 10.113929446469268,46.70503691221166,0 10.113839030738898,46.705090208983165,0 10.11371666315272,46.70517943822643,0 10.113634709486904,46.705426840206684,0 10.113621965628038,46.705499844755266,0 10.11356365924848,46.70559076878489,0 10.113347056862798,46.705750175379634,0 10.113143287483746,46.70600275807725,0 10.11297010178754,46.70628342433427,0 10.112884158684533,46.70635660547838,0 10.112709751760601,46.70642866349201,0 10.11258443552953,46.70648197834333,0 10.112517980883327,46.706525916295746,0 10.112459631942059,46.70661604102294,0 10.112267362788069,46.707008359025984,0 10.112108518686908,46.70726987345633,0 10.111959735473183,46.707441956743914,0 10.111871993951441,46.70750238557494,0 10.11184571623779,46.70755897408303,0 10.111884041013326,46.70772199412911,0 10.11181195119683,46.70779504230345,0 10.111637933898209,46.70787508539425,0 10.111592247608753,46.70789214877153,0 10.111508505388427,46.707962878350834,0 10.111472773136596,46.708016490044294,0 10.11144382585883,46.708113121251095,0 10.11144713597577,46.70820339886171,0 10.111483862842789,46.70835766436612,0 10.111489906975931,46.708432685386164,0 10.111474283994895,46.70849302198292,0 10.1114223235674,46.70854781378791,0 10.11138086017309,46.70860315901823,0 10.111394523450905,46.7086676065784,0 10.111478067184475,46.7087835793563,0 10.111511721549396,46.70885235574446,0 10.111519945556418,46.70890093868784,0 10.111498764259286,46.70894301479754,0 10.11144669897051,46.70897222172956,0 10.111389431623463,46.708990356143865,0 10.111313295698118,46.70900333571943,0 10.111235350262916,46.70902675250277,0 10.111199577541768,46.70907956542956,0 10.11115028199129,46.7091646795255,0 10.11110518811365,46.7091937228497,0 10.111075965968123,46.709214398042434,0 10.110997228719569,46.70922184115167,0 10.110923920148199,46.70919797238963,0 10.11078519953702,46.709145252048344,0 10.110700627500236,46.70912884360834,0 10.110625020186163,46.70912901666418,0 10.11050416036798,46.70915503803901,0 10.110204697846562,46.70921563014242,0 10.110135953510065,46.70926041980279,0 10.110121347245578,46.70929434542505,0 10.110120506805552,46.70941830361168,0 10.110061008560132,46.709459627581545,0 10.109752865704989,46.709556404004324,0 10.10954635316094,46.70968518129599,0 10.109369877836272,46.70983324454034,0 10.109277250488272,46.70991133814231,0 10.109003708665247,46.709968375213045,0 10.108791050350266,46.7100217356796,0 10.108737119533156,46.71006141747939,0 10.108672822233698,46.71014260673387,0 10.108605487239757,46.71028789814805,0 10.108387932825435,46.71040967231516,0 10.108119311327613,46.71075239669255,0 10.108111224971367,46.71080056217666,0 10.108117154291804,46.71092036369368,0 10.108066309145123,46.711045405241684,0 10.108001608246328,46.711148469791574,0 10.107967854461311,46.711171649054805,0 10.10791816429914,46.71117840976966,0 10.107879912603586,46.71115771617652,0 10.107878371108512,46.71112656779136,0 10.107908022135343,46.711067502546776,0 10.107944961446032,46.711014663454684,0 10.107947356475467,46.710969029996704,0 10.107943605029357,46.710908389509626,0 10.107865710602983,46.710791872303716,0 10.107851229018832,46.710757828484645,0 10.107847734932218,46.71071073375087,0 10.107893498126977,46.710596686351515,0 10.107924041898364,46.71046163798132,0 10.107933343616011,46.710349732427794,0 10.10798144380388,46.710263848270074,0 10.1080523251605,46.71014464692822,0 10.108062355828295,46.71006525140091,0 10.108055628411462,46.709934724346404,0 10.108130033913518,46.70969869842994,0 10.108208639391185,46.70960689863698,0 10.108356036428798,46.709505895221994,0 10.108382303153668,46.709472496337604,0 10.108422354169079,46.70931803461223,0 10.108539057995664,46.70923723108262,0 10.108567229136801,46.70917180346329,0 10.108561885079487,46.70913434728361,0 10.108495382864184,46.70905994263035,0 10.108437700474406,46.708991295141125,0 10.10844664758224,46.70891352416968,0 10.108529010132031,46.708697301576535,0 10.108600094343888,46.708629269617774,0 10.108904225395957,46.70846575370858,0 10.109001465054515,46.70840910283368,0 10.109055490229398,46.70832547811042,0 10.109094755947996,46.70820434634486,0 10.109048464811003,46.70818917346978,0 10.108986951397227,46.70814503711385,0 10.108905377525657,46.70814215043487,0 10.10881038960753,46.70812678426345,0 10.108749667182893,46.70809862130758,0 10.10863946228075,46.70801084761254,0 10.108529503322401,46.70797504220488,0 10.108478243473932,46.70799703242413,0 10.108421110336344,46.70799437253317,0 10.108397926488959,46.707972526703564,0 10.10827969895385,46.70784016274924,0 10.108261853597465,46.70773814659551,0 10.108175505801286,46.707685795845265,0 10.10812171638315,46.70765667063607,0 10.108052853275757,46.707581521403995,0 10.108033746495588,46.70751179221872,0 10.108021012346613,46.70744252495891,0 10.107977664916431,46.707436343657,0 10.107947272670566,46.70740986889402,0 10.107912446136575,46.70736430740684,0 10.107877303406564,46.70731235662774,0 10.107741578546243,46.7072259792623,0 10.107696105064766,46.707223845638026,0 10.107667878850519,46.707194121607955,0 10.107605885373465,46.70721076563021,0 10.107533331828934,46.70720206957605,0 10.107495066487857,46.70715791704241,0 10.107408743946232,46.7071295532208,0 10.10736393478058,46.707093820560026,0 10.107306210023664,46.70707917996696,0 10.107292164282287,46.70705392153865,0 10.107022881125205,46.707128931453056,0 10.106786189811874,46.707220651228006,0 10.106624347554652,46.70728552844937,0 10.106436742163954,46.70737500765991,0 10.106419542963579,46.70734813828577,0 10.10653168696525,46.707144792344295,0 10.106665435055548,46.70681352684062,0 10.106721858136185,46.70663875676634,0 10.106765802440687,46.70656463943788,0 10.10651562340403,46.70664031117633,0 10.106056329901433,46.706691422492895,0 10.105848702586133,46.70672900728456,0 10.105425605435363,46.706838176258714,0 10.10538395961105,46.70683042351759,0 10.10533281009013,46.706662534366025,0 10.105360950696749,46.70652551651037,0 10.105360596448858,46.706486253277184,0 10.105494234823835,46.706268224133325,0 10.105623609651968,46.7061244741238,0 10.105790631119593,46.705924976669884,0 10.105864954810572,46.70579124148545,0 10.105900089251577,46.70573151198215,0 10.105639108807548,46.7057812537241,0 10.105385538031731,46.705788277271395,0 10.105237287610295,46.70580701779925,0 10.105078025333507,46.70585983287008,0 10.104729159980252,46.70589744699157,0 10.10442867982958,46.70591865599819,0 10.104272287678741,46.705933222178906,0 10.104017160815463,46.70597300541783,0 10.103394305795009,46.70605411148789,0 10.103312200244128,46.7060625761325,0 10.103168028453508,46.70603540189622,0 10.103020094578453,46.705996315763414,0 10.102814742733466,46.70591929997628,0 10.102570941810221,46.70580282005446,0 10.102431555687923,46.70580825926056,0 10.102379353105986,46.705811660861436,0 10.102162378822163,46.7059421818339,0 10.102091907404944,46.705961282485596,0 10.101920308520114,46.70598929126783,0 10.10185235800899,46.70593088081111,0 10.101846013587881,46.70586666743183,0 10.101868525009372,46.70580832514971,0 10.101915052776324,46.7057230278238,0 10.101997699928862,46.705629942283785,0 10.102096458581395,46.705580458188884,0 10.102198881713791,46.70555807483428,0 10.102359223947275,46.7055543279188,0 10.102632506812462,46.705552738901176,0 10.102725358399546,46.705524981553836,0 10.102886948684676,46.70543202700918,0 10.103099227148746,46.70525515079511,0 10.10315435560213,46.7052163195721,0 10.103173687643254,46.705136707148874,0 10.103129234245507,46.70506098454839,0 10.10303265004126,46.70494250247643,0 10.103016437241795,46.704873316199404,0 10.103033227861914,46.7047148157639,0 10.103096944203314,46.704591786980366,0 10.103189322780473,46.70434255068528,0 10.10322867863623,46.70422089087071,0 10.103277548226615,46.70412699467652,0 10.103356645687077,46.7040349953493,0 10.103541466466554,46.703867555712385,0 10.103722800415627,46.703700197260325,0 10.103880488576952,46.70359576033608,0 10.104079647622713,46.70348315697668,0 10.104185529389293,46.70343670277157,0 10.10433265058999,46.703424466501374,0 10.10429949997325,46.70337340226913,0 10.10421086147226,46.703345090359605,0 10.104113791817708,46.703287390291095,0 10.104021369587482,46.703229581466545,0 10.103955635229463,46.703217525385924,0 10.103830550206794,46.703228446315585,0 10.1037557183545,46.703220600838414,0 10.10372552784184,46.70319811826282,0 10.103721625826037,46.7031662254235,0 10.103744818938207,46.70311770704729,0 10.103833250714302,46.70304767316455,0 10.10391829765704,46.70300330562113,0 10.104033298174128,46.70297662835226,0 10.10417254410093,46.70299336213658,0 10.10426661876422,46.70303753895699,0 10.10434159097596,46.703071767651466,0 10.104436349120995,46.703059156651186,0 10.104504019572204,46.70294562961576,0 10.10456566610303,46.70285143399204,0 10.104655588186887,46.70269350810772,0 10.104728464365662,46.70247351214102,0 10.104913462082994,46.702308235042246,0 10.10498776866058,46.70221134417031,0 10.10506911939742,46.70206871111299,0 10.105135377463116,46.70202078402882,0 10.105337799337613,46.70192729241002,0 10.10549000860247,46.701853366112324,0 10.105637491230063,46.701777950975554,0 10.10559288510837,46.70174621107095,0 10.105337736898383,46.70173778815833,0 10.105004532548314,46.701750381168395,0 10.104702995731925,46.70179181776231,0 10.104441117950005,46.70183552431588,0 10.104228470565568,46.70188687464253,0 10.10407310247692,46.7018969049134,0 10.103938261481028,46.701992811970584,0 10.103857613754705,46.70210264406296,0 10.103811495847362,46.702110918871504,0 10.10373839732351,46.70209103888172,0 10.103691130917074,46.702028975576106,0 10.103606484786084,46.70191661169823,0 10.103540594303684,46.701901360700084,0 10.103459503600865,46.70190805423681,0 10.102901589498458,46.702128193708646,0 10.102601748323634,46.70225114436294,0 10.102490528316997,46.70226014061246,0 10.102299076350004,46.70226963031107,0 10.10214236892938,46.70229967930348,0 10.102005670102402,46.7023580461408,0 10.101867712097832,46.702438031426844,0 10.101686684356537,46.702470247222664,0 10.101514046756348,46.702531052310285,0 10.101380795075501,46.70263571467069,0 10.10125752935142,46.702786296547615,0 10.10119892690902,46.702824447141765,0 10.100915754891814,46.70288463491317,0 10.10071093217647,46.7029400163293,0 10.100482333640702,46.703020728112016,0 10.100447628350219,46.70305808306487,0 10.100381873984814,46.70313955965329,0 10.100321996434449,46.70317179232897,0 10.10024169931995,46.70319422365774,0 10.100184829784917,46.70318641551549,0 10.100161907011827,46.703159542429965,0 10.10017869520454,46.703062079170124,0 10.100245629717444,46.70293717860156,0 10.100295155121515,46.70282981475552,0 10.100421432590435,46.70269553416012,0 10.10051241208761,46.70249046065744,0 10.100600660240687,46.702258854712525,0 10.100630920418723,46.70219876316562,0 10.100627457417511,46.702094920739704,0 10.100572953184189,46.70213502219847,0 10.100376477571336,46.70226066419492,0 10.100205508757975,46.70233089356472,0 10.100152751704927,46.70232880956954,0 10.100100400053181,46.70231231768316,0 10.10008089611395,46.70228568048654,0 10.100083846413519,46.702253308838785,0 10.100024848953383,46.70225572849384,0 10.099942371454908,46.70230454537157,0 10.099906778816152,46.702351225470146,0 10.099834877093231,46.70255297279548,0 10.099760277267634,46.70260785773216,0 10.099644411663878,46.70262515114476,0 10.099476219420977,46.70259573293477,0 10.099286804360446,46.70253554925677,0 10.099144763196545,46.702575335695904,0 10.098982781939212,46.70261037716441,0 10.098863939487826,46.70269026073385,0 10.098693027184288,46.70272863635259,0 10.098562738125219,46.70282233297854,0 10.098479642292514,46.70292013822818,0 10.098382970611732,46.70301930227689,0 10.09831716103823,46.70311228241081,0 10.098096152285411,46.703241440031995,0 10.097962114617419,46.7033206350615,0 10.097831695268559,46.703380989082454,0 10.09775696245514,46.70352548968119,0 10.097704709720938,46.70359114238653,0 10.097602749834783,46.70364458007888,0 10.097432138462617,46.70381215744305,0 10.09736474456595,46.70392105782482,0 10.09725993422608,46.70400894838751,0 10.097166799551244,46.7041184489779,0 10.09713651700159,46.70411915528352,0 10.097115294311779,46.70408838958272,0 10.097107085433816,46.703983336769134,0 10.097041672263908,46.7039171309795,0 10.097031614960512,46.703836087871935,0 10.097039963144196,46.703700188349,0 10.096991925836328,46.70358668620687,0 10.097050108179461,46.70344465621801,0 10.09712802679358,46.70331475766205,0 10.097167167325939,46.70315545734046,0 10.097186157387352,46.7029238289937,0 10.097164321517791,46.70281909405243,0 10.097080512766425,46.70265640927077,0 10.097059051440734,46.7026241339331,0 10.097034157302565,46.702672647542116,0 10.097022137290384,46.70298240857605,0 10.096978123914356,46.70304283046663,0 10.096902443529613,46.70307585617508,0 10.096908883578005,46.7031142607986,0 10.096931439099814,46.70317208795566,0 10.096910803746674,46.70324551078296,0 10.09688303486174,46.70329721753516,0 10.096849185008134,46.70331780538897,0 10.096836996312671,46.70328578695749,0 10.096833791825535,46.70318999562047,0 10.096811466042277,46.70316759188721,0 10.096760423697743,46.703146899758856,0 10.096693751904915,46.70314741252738,0 10.096635625151523,46.70316752447686,0 10.096599877678894,46.70314960165915,0 10.09651457785061,46.703079691306925,0 10.096469259888735,46.70302135273731,0 10.096441161472837,46.70297407496754,0 10.096447579319834,46.70291974019606,0 10.096483793280616,46.702824071704846,0 10.096454488500063,46.702783074178754,0 10.096578570267518,46.70267941765984,0 10.096610217175222,46.70255259500044,0 10.096611657978427,46.70245877933317,0 10.096618486069568,46.70241277119405,0 10.096590182497708,46.702361330101986,0 10.096623008605077,46.70225844645787,0 10.096664525378369,46.70220888788997,0 10.096650976774452,46.70218002722941,0 10.096695744299902,46.70203595190029,0 10.096679583088692,46.70184607634499,0 10.09653644477711,46.701933624470776,0 10.09623569101592,46.702045120372205,0 10.096115521934513,46.702046362815736,0 10.096047278697935,46.70199649207091,0 10.096006804229035,46.7019116662309,0 10.09595487134935,46.701635458814856,0 10.095748589532652,46.70113188850039,0 10.09563815444337,46.70071508710487,0 10.095292908993946,46.70061397370934,0 10.095058188600975,46.700546150516395,0 10.094903191574371,46.700531049649776,0 10.09449271558957,46.70022737775959,0 10.09396333128573,46.69986735779112,0 10.09354713972969,46.69961506647137,0 10.093370493413037,46.69952873336887,0 10.093055131609077,46.69948149801891,0 10.092515523326789,46.69953305028812,0 10.092252187792123,46.69957504892531,0 10.092006320508416,46.69955093417676,0 10.0918446506283,46.69949231999626,0 10.091434624378573,46.699180619034664,0 10.091112514001114,46.69886141144552,0 10.09102238240601,46.69859684418338,0 10.09104955283215,46.69845742130636,0 10.091016988359804,46.69814011822161,0 10.090986749510625,46.697986437020845,0 10.090681488744627,46.698006016313144,0 10.090409799454006,46.69797023314554,0 10.090301824552748,46.69789633262922,0 10.090195091186173,46.69798614474571,0 10.090148383938148,46.698051168542634,0</coordinates></LineString></Placemark></Document></kml>